{
"type": "FeatureCollection",
"features": [
{
  "type": "Feature",
  "id": "node/166004114",
  "properties": {
    "timestamp": "2017-09-15T07:37:36Z",
    "version": "7",
    "changeset": "1",
    "user": "KAMI",
    "uid": "4579407",
    "addr:city": "Budapest",
    "addr:country": "HU",
    "addr:housenumber": "35",
    "addr:postcode": "1223",
    "addr:street": "Nagytétényi út",
    "branch": "Campona Hipermarket",
    "brand": "Tesco",
    "brand:wikidata": "Q487494",
    "brand:wikipedia": "hu:Tesco",
    "facebook": "https://www.facebook.com/tescoaruhazak/",
    "import": "osm_poi_matchmaker",
    "internet_access": "wlan",
    "internet_access:fee": "no",
    "name": "Tesco",
    "opening_hours": "Mo-Sa 06:00-22:00; Su 07:00-20:00",
    "operator": "TESCO-GLOBAL Áruházak Zrt.",
    "payment:cash": "yes",
    "payment:debit_cards": "yes",
    "ref:vatin:hu": "10307078-2-44",
    "shop": "supermarket",
    "source": "website",
    "source:date": "2018-07-15",
    "toilets:wheelchair": "yes",
    "website": "https://www.tesco.hu/aruhazak/aruhaz/tesco-campona-hipermarket",
    "wheelchair": "yes",
    "youtube": "https://www.youtube.com/user/TescoMagyarorszag",
    "id": "node/166004114"
  },
  "geometry": {
    "type": "Point",
    "coordinates": [
      19.0193187973525,
      47.4079450949148
    ]
  }
},
{
  "type": "Feature",
  "id": "node/324584681",
  "properties": {
    "timestamp": "2017-07-25T12:06:54Z",
    "version": "4",
    "changeset": "1",
    "user": "KAMI",
    "uid": "4579407",
    "addr:city": "Ráckeve",
    "addr:country": "HU",
    "addr:housenumber": "98-100",
    "addr:postcode": "2300",
    "addr:street": "Kossuth Lajos utca",
    "branch": "Ráckeve Szupermarket",
    "brand": "Tesco",
    "brand:wikidata": "Q487494",
    "brand:wikipedia": "hu:Tesco",
    "facebook": "https://www.facebook.com/tescoaruhazak/",
    "import": "osm_poi_matchmaker",
    "internet_access": "wlan",
    "internet_access:fee": "no",
    "name": "Tesco",
    "opening_hours": "Mo-Sa 06:00-22:00; Su 08:00-20:00",
    "operator": "TESCO-GLOBAL Áruházak Zrt.",
    "payment:cash": "yes",
    "payment:debit_cards": "yes",
    "ref:vatin:hu": "10307078-2-44",
    "shop": "supermarket",
    "source": "website",
    "source:date": "2018-07-15",
    "toilets:wheelchair": "no",
    "website": "https://www.tesco.hu/aruhazak/aruhaz/tesco-rackeve-szupermarket",
    "wheelchair": "yes",
    "youtube": "https://www.youtube.com/user/TescoMagyarorszag",
    "id": "node/324584681"
  },
  "geometry": {
    "type": "Point",
    "coordinates": [
      18.943632197363,
      47.1730826949249
    ]
  }
},
{
  "type": "Feature",
  "id": "node/483596662",
  "properties": {
    "timestamp": "2017-07-15T18:48:00Z",
    "version": "6",
    "changeset": "1",
    "user": "KAMI",
    "uid": "4579407",
    "addr:city": "Budapest",
    "addr:country": "HU",
    "addr:housenumber": "131",
    "addr:postcode": "1152",
    "addr:street": "Szentmihályi út",
    "branch": "Pólus Hipermarket",
    "brand": "Tesco",
    "brand:wikidata": "Q487494",
    "brand:wikipedia": "hu:Tesco",
    "facebook": "https://www.facebook.com/tescoaruhazak/",
    "import": "osm_poi_matchmaker",
    "internet_access": "wlan",
    "internet_access:fee": "no",
    "name": "Tesco",
    "opening_hours": "Mo-Sa 06:00-22:00; Su 07:00-20:00",
    "operator": "TESCO-GLOBAL Áruházak Zrt.",
    "payment:cash": "yes",
    "payment:debit_cards": "yes",
    "ref:vatin:hu": "10307078-2-44",
    "shop": "supermarket",
    "source": "website",
    "source:date": "2018-07-15",
    "website": "https://www.tesco.hu/aruhazak/aruhaz/tesco-polus-hipermarket",
    "wheelchair": "yes",
    "youtube": "https://www.youtube.com/user/TescoMagyarorszag",
    "id": "node/483596662"
  },
  "geometry": {
    "type": "Point",
    "coordinates": [
      19.1391796973358,
      47.5517920949087
    ]
  }
},
{
  "type": "Feature",
  "id": "node/948125218",
  "properties": {
    "timestamp": "2012-01-22T16:53:42Z",
    "version": "3",
    "changeset": "1",
    "user": "KAMI",
    "uid": "4579407",
    "addr:city": "Siklós",
    "addr:country": "HU",
    "addr:housenumber": "55",
    "addr:postcode": "7800",
    "addr:street": "Harkányi utca",
    "branch": "Siklós Hipermarket",
    "brand": "Tesco",
    "brand:wikidata": "Q487494",
    "brand:wikipedia": "hu:Tesco",
    "facebook": "https://www.facebook.com/tescoaruhazak/",
    "import": "osm_poi_matchmaker",
    "internet_access": "wlan",
    "internet_access:fee": "no",
    "name": "Tesco",
    "opening_hours": "Mo-Sa 06:00-22:00; Su 07:00-20:00",
    "operator": "TESCO-GLOBAL Áruházak Zrt.",
    "payment:cash": "yes",
    "payment:debit_cards": "yes",
    "ref:vatin:hu": "10307078-2-44",
    "shop": "supermarket",
    "source": "website",
    "source:date": "2018-07-15",
    "website": "https://www.tesco.hu/aruhazak/aruhaz/tesco-siklos-hipermarket",
    "wheelchair": "yes",
    "youtube": "https://www.youtube.com/user/TescoMagyarorszag",
    "id": "node/948125218"
  },
  "geometry": {
    "type": "Point",
    "coordinates": [
      18.2781540974557,
      45.8568727949859
    ]
  }
},
{
  "type": "Feature",
  "id": "node/1156820103",
  "properties": {
    "timestamp": "2017-09-11T10:03:40Z",
    "version": "4",
    "changeset": "1",
    "user": "KAMI",
    "uid": "4579407",
    "addr:city": "Bicske",
    "addr:country": "HU",
    "addr:housenumber": "4",
    "addr:postcode": "2060",
    "addr:street": "Csabdi út",
    "branch": "Bicske Hipermarket",
    "brand": "Tesco",
    "brand:wikidata": "Q487494",
    "brand:wikipedia": "hu:Tesco",
    "facebook": "https://www.facebook.com/tescoaruhazak/",
    "import": "osm_poi_matchmaker",
    "internet_access": "wlan",
    "internet_access:fee": "no",
    "name": "Tesco",
    "opening_hours": "Mo-Sa 06:00-22:00; Su 08:00-20:00",
    "operator": "TESCO-GLOBAL Áruházak Zrt.",
    "payment:cash": "yes",
    "payment:debit_cards": "yes",
    "ref:vatin:hu": "10307078-2-44",
    "shop": "supermarket",
    "source": "website",
    "source:date": "2018-07-15",
    "website": "https://www.tesco.hu/aruhazak/aruhaz/tesco-bicske-hipermarket",
    "wheelchair": "yes",
    "youtube": "https://www.youtube.com/user/TescoMagyarorszag",
    "id": "node/1156820103"
  },
  "geometry": {
    "type": "Point",
    "coordinates": [
      18.6283517974069,
      47.5028645949107
    ]
  }
},
{
  "type": "Feature",
  "id": "node/1251052088",
  "properties": {
    "timestamp": "2018-06-02T12:09:01Z",
    "version": "3",
    "changeset": "1",
    "user": "KAMI",
    "uid": "4579407",
    "addr:city": "Kiskunhalas",
    "addr:country": "HU",
    "addr:housenumber": "24",
    "addr:postcode": "6400",
    "addr:street": "Fejérföld utca",
    "branch": "Kiskunhalas Hipermarket",
    "brand": "Tesco",
    "brand:wikidata": "Q487494",
    "brand:wikipedia": "hu:Tesco",
    "facebook": "https://www.facebook.com/tescoaruhazak/",
    "import": "osm_poi_matchmaker",
    "internet_access": "wlan",
    "internet_access:fee": "no",
    "name": "Tesco",
    "opening_hours": "Mo-Sa 06:00-22:00; Su 07:00-20:00",
    "operator": "TESCO-GLOBAL Áruházak Zrt.",
    "payment:cash": "yes",
    "payment:debit_cards": "yes",
    "ref:vatin:hu": "10307078-2-44",
    "shop": "supermarket",
    "source": "website",
    "source:date": "2018-07-15",
    "toilets:wheelchair": "yes",
    "website": "https://www.tesco.hu/aruhazak/aruhaz/tesco-kiskunhalas-hipermarket",
    "wheelchair": "yes",
    "youtube": "https://www.youtube.com/user/TescoMagyarorszag",
    "id": "node/1251052088"
  },
  "geometry": {
    "type": "Point",
    "coordinates": [
      19.4990828972857,
      46.418348694959
    ]
  }
},
{
  "type": "Feature",
  "id": "node/1332575876",
  "properties": {
    "timestamp": "2011-06-20T18:27:40Z",
    "version": "1",
    "changeset": "1",
    "user": "KAMI",
    "uid": "4579407",
    "addr:city": "Miskolc",
    "addr:country": "HU",
    "addr:housenumber": "1",
    "addr:postcode": "3531",
    "addr:street": "Nagyváthy J. utca",
    "branch": "Miskolc Szupermarket",
    "brand": "Tesco",
    "brand:wikidata": "Q487494",
    "brand:wikipedia": "hu:Tesco",
    "facebook": "https://www.facebook.com/tescoaruhazak/",
    "import": "osm_poi_matchmaker",
    "internet_access": "wlan",
    "internet_access:fee": "no",
    "name": "Tesco",
    "opening_hours": "Mo-Sa 06:00-21:00; Su 07:00-18:00",
    "operator": "TESCO-GLOBAL Áruházak Zrt.",
    "payment:cash": "yes",
    "payment:debit_cards": "yes",
    "ref:vatin:hu": "10307078-2-44",
    "shop": "supermarket",
    "source": "website",
    "source:date": "2018-07-15",
    "website": "https://www.tesco.hu/aruhazak/aruhaz/tesco-miskolc-szupermarket",
    "wheelchair": "yes",
    "youtube": "https://www.youtube.com/user/TescoMagyarorszag",
    "id": "node/1332575876"
  },
  "geometry": {
    "type": "Point",
    "coordinates": [
      20.7643768971096,
      48.1031990948861
    ]
  }
},
{
  "type": "Feature",
  "id": "node/1492382764",
  "properties": {
    "timestamp": "2016-12-26T15:17:43Z",
    "version": "6",
    "changeset": "1",
    "user": "KAMI",
    "uid": "4579407",
    "addr:city": "Monor",
    "addr:country": "HU",
    "addr:postcode": "2200",
    "addr:street": "4-es főút",
    "branch": "Monor Hipermarket",
    "brand": "Tesco",
    "brand:wikidata": "Q487494",
    "brand:wikipedia": "hu:Tesco",
    "facebook": "https://www.facebook.com/tescoaruhazak/",
    "import": "osm_poi_matchmaker",
    "internet_access": "wlan",
    "internet_access:fee": "no",
    "name": "Tesco",
    "opening_hours": "Mo-Sa 06:00-22:00; Su 08:00-18:00",
    "operator": "TESCO-GLOBAL Áruházak Zrt.",
    "payment:cash": "yes",
    "payment:debit_cards": "yes",
    "ref:vatin:hu": "10307078-2-44",
    "shop": "supermarket",
    "source": "website",
    "source:date": "2018-07-15",
    "website": "https://www.tesco.hu/aruhazak/aruhaz/tesco-monor-hipermarket",
    "wheelchair": "yes",
    "youtube": "https://www.youtube.com/user/TescoMagyarorszag",
    "id": "node/1492382764"
  },
  "geometry": {
    "type": "Point",
    "coordinates": [
      19.410953997298,
      47.3478881949173
    ]
  }
},
{
  "type": "Feature",
  "id": "node/1788509369",
  "properties": {
    "timestamp": "2017-09-04T11:14:10Z",
    "version": "8",
    "changeset": "1",
    "user": "KAMI",
    "uid": "4579407",
    "addr:city": "Balatonfüred",
    "addr:country": "HU",
    "addr:housename": "TESCO MARINA CENTER",
    "addr:housenumber": "55",
    "addr:postcode": "8230",
    "addr:street": "Széchenyi utca",
    "branch": "Balatonfüred Hipermarket",
    "brand": "Tesco",
    "brand:wikidata": "Q487494",
    "brand:wikipedia": "hu:Tesco",
    "facebook": "https://www.facebook.com/tescoaruhazak/",
    "import": "osm_poi_matchmaker",
    "internet_access": "wlan",
    "internet_access:fee": "no",
    "level": "1",
    "name": "Tesco",
    "opening_hours": "Mo-Su 00:00-24:00",
    "operator": "TESCO-GLOBAL Áruházak Zrt.",
    "payment:cash": "yes",
    "payment:debit_cards": "yes",
    "phone": "+36208211311",
    "ref:vatin:hu": "10307078-2-44",
    "shop": "supermarket",
    "source": "website",
    "source:date": "2018-07-15",
    "toilets:wheelchair": "yes",
    "website": "https://www.tesco.hu/aruhazak/aruhaz/tesco-balatonfured-hipermarket",
    "wheelchair": "yes",
    "youtube": "https://www.youtube.com/user/TescoMagyarorszag",
    "id": "node/1788509369"
  },
  "geometry": {
    "type": "Point",
    "coordinates": [
      17.8774123975114,
      46.9482254949348
    ]
  }
},
{
  "type": "Feature",
  "id": "node/1839858422",
  "properties": {
    "timestamp": "2017-09-08T10:48:12Z",
    "version": "2",
    "changeset": "1",
    "user": "KAMI",
    "uid": "4579407",
    "addr:city": "Kunszentmiklós",
    "addr:country": "HU",
    "addr:housenumber": "57/A",
    "addr:postcode": "6090",
    "addr:street": "Rákóczi F. utca",
    "branch": "Kunszentmiklós Szupermarket",
    "brand": "Tesco",
    "brand:wikidata": "Q487494",
    "brand:wikipedia": "hu:Tesco",
    "facebook": "https://www.facebook.com/tescoaruhazak/",
    "import": "osm_poi_matchmaker",
    "internet_access": "wlan",
    "internet_access:fee": "no",
    "name": "Tesco",
    "opening_hours": "Mo-Sa 06:00-21:00; Su 07:00-18:00",
    "operator": "TESCO-GLOBAL Áruházak Zrt.",
    "payment:cash": "yes",
    "payment:debit_cards": "yes",
    "ref:vatin:hu": "10307078-2-44",
    "shop": "supermarket",
    "source": "website",
    "source:date": "2018-07-15",
    "toilets:wheelchair": "no",
    "website": "https://www.tesco.hu/aruhazak/aruhaz/tesco-kunszentmiklos-szupermarket",
    "wheelchair": "yes",
    "youtube": "https://www.youtube.com/user/TescoMagyarorszag",
    "id": "node/1839858422"
  },
  "geometry": {
    "type": "Point",
    "coordinates": [
      19.1111526973397,
      47.0226389949315
    ]
  }
},
{
  "type": "Feature",
  "id": "node/1868466510",
  "properties": {
    "timestamp": "2012-08-16T09:52:44Z",
    "version": "1",
    "changeset": "1",
    "user": "KAMI",
    "uid": "4579407",
    "addr:city": "Hódmezővásárhely",
    "addr:country": "HU",
    "addr:housenumber": "17",
    "addr:postcode": "6800",
    "addr:street": "Hódtó utca",
    "branch": "Hódmezővásárhely Hipermarket",
    "brand": "Tesco",
    "brand:wikidata": "Q487494",
    "brand:wikipedia": "hu:Tesco",
    "facebook": "https://www.facebook.com/tescoaruhazak/",
    "import": "osm_poi_matchmaker",
    "internet_access": "wlan",
    "internet_access:fee": "no",
    "name": "Tesco",
    "opening_hours": "Mo-Sa 06:00-22:00; Su 07:00-20:00",
    "operator": "TESCO-GLOBAL Áruházak Zrt.",
    "payment:cash": "yes",
    "payment:debit_cards": "yes",
    "ref:vatin:hu": "10307078-2-44",
    "shop": "supermarket",
    "source": "website",
    "source:date": "2018-07-15",
    "website": "https://www.tesco.hu/aruhazak/aruhaz/tesco-hodmezovasarhely-hipermarket",
    "wheelchair": "yes",
    "youtube": "https://www.youtube.com/user/TescoMagyarorszag",
    "id": "node/1868466510"
  },
  "geometry": {
    "type": "Point",
    "coordinates": [
      20.3324528971697,
      46.4125485949593
    ]
  }
},
{
  "type": "Feature",
  "id": "node/2316853129",
  "properties": {
    "timestamp": "2015-11-21T18:45:00Z",
    "version": "6",
    "changeset": "1",
    "user": "KAMI",
    "uid": "4579407",
    "addr:city": "Székesfehérvár",
    "addr:country": "HU",
    "addr:housenumber": "6",
    "addr:postcode": "8000",
    "addr:street": "Palotai út",
    "branch": "Székesfehérvár Palota Hipermarket",
    "brand": "Tesco",
    "brand:wikidata": "Q487494",
    "brand:wikipedia": "hu:Tesco",
    "facebook": "https://www.facebook.com/tescoaruhazak/",
    "import": "osm_poi_matchmaker",
    "internet_access": "wlan",
    "internet_access:fee": "no",
    "name": "Tesco",
    "opening_hours": "Mo-Sa 06:00-22:00; Su 07:00-20:00",
    "operator": "TESCO-GLOBAL Áruházak Zrt.",
    "payment:cash": "yes",
    "payment:debit_cards": "yes",
    "ref:vatin:hu": "10307078-2-44",
    "shop": "supermarket",
    "source": "website",
    "source:date": "2018-07-15",
    "website": "https://www.tesco.hu/aruhazak/aruhaz/tesco-szekesfehervar-palota-hipermarket",
    "wheelchair": "yes",
    "youtube": "https://www.youtube.com/user/TescoMagyarorszag",
    "id": "node/2316853129"
  },
  "geometry": {
    "type": "Point",
    "coordinates": [
      18.4041081974381,
      47.1900589949242
    ]
  }
},
{
  "type": "Feature",
  "id": "node/2433857103",
  "properties": {
    "timestamp": "2016-08-23T17:38:49Z",
    "version": "4",
    "changeset": "1",
    "user": "KAMI",
    "uid": "4579407",
    "addr:city": "Szeged",
    "addr:country": "HU",
    "addr:housenumber": "1",
    "addr:postcode": "6723",
    "addr:street": "Etelka sor",
    "branch": "Szeged - Tisza Center Szupermarket",
    "brand": "Tesco",
    "brand:wikidata": "Q487494",
    "brand:wikipedia": "hu:Tesco",
    "facebook": "https://www.facebook.com/tescoaruhazak/",
    "import": "osm_poi_matchmaker",
    "internet_access": "wlan",
    "internet_access:fee": "no",
    "name": "Tesco",
    "opening_hours": "Mo-Sa 06:00-22:00; Su 07:00-18:00",
    "operator": "TESCO-GLOBAL Áruházak Zrt.",
    "payment:cash": "yes",
    "payment:debit_cards": "yes",
    "ref:vatin:hu": "10307078-2-44",
    "shop": "supermarket",
    "source": "website",
    "source:date": "2018-07-15",
    "website": "https://www.tesco.hu/aruhazak/aruhaz/tesco-szeged-tisza-center-szupermarket",
    "wheelchair": "yes",
    "youtube": "https://www.youtube.com/user/TescoMagyarorszag",
    "id": "node/2433857103"
  },
  "geometry": {
    "type": "Point",
    "coordinates": [
      20.1716920971921,
      46.2596247949665
    ]
  }
},
{
  "type": "Feature",
  "id": "node/2906134501",
  "properties": {
    "timestamp": "2014-06-08T18:14:01Z",
    "version": "1",
    "changeset": "1",
    "user": "KAMI",
    "uid": "4579407",
    "addr:city": "Sülysáp",
    "addr:country": "HU",
    "addr:housenumber": "6",
    "addr:postcode": "2241",
    "addr:street": "Szent István tér",
    "branch": "Sülysáp Szupermarket",
    "brand": "Tesco",
    "brand:wikidata": "Q487494",
    "brand:wikipedia": "hu:Tesco",
    "facebook": "https://www.facebook.com/tescoaruhazak/",
    "import": "osm_poi_matchmaker",
    "internet_access": "wlan",
    "internet_access:fee": "no",
    "name": "Tesco",
    "opening_hours": "Mo-Sa 06:00-22:00; Su 07:00-18:00",
    "operator": "TESCO-GLOBAL Áruházak Zrt.",
    "payment:cash": "yes",
    "payment:debit_cards": "yes",
    "ref:vatin:hu": "10307078-2-44",
    "shop": "supermarket",
    "source": "website",
    "source:date": "2018-07-15",
    "website": "https://www.tesco.hu/aruhazak/aruhaz/tesco-sulysap-szupermarket",
    "wheelchair": "yes",
    "youtube": "https://www.youtube.com/user/TescoMagyarorszag",
    "id": "node/2906134501"
  },
  "geometry": {
    "type": "Point",
    "coordinates": [
      19.5343434972808,
      47.4506210949129
    ]
  }
},
{
  "type": "Feature",
  "id": "node/2923512776",
  "properties": {
    "timestamp": "2017-09-08T12:53:30Z",
    "version": "7",
    "changeset": "1",
    "user": "KAMI",
    "uid": "4579407",
    "addr:city": "Szekszárd",
    "addr:country": "HU",
    "addr:housenumber": "31",
    "addr:postcode": "7100",
    "addr:street": "Arany János utca",
    "branch": "Szekszárd Szupermarket",
    "brand": "Tesco",
    "brand:wikidata": "Q487494",
    "brand:wikipedia": "hu:Tesco",
    "facebook": "https://www.facebook.com/tescoaruhazak/",
    "import": "osm_poi_matchmaker",
    "internet_access": "wlan",
    "internet_access:fee": "no",
    "name": "Tesco",
    "opening_hours": "Mo-Sa 06:00-21:00; Su 08:00-16:00",
    "operator": "TESCO-GLOBAL Áruházak Zrt.",
    "payment:cash": "yes",
    "payment:debit_cards": "yes",
    "ref:vatin:hu": "10307078-2-44",
    "shop": "supermarket",
    "source": "website",
    "source:date": "2018-07-15",
    "toilets:wheelchair": "no",
    "website": "https://www.tesco.hu/aruhazak/aruhaz/tesco-szekszard-szupermarket",
    "wheelchair": "yes",
    "youtube": "https://www.youtube.com/user/TescoMagyarorszag",
    "id": "node/2923512776"
  },
  "geometry": {
    "type": "Point",
    "coordinates": [
      18.7030108973965,
      46.3471309949623
    ]
  }
},
{
  "type": "Feature",
  "id": "node/3237453813",
  "properties": {
    "timestamp": "2017-09-21T07:42:51Z",
    "version": "2",
    "changeset": "1",
    "user": "KAMI",
    "uid": "4579407",
    "addr:city": "Vác",
    "addr:country": "HU",
    "addr:housenumber": "2",
    "addr:postcode": "2600",
    "addr:street": "Deres utca",
    "branch": "Vác Hipermarket",
    "brand": "Tesco",
    "brand:wikidata": "Q487494",
    "brand:wikipedia": "hu:Tesco",
    "facebook": "https://www.facebook.com/tescoaruhazak/",
    "import": "osm_poi_matchmaker",
    "internet_access": "wlan",
    "internet_access:fee": "no",
    "name": "Tesco",
    "opening_hours": "Mo-Sa 06:00-22:00; Su 07:00-22:00",
    "operator": "TESCO-GLOBAL Áruházak Zrt.",
    "payment:cash": "yes",
    "payment:debit_cards": "yes",
    "ref:vatin:hu": "10307078-2-44",
    "shop": "supermarket",
    "source": "website",
    "source:date": "2018-07-15",
    "toilets:wheelchair": "yes",
    "website": "https://www.tesco.hu/aruhazak/aruhaz/tesco-vac-hipermarket",
    "wheelchair": "yes",
    "youtube": "https://www.youtube.com/user/TescoMagyarorszag",
    "id": "node/3237453813"
  },
  "geometry": {
    "type": "Point",
    "coordinates": [
      19.1461795973348,
      47.7559585949002
    ]
  }
},
{
  "type": "Feature",
  "id": "node/3264424348",
  "properties": {
    "timestamp": "2017-09-27T07:01:28Z",
    "version": "3",
    "changeset": "1",
    "user": "KAMI",
    "uid": "4579407",
    "addr:city": "Szolnok",
    "addr:country": "HU",
    "addr:housenumber": "38",
    "addr:postcode": "5008",
    "addr:street": "Karinthy Frigyes út",
    "branch": "Szolnok - Szandaszőlős Szupermarket",
    "brand": "Tesco",
    "brand:wikidata": "Q487494",
    "brand:wikipedia": "hu:Tesco",
    "facebook": "https://www.facebook.com/tescoaruhazak/",
    "import": "osm_poi_matchmaker",
    "internet_access": "wlan",
    "internet_access:fee": "no",
    "name": "Tesco",
    "opening_hours": "Mo-Sa 06:00-22:00; Su 07:00-20:00",
    "operator": "TESCO-GLOBAL Áruházak Zrt.",
    "payment:cash": "yes",
    "payment:debit_cards": "yes",
    "ref:vatin:hu": "10307078-2-44",
    "shop": "supermarket",
    "source": "website",
    "source:date": "2018-07-15",
    "website": "https://www.tesco.hu/aruhazak/aruhaz/tesco-szolnok-szandaszolos-szupermarket",
    "wheelchair": "yes",
    "youtube": "https://www.youtube.com/user/TescoMagyarorszag",
    "id": "node/3264424348"
  },
  "geometry": {
    "type": "Point",
    "coordinates": [
      20.2174621971857,
      47.1322748949267
    ]
  }
},
{
  "type": "Feature",
  "id": "node/3465808596",
  "properties": {
    "timestamp": "2017-07-21T08:04:41Z",
    "version": "4",
    "changeset": "1",
    "user": "KAMI",
    "uid": "4579407",
    "addr:city": "Dunaharaszti",
    "addr:country": "HU",
    "addr:housenumber": "56",
    "addr:postcode": "2330",
    "addr:street": "Fő utca",
    "branch": "Dunaharaszti Szupermarket",
    "brand": "Tesco",
    "brand:wikidata": "Q487494",
    "brand:wikipedia": "hu:Tesco",
    "facebook": "https://www.facebook.com/tescoaruhazak/",
    "fixme": "check opening_hours",
    "import": "osm_poi_matchmaker",
    "internet_access": "wlan",
    "internet_access:fee": "no",
    "name": "Tesco",
    "opening_hours": "Mo-Sa 07:00-21:00; Su 08:00-16:00",
    "operator": "TESCO-GLOBAL Áruházak Zrt.",
    "payment:cash": "yes",
    "payment:debit_cards": "yes",
    "ref:vatin:hu": "10307078-2-44",
    "shop": "supermarket",
    "source": "website",
    "source:date": "2018-07-15",
    "toilets:wheelchair": "no",
    "url": "http://turistautak.hu/poi.php?id=79512",
    "website": "https://www.tesco.hu/aruhazak/aruhaz/tesco-dunaharaszti-szupermarket",
    "wheelchair": "yes",
    "youtube": "https://www.youtube.com/user/TescoMagyarorszag",
    "id": "node/3465808596"
  },
  "geometry": {
    "type": "Point",
    "coordinates": [
      19.0882109973429,
      47.3617779949167
    ]
  }
},
{
  "type": "Feature",
  "id": "node/3485173360",
  "properties": {
    "timestamp": "2017-12-27T15:45:48Z",
    "version": "3",
    "changeset": "1",
    "user": "KAMI",
    "uid": "4579407",
    "addr:city": "Sarkad",
    "addr:country": "HU",
    "addr:housenumber": "3-7",
    "addr:postcode": "5720",
    "addr:street": "Szalontai utca",
    "branch": "Sarkad Szupermarket",
    "brand": "Tesco",
    "brand:wikidata": "Q487494",
    "brand:wikipedia": "hu:Tesco",
    "contact:phone": "+36 20 8278253",
    "description": "5720 Sarkad, Szalontai u. 3-7. Tel.: 20/827-8253 H-V: 6.00-20.00",
    "facebook": "https://www.facebook.com/tescoaruhazak/",
    "fixme": "resurvey (source was old)",
    "import": "osm_poi_matchmaker",
    "internet_access": "wlan",
    "internet_access:fee": "no",
    "name": "Tesco",
    "opening_hours": "Mo-Sa 06:00-21:00; Su 08:00-16:00",
    "operator": "TESCO-GLOBAL Áruházak Zrt.",
    "payment:cash": "yes",
    "payment:debit_cards": "yes",
    "ref:vatin:hu": "10307078-2-44",
    "shop": "supermarket",
    "source": "website",
    "source:date": "2018-07-15",
    "url": "http://turistautak.hu/poi.php?id=50561",
    "website": "https://www.tesco.hu/aruhazak/aruhaz/tesco-sarkad-szupermarket",
    "wheelchair": "yes",
    "youtube": "https://www.youtube.com/user/TescoMagyarorszag",
    "id": "node/3485173360"
  },
  "geometry": {
    "type": "Point",
    "coordinates": [
      21.3856999970231,
      46.7464669949439
    ]
  }
},
{
  "type": "Feature",
  "id": "node/3843299091",
  "properties": {
    "timestamp": "2016-01-19T10:45:26Z",
    "version": "3",
    "changeset": "1",
    "user": "KAMI",
    "uid": "4579407",
    "addr:city": "Debrecen",
    "addr:country": "HU",
    "addr:housenumber": "9",
    "addr:postcode": "4225",
    "addr:street": "Szentgyörgyfalvi utca",
    "addr:suburb": "Józsa",
    "branch": "Debrecen Szupermarket",
    "brand": "Tesco",
    "brand:wikidata": "Q487494",
    "brand:wikipedia": "hu:Tesco",
    "facebook": "https://www.facebook.com/tescoaruhazak/",
    "import": "osm_poi_matchmaker",
    "internet_access": "wlan",
    "internet_access:fee": "no",
    "name": "Tesco",
    "opening_hours": "Mo-Sa 06:00-21:00; Su 08:00-16:00",
    "operator": "TESCO-GLOBAL Áruházak Zrt.",
    "payment:cash": "yes",
    "payment:debit_cards": "yes",
    "ref:vatin:hu": "10307078-2-44",
    "shop": "supermarket",
    "source": "website",
    "source:date": "2018-07-15",
    "website": "https://www.tesco.hu/aruhazak/aruhaz/tesco-debrecen-szupermarket",
    "wheelchair": "yes",
    "youtube": "https://www.youtube.com/user/TescoMagyarorszag",
    "id": "node/3843299091"
  },
  "geometry": {
    "type": "Point",
    "coordinates": [
      21.5781357969963,
      47.5974897949067
    ]
  }
},
{
  "type": "Feature",
  "id": "node/-1",
  "properties": {
    "timestamp": "",
    "version": "99999",
    "changeset": "99999",
    "user": "KAMI",
    "uid": "4579407",
    "addr:city": "Ajka",
    "addr:country": "HU",
    "addr:housenumber": "66",
    "addr:postcode": "8400",
    "addr:street": "Fő út",
    "branch": "Ajka Hipermarket",
    "brand": "Tesco",
    "brand:wikidata": "Q487494",
    "brand:wikipedia": "hu:Tesco",
    "facebook": "https://www.facebook.com/tescoaruhazak/",
    "import": "osm_poi_matchmaker",
    "internet_access": "wlan",
    "internet_access:fee": "no",
    "name": "Tesco",
    "opening_hours": "Mo-Sa 06:00-22:00; Su 07:00-20:00",
    "operator": "TESCO-GLOBAL Áruházak Zrt.",
    "payment:cash": "yes",
    "payment:debit_cards": "yes",
    "ref:vatin:hu": "10307078-2-44",
    "shop": "supermarket",
    "source": "website",
    "source:date": "2018-07-15",
    "website": "https://www.tesco.hu/aruhazak/aruhaz/tesco-ajka-hipermarket",
    "wheelchair": "yes",
    "youtube": "https://www.youtube.com/user/TescoMagyarorszag",
    "id": "node/-1"
  },
  "geometry": {
    "type": "Point",
    "coordinates": [
      17.5507,
      47.11403
    ]
  }
},
{
  "type": "Feature",
  "id": "node/-3",
  "properties": {
    "timestamp": "",
    "version": "99999",
    "changeset": "99999",
    "user": "KAMI",
    "uid": "4579407",
    "addr:city": "Budapest",
    "addr:country": "HU",
    "addr:housenumber": "9-11",
    "addr:postcode": "1087",
    "addr:street": "Kerepesi utca",
    "branch": "Arena Plaza Hipermarket",
    "brand": "Tesco",
    "brand:wikidata": "Q487494",
    "brand:wikipedia": "hu:Tesco",
    "facebook": "https://www.facebook.com/tescoaruhazak/",
    "import": "osm_poi_matchmaker",
    "internet_access": "wlan",
    "internet_access:fee": "no",
    "name": "Tesco",
    "opening_hours": "Mo-Sa 06:00-22:00; Su 07:00-20:00",
    "operator": "TESCO-GLOBAL Áruházak Zrt.",
    "payment:cash": "yes",
    "payment:debit_cards": "yes",
    "ref:vatin:hu": "10307078-2-44",
    "shop": "supermarket",
    "source": "website",
    "source:date": "2018-07-15",
    "website": "https://www.tesco.hu/aruhazak/aruhaz/tesco-arena-plaza-hipermarket",
    "wheelchair": "yes",
    "youtube": "https://www.youtube.com/user/TescoMagyarorszag",
    "id": "node/-3"
  },
  "geometry": {
    "type": "Point",
    "coordinates": [
      19.087589,
      47.499511
    ]
  }
},
{
  "type": "Feature",
  "id": "node/-6",
  "properties": {
    "timestamp": "",
    "version": "99999",
    "changeset": "99999",
    "user": "KAMI",
    "uid": "4579407",
    "addr:city": "Balatonboglár",
    "addr:country": "HU",
    "addr:housenumber": "30",
    "addr:postcode": "8630",
    "addr:street": "Klapka utca",
    "branch": "Balatonboglár Hipermarket",
    "brand": "Tesco",
    "brand:wikidata": "Q487494",
    "brand:wikipedia": "hu:Tesco",
    "facebook": "https://www.facebook.com/tescoaruhazak/",
    "import": "osm_poi_matchmaker",
    "internet_access": "wlan",
    "internet_access:fee": "no",
    "name": "Tesco",
    "opening_hours": "Mo,Fr 00:00-23:45; Tu,We,Th,Sa,Su 00:00-24:00",
    "operator": "TESCO-GLOBAL Áruházak Zrt.",
    "payment:cash": "yes",
    "payment:debit_cards": "yes",
    "ref:vatin:hu": "10307078-2-44",
    "shop": "supermarket",
    "source": "website",
    "source:date": "2018-07-15",
    "website": "https://www.tesco.hu/aruhazak/aruhaz/tesco-balatonboglar-hipermarket",
    "wheelchair": "yes",
    "youtube": "https://www.youtube.com/user/TescoMagyarorszag",
    "id": "node/-6"
  },
  "geometry": {
    "type": "Point",
    "coordinates": [
      17.651166,
      46.774142
    ]
  }
},
{
  "type": "Feature",
  "id": "node/-8",
  "properties": {
    "timestamp": "",
    "version": "99999",
    "changeset": "99999",
    "user": "KAMI",
    "uid": "4579407",
    "addr:city": "Budapest",
    "addr:country": "HU",
    "addr:housenumber": "258",
    "addr:postcode": "1037",
    "addr:street": "Bécsi út",
    "branch": "Bécsi út Hipermarket",
    "brand": "Tesco",
    "brand:wikidata": "Q487494",
    "brand:wikipedia": "hu:Tesco",
    "facebook": "https://www.facebook.com/tescoaruhazak/",
    "import": "osm_poi_matchmaker",
    "internet_access": "wlan",
    "internet_access:fee": "no",
    "name": "Tesco",
    "opening_hours": "Mo-Sa 06:00-22:00; Su 07:00-20:00",
    "operator": "TESCO-GLOBAL Áruházak Zrt.",
    "payment:cash": "yes",
    "payment:debit_cards": "yes",
    "ref:vatin:hu": "10307078-2-44",
    "shop": "supermarket",
    "source": "website",
    "source:date": "2018-07-15",
    "website": "https://www.tesco.hu/aruhazak/aruhaz/tesco-becsi-ut-hipermarket",
    "wheelchair": "yes",
    "youtube": "https://www.youtube.com/user/TescoMagyarorszag",
    "id": "node/-8"
  },
  "geometry": {
    "type": "Point",
    "coordinates": [
      19.023736,
      47.561947
    ]
  }
},
{
  "type": "Feature",
  "id": "node/-9",
  "properties": {
    "timestamp": "",
    "version": "99999",
    "changeset": "99999",
    "user": "KAMI",
    "uid": "4579407",
    "addr:city": "Békéscsaba",
    "addr:country": "HU",
    "addr:housenumber": "68",
    "addr:postcode": "5600",
    "addr:street": "Szarvasi út",
    "branch": "Békéscsaba Hipermarket",
    "brand": "Tesco",
    "brand:wikidata": "Q487494",
    "brand:wikipedia": "hu:Tesco",
    "facebook": "https://www.facebook.com/tescoaruhazak/",
    "import": "osm_poi_matchmaker",
    "internet_access": "wlan",
    "internet_access:fee": "no",
    "name": "Tesco",
    "opening_hours": "Mo-Sa 06:00-22:00; Su 07:00-20:00",
    "operator": "TESCO-GLOBAL Áruházak Zrt.",
    "payment:cash": "yes",
    "payment:debit_cards": "yes",
    "ref:vatin:hu": "10307078-2-44",
    "shop": "supermarket",
    "source": "website",
    "source:date": "2018-07-15",
    "website": "https://www.tesco.hu/aruhazak/aruhaz/tesco-bekescsaba-hipermarket",
    "wheelchair": "yes",
    "youtube": "https://www.youtube.com/user/TescoMagyarorszag",
    "id": "node/-9"
  },
  "geometry": {
    "type": "Point",
    "coordinates": [
      21.07226,
      46.68168
    ]
  }
},
{
  "type": "Feature",
  "id": "node/-11",
  "properties": {
    "timestamp": "",
    "version": "99999",
    "changeset": "99999",
    "user": "KAMI",
    "uid": "4579407",
    "addr:city": "Berettyóújfalu",
    "addr:country": "HU",
    "addr:housenumber": "13",
    "addr:postcode": "4100",
    "addr:street": "Honvéd utca",
    "branch": "Berettyóújfalu Hipermarket",
    "brand": "Tesco",
    "brand:wikidata": "Q487494",
    "brand:wikipedia": "hu:Tesco",
    "facebook": "https://www.facebook.com/tescoaruhazak/",
    "import": "osm_poi_matchmaker",
    "internet_access": "wlan",
    "internet_access:fee": "no",
    "name": "Tesco",
    "opening_hours": "Mo-Sa 06:00-22:00; Su 08:00-18:00",
    "operator": "TESCO-GLOBAL Áruházak Zrt.",
    "payment:cash": "yes",
    "payment:debit_cards": "yes",
    "ref:vatin:hu": "10307078-2-44",
    "shop": "supermarket",
    "source": "website",
    "source:date": "2018-07-15",
    "website": "https://www.tesco.hu/aruhazak/aruhaz/tesco-berettyoujfalu-hipermarket",
    "wheelchair": "yes",
    "youtube": "https://www.youtube.com/user/TescoMagyarorszag",
    "id": "node/-11"
  },
  "geometry": {
    "type": "Point",
    "coordinates": [
      21.535091,
      47.237927
    ]
  }
},
{
  "type": "Feature",
  "id": "node/-14",
  "properties": {
    "timestamp": "",
    "version": "99999",
    "changeset": "99999",
    "user": "KAMI",
    "uid": "4579407",
    "addr:city": "Budakeszi",
    "addr:country": "HU",
    "addr:housenumber": "1",
    "addr:postcode": "2092",
    "addr:street": "Bianka utca",
    "branch": "Budakeszi Hipermarket",
    "brand": "Tesco",
    "brand:wikidata": "Q487494",
    "brand:wikipedia": "hu:Tesco",
    "facebook": "https://www.facebook.com/tescoaruhazak/",
    "import": "osm_poi_matchmaker",
    "internet_access": "wlan",
    "internet_access:fee": "no",
    "name": "Tesco",
    "opening_hours": "Mo-Sa 06:00-22:00; Su 07:00-20:00",
    "operator": "TESCO-GLOBAL Áruházak Zrt.",
    "payment:cash": "yes",
    "payment:debit_cards": "yes",
    "ref:vatin:hu": "10307078-2-44",
    "shop": "supermarket",
    "source": "website",
    "source:date": "2018-07-15",
    "website": "https://www.tesco.hu/aruhazak/aruhaz/tesco-budakeszi-hipermarket",
    "wheelchair": "yes",
    "youtube": "https://www.youtube.com/user/TescoMagyarorszag",
    "id": "node/-14"
  },
  "geometry": {
    "type": "Point",
    "coordinates": [
      18.912105,
      47.499575
    ]
  }
},
{
  "type": "Feature",
  "id": "node/4939175440",
  "properties": {
    "timestamp": "2017-08-07T22:04:56Z",
    "version": "2",
    "changeset": "1",
    "user": "KAMI",
    "uid": "4579407",
    "addr:city": "Budaörs",
    "addr:country": "HU",
    "addr:housenumber": "1",
    "addr:postcode": "2040",
    "addr:street": "Kinizsi út",
    "branch": "Budaörs Hipermarket",
    "brand": "Tesco",
    "brand:wikidata": "Q487494",
    "brand:wikipedia": "hu:Tesco",
    "facebook": "https://www.facebook.com/tescoaruhazak/",
    "fixme": "verify",
    "import": "osm_poi_matchmaker",
    "internet_access": "wlan",
    "internet_access:fee": "no",
    "name": "Tesco",
    "opening_hours": "Mo-Su 00:00-24:00",
    "operator": "TESCO-GLOBAL Áruházak Zrt.",
    "payment:cash": "yes",
    "payment:debit_cards": "yes",
    "ref:vatin:hu": "10307078-2-44",
    "shop": "supermarket",
    "source": "website",
    "source:date": "2018-07-15",
    "website": "https://www.tesco.hu/aruhazak/aruhaz/tesco-budaors-hipermarket",
    "wheelchair": "yes",
    "youtube": "https://www.youtube.com/user/TescoMagyarorszag",
    "id": "node/4939175440"
  },
  "geometry": {
    "type": "Point",
    "coordinates": [
      18.9649656973601,
      47.4520744949129
    ]
  }
},
{
  "type": "Feature",
  "id": "node/-19",
  "properties": {
    "timestamp": "",
    "version": "99999",
    "changeset": "99999",
    "user": "KAMI",
    "uid": "4579407",
    "addr:city": "Budapest",
    "addr:country": "HU",
    "addr:housenumber": "191",
    "addr:postcode": "1214",
    "addr:street": "XXI. II. Rákóczi Ferenc utca",
    "branch": "Csepel Hipermarket",
    "brand": "Tesco",
    "brand:wikidata": "Q487494",
    "brand:wikipedia": "hu:Tesco",
    "facebook": "https://www.facebook.com/tescoaruhazak/",
    "import": "osm_poi_matchmaker",
    "internet_access": "wlan",
    "internet_access:fee": "no",
    "name": "Tesco",
    "opening_hours": "Mo-Sa 06:00-22:00; Su 07:00-20:00",
    "operator": "TESCO-GLOBAL Áruházak Zrt.",
    "payment:cash": "yes",
    "payment:debit_cards": "yes",
    "ref:vatin:hu": "10307078-2-44",
    "shop": "supermarket",
    "source": "website",
    "source:date": "2018-07-15",
    "website": "https://www.tesco.hu/aruhazak/aruhaz/tesco-csepel-hipermarket",
    "wheelchair": "yes",
    "youtube": "https://www.youtube.com/user/TescoMagyarorszag",
    "id": "node/-19"
  },
  "geometry": {
    "type": "Point",
    "coordinates": [
      19.05747,
      47.41378
    ]
  }
},
{
  "type": "Feature",
  "id": "node/-20",
  "properties": {
    "timestamp": "",
    "version": "99999",
    "changeset": "99999",
    "user": "KAMI",
    "uid": "4579407",
    "addr:city": "Csorna",
    "addr:country": "HU",
    "addr:housenumber": "3/C",
    "addr:postcode": "9300",
    "addr:street": "Bartók Béla utca",
    "branch": "Csorna Hipermarket",
    "brand": "Tesco",
    "brand:wikidata": "Q487494",
    "brand:wikipedia": "hu:Tesco",
    "facebook": "https://www.facebook.com/tescoaruhazak/",
    "import": "osm_poi_matchmaker",
    "internet_access": "wlan",
    "internet_access:fee": "no",
    "name": "Tesco",
    "opening_hours": "Mo-Sa 06:00-22:00; Su 08:00-18:00",
    "operator": "TESCO-GLOBAL Áruházak Zrt.",
    "payment:cash": "yes",
    "payment:debit_cards": "yes",
    "ref:vatin:hu": "10307078-2-44",
    "shop": "supermarket",
    "source": "website",
    "source:date": "2018-07-15",
    "website": "https://www.tesco.hu/aruhazak/aruhaz/tesco-csorna-hipermarket",
    "wheelchair": "yes",
    "youtube": "https://www.youtube.com/user/TescoMagyarorszag",
    "id": "node/-20"
  },
  "geometry": {
    "type": "Point",
    "coordinates": [
      17.24369,
      47.60834
    ]
  }
},
{
  "type": "Feature",
  "id": "node/-21",
  "properties": {
    "timestamp": "",
    "version": "99999",
    "changeset": "99999",
    "user": "KAMI",
    "uid": "4579407",
    "addr:city": "Dabas",
    "addr:conscriptionnumber": "2256/15",
    "addr:country": "HU",
    "addr:postcode": "2370",
    "branch": "Dabas Hipermarket",
    "brand": "Tesco",
    "brand:wikidata": "Q487494",
    "brand:wikipedia": "hu:Tesco",
    "facebook": "https://www.facebook.com/tescoaruhazak/",
    "import": "osm_poi_matchmaker",
    "internet_access": "wlan",
    "internet_access:fee": "no",
    "name": "Tesco",
    "opening_hours": "Mo-Sa 06:00-22:00; Su 08:00-18:00",
    "operator": "TESCO-GLOBAL Áruházak Zrt.",
    "payment:cash": "yes",
    "payment:debit_cards": "yes",
    "ref:vatin:hu": "10307078-2-44",
    "shop": "supermarket",
    "source": "website",
    "source:date": "2018-07-15",
    "website": "https://www.tesco.hu/aruhazak/aruhaz/tesco-dabas-hipermarket",
    "wheelchair": "yes",
    "youtube": "https://www.youtube.com/user/TescoMagyarorszag",
    "id": "node/-21"
  },
  "geometry": {
    "type": "Point",
    "coordinates": [
      19.3222,
      47.19386
    ]
  }
},
{
  "type": "Feature",
  "id": "node/-23",
  "properties": {
    "timestamp": "",
    "version": "99999",
    "changeset": "99999",
    "user": "KAMI",
    "uid": "4579407",
    "addr:city": "Dombóvár",
    "addr:country": "HU",
    "addr:housenumber": "7",
    "addr:postcode": "7200",
    "addr:street": "Köztársaság utca",
    "branch": "Dombóvár Hipermarket",
    "brand": "Tesco",
    "brand:wikidata": "Q487494",
    "brand:wikipedia": "hu:Tesco",
    "facebook": "https://www.facebook.com/tescoaruhazak/",
    "import": "osm_poi_matchmaker",
    "internet_access": "wlan",
    "internet_access:fee": "no",
    "name": "Tesco",
    "opening_hours": "Mo-Sa 06:00-22:00; Su 07:00-21:00",
    "operator": "TESCO-GLOBAL Áruházak Zrt.",
    "payment:cash": "yes",
    "payment:debit_cards": "yes",
    "ref:vatin:hu": "10307078-2-44",
    "shop": "supermarket",
    "source": "website",
    "source:date": "2018-07-15",
    "website": "https://www.tesco.hu/aruhazak/aruhaz/tesco-dombovar-hipermarket",
    "wheelchair": "yes",
    "youtube": "https://www.youtube.com/user/TescoMagyarorszag",
    "id": "node/-23"
  },
  "geometry": {
    "type": "Point",
    "coordinates": [
      18.139758,
      46.386521
    ]
  }
},
{
  "type": "Feature",
  "id": "node/-28",
  "properties": {
    "timestamp": "",
    "version": "99999",
    "changeset": "99999",
    "user": "KAMI",
    "uid": "4579407",
    "addr:city": "Dunakeszi",
    "addr:country": "HU",
    "addr:housenumber": "120",
    "addr:postcode": "2120",
    "addr:street": "Fóti út",
    "branch": "Dunakeszi-Fót Hipermarket ",
    "brand": "Tesco",
    "brand:wikidata": "Q487494",
    "brand:wikipedia": "hu:Tesco",
    "facebook": "https://www.facebook.com/tescoaruhazak/",
    "import": "osm_poi_matchmaker",
    "internet_access": "wlan",
    "internet_access:fee": "no",
    "name": "Tesco",
    "opening_hours": "Mo-Sa 06:00-22:00; Su 07:00-20:00",
    "operator": "TESCO-GLOBAL Áruházak Zrt.",
    "payment:cash": "yes",
    "payment:debit_cards": "yes",
    "ref:vatin:hu": "10307078-2-44",
    "shop": "supermarket",
    "source": "website",
    "source:date": "2018-07-15",
    "website": "https://www.tesco.hu/aruhazak/aruhaz/tesco-dunakeszi-fot-hipermarket",
    "wheelchair": "yes",
    "youtube": "https://www.youtube.com/user/TescoMagyarorszag",
    "id": "node/-28"
  },
  "geometry": {
    "type": "Point",
    "coordinates": [
      19.166518,
      47.618813
    ]
  }
},
{
  "type": "Feature",
  "id": "node/-30",
  "properties": {
    "timestamp": "",
    "version": "99999",
    "changeset": "99999",
    "user": "KAMI",
    "uid": "4579407",
    "addr:city": "Eger",
    "addr:country": "HU",
    "addr:housenumber": "100",
    "addr:postcode": "3300",
    "addr:street": "Rákóczi út",
    "branch": "Eger Hipermarket",
    "brand": "Tesco",
    "brand:wikidata": "Q487494",
    "brand:wikipedia": "hu:Tesco",
    "facebook": "https://www.facebook.com/tescoaruhazak/",
    "import": "osm_poi_matchmaker",
    "internet_access": "wlan",
    "internet_access:fee": "no",
    "name": "Tesco",
    "opening_hours": "Mo-Sa 06:00-22:00; Su 07:00-22:00",
    "operator": "TESCO-GLOBAL Áruházak Zrt.",
    "payment:cash": "yes",
    "payment:debit_cards": "yes",
    "ref:vatin:hu": "10307078-2-44",
    "shop": "supermarket",
    "source": "website",
    "source:date": "2018-07-15",
    "website": "https://www.tesco.hu/aruhazak/aruhaz/tesco-eger-hipermarket",
    "wheelchair": "yes",
    "youtube": "https://www.youtube.com/user/TescoMagyarorszag",
    "id": "node/-30"
  },
  "geometry": {
    "type": "Point",
    "coordinates": [
      20.36957,
      47.92336
    ]
  }
},
{
  "type": "Feature",
  "id": "node/-31",
  "properties": {
    "timestamp": "",
    "version": "99999",
    "changeset": "99999",
    "user": "KAMI",
    "uid": "4579407",
    "addr:city": "Eger",
    "addr:country": "HU",
    "addr:housenumber": "4",
    "addr:postcode": "3300",
    "addr:street": "Törvényház utca",
    "branch": "Eger-Agria Park Szupermarket",
    "brand": "Tesco",
    "brand:wikidata": "Q487494",
    "brand:wikipedia": "hu:Tesco",
    "facebook": "https://www.facebook.com/tescoaruhazak/",
    "import": "osm_poi_matchmaker",
    "internet_access": "wlan",
    "internet_access:fee": "no",
    "name": "Tesco",
    "opening_hours": "Mo-Sa 07:00-22:00; Su 08:00-20:00",
    "operator": "TESCO-GLOBAL Áruházak Zrt.",
    "payment:cash": "yes",
    "payment:debit_cards": "yes",
    "ref:vatin:hu": "10307078-2-44",
    "shop": "supermarket",
    "source": "website",
    "source:date": "2018-07-15",
    "website": "https://www.tesco.hu/aruhazak/aruhaz/tesco-eger-agria-park-szupermarket",
    "wheelchair": "yes",
    "youtube": "https://www.youtube.com/user/TescoMagyarorszag",
    "id": "node/-31"
  },
  "geometry": {
    "type": "Point",
    "coordinates": [
      20.368551,
      47.899073
    ]
  }
},
{
  "type": "Feature",
  "id": "node/-32",
  "properties": {
    "timestamp": "",
    "version": "99999",
    "changeset": "99999",
    "user": "KAMI",
    "uid": "4579407",
    "addr:city": "Érd",
    "addr:country": "HU",
    "addr:housenumber": "2-4",
    "addr:postcode": "2030",
    "addr:street": "Budafoki út",
    "branch": "Érd Hipermarket",
    "brand": "Tesco",
    "brand:wikidata": "Q487494",
    "brand:wikipedia": "hu:Tesco",
    "facebook": "https://www.facebook.com/tescoaruhazak/",
    "import": "osm_poi_matchmaker",
    "internet_access": "wlan",
    "internet_access:fee": "no",
    "name": "Tesco",
    "opening_hours": "Mo-Sa 06:00-22:00; Su 07:00-20:00",
    "operator": "TESCO-GLOBAL Áruházak Zrt.",
    "payment:cash": "yes",
    "payment:debit_cards": "yes",
    "ref:vatin:hu": "10307078-2-44",
    "shop": "supermarket",
    "source": "website",
    "source:date": "2018-07-15",
    "website": "https://www.tesco.hu/aruhazak/aruhaz/tesco-erd-hipermarket",
    "wheelchair": "yes",
    "youtube": "https://www.youtube.com/user/TescoMagyarorszag",
    "id": "node/-32"
  },
  "geometry": {
    "type": "Point",
    "coordinates": [
      18.93679,
      47.37832
    ]
  }
},
{
  "type": "Feature",
  "id": "node/-37",
  "properties": {
    "timestamp": "",
    "version": "99999",
    "changeset": "99999",
    "user": "KAMI",
    "uid": "4579407",
    "addr:city": "Gyöngyös",
    "addr:country": "HU",
    "addr:housenumber": "2",
    "addr:postcode": "3200",
    "addr:street": "Vásár utca",
    "branch": "Gyöngyös Hipermarket",
    "brand": "Tesco",
    "brand:wikidata": "Q487494",
    "brand:wikipedia": "hu:Tesco",
    "facebook": "https://www.facebook.com/tescoaruhazak/",
    "import": "osm_poi_matchmaker",
    "internet_access": "wlan",
    "internet_access:fee": "no",
    "name": "Tesco",
    "opening_hours": "Mo-Sa 06:00-22:00; Su 07:00-20:00",
    "operator": "TESCO-GLOBAL Áruházak Zrt.",
    "payment:cash": "yes",
    "payment:debit_cards": "yes",
    "ref:vatin:hu": "10307078-2-44",
    "shop": "supermarket",
    "source": "website",
    "source:date": "2018-07-15",
    "website": "https://www.tesco.hu/aruhazak/aruhaz/tesco-gyongyos-hipermarket",
    "wheelchair": "yes",
    "youtube": "https://www.youtube.com/user/TescoMagyarorszag",
    "id": "node/-37"
  },
  "geometry": {
    "type": "Point",
    "coordinates": [
      19.91499,
      47.76873
    ]
  }
},
{
  "type": "Feature",
  "id": "node/-42",
  "properties": {
    "timestamp": "",
    "version": "99999",
    "changeset": "99999",
    "user": "KAMI",
    "uid": "4579407",
    "addr:city": "Hajdúszoboszló",
    "addr:conscriptionnumber": "0228/2",
    "addr:country": "HU",
    "addr:postcode": "4200",
    "addr:street": "Kabai útfél",
    "branch": "Hajdúszoboszló Hipermarket",
    "brand": "Tesco",
    "brand:wikidata": "Q487494",
    "brand:wikipedia": "hu:Tesco",
    "facebook": "https://www.facebook.com/tescoaruhazak/",
    "import": "osm_poi_matchmaker",
    "internet_access": "wlan",
    "internet_access:fee": "no",
    "name": "Tesco",
    "opening_hours": "Mo-Sa 06:00-22:00; Su 07:00-22:00",
    "operator": "TESCO-GLOBAL Áruházak Zrt.",
    "payment:cash": "yes",
    "payment:debit_cards": "yes",
    "ref:vatin:hu": "10307078-2-44",
    "shop": "supermarket",
    "source": "website",
    "source:date": "2018-07-15",
    "website": "https://www.tesco.hu/aruhazak/aruhaz/tesco-hajduszoboszlo-hipermarket",
    "wheelchair": "yes",
    "youtube": "https://www.youtube.com/user/TescoMagyarorszag",
    "id": "node/-42"
  },
  "geometry": {
    "type": "Point",
    "coordinates": [
      21.37838,
      47.43573
    ]
  }
},
{
  "type": "Feature",
  "id": "node/-45",
  "properties": {
    "timestamp": "",
    "version": "99999",
    "changeset": "99999",
    "user": "KAMI",
    "uid": "4579407",
    "addr:city": "Isaszeg",
    "addr:country": "HU",
    "addr:housenumber": "23",
    "addr:postcode": "2117",
    "addr:street": "Aulich utca",
    "branch": "Isaszeg Szupermarket",
    "brand": "Tesco",
    "brand:wikidata": "Q487494",
    "brand:wikipedia": "hu:Tesco",
    "facebook": "https://www.facebook.com/tescoaruhazak/",
    "import": "osm_poi_matchmaker",
    "internet_access": "wlan",
    "internet_access:fee": "no",
    "name": "Tesco",
    "opening_hours": "Mo-Sa 06:00-21:00; Su 07:00-18:00",
    "operator": "TESCO-GLOBAL Áruházak Zrt.",
    "payment:cash": "yes",
    "payment:debit_cards": "yes",
    "ref:vatin:hu": "10307078-2-44",
    "shop": "supermarket",
    "source": "website",
    "source:date": "2018-07-15",
    "website": "https://www.tesco.hu/aruhazak/aruhaz/tesco-isaszeg-szupermarket",
    "wheelchair": "yes",
    "youtube": "https://www.youtube.com/user/TescoMagyarorszag",
    "id": "node/-45"
  },
  "geometry": {
    "type": "Point",
    "coordinates": [
      19.396541,
      47.539188
    ]
  }
},
{
  "type": "Feature",
  "id": "node/-49",
  "properties": {
    "timestamp": "",
    "version": "99999",
    "changeset": "99999",
    "user": "KAMI",
    "uid": "4579407",
    "addr:city": "Karcag",
    "addr:country": "HU",
    "addr:housenumber": "34",
    "addr:postcode": "5300",
    "addr:street": "Kisújszállási utca",
    "branch": "Karcag Hipermarket",
    "brand": "Tesco",
    "brand:wikidata": "Q487494",
    "brand:wikipedia": "hu:Tesco",
    "facebook": "https://www.facebook.com/tescoaruhazak/",
    "import": "osm_poi_matchmaker",
    "internet_access": "wlan",
    "internet_access:fee": "no",
    "name": "Tesco",
    "opening_hours": "Mo-Sa 06:00-22:00; Su 08:00-18:00",
    "operator": "TESCO-GLOBAL Áruházak Zrt.",
    "payment:cash": "yes",
    "payment:debit_cards": "yes",
    "ref:vatin:hu": "10307078-2-44",
    "shop": "supermarket",
    "source": "website",
    "source:date": "2018-07-15",
    "website": "https://www.tesco.hu/aruhazak/aruhaz/tesco-karcag-hipermarket",
    "wheelchair": "yes",
    "youtube": "https://www.youtube.com/user/TescoMagyarorszag",
    "id": "node/-49"
  },
  "geometry": {
    "type": "Point",
    "coordinates": [
      20.904128,
      47.304462
    ]
  }
},
{
  "type": "Feature",
  "id": "node/-52",
  "properties": {
    "timestamp": "",
    "version": "99999",
    "changeset": "99999",
    "user": "KAMI",
    "uid": "4579407",
    "addr:city": "Kecskemét",
    "addr:country": "HU",
    "addr:housenumber": "12/B",
    "addr:postcode": "6000",
    "addr:street": "Izsáki út",
    "branch": "Kecskemét Target Center Hipermarket",
    "brand": "Tesco",
    "brand:wikidata": "Q487494",
    "brand:wikipedia": "hu:Tesco",
    "facebook": "https://www.facebook.com/tescoaruhazak/",
    "import": "osm_poi_matchmaker",
    "internet_access": "wlan",
    "internet_access:fee": "no",
    "name": "Tesco",
    "opening_hours": "Mo-Sa 06:00-22:00; Su 07:00-20:00",
    "operator": "TESCO-GLOBAL Áruházak Zrt.",
    "payment:cash": "yes",
    "payment:debit_cards": "yes",
    "ref:vatin:hu": "10307078-2-44",
    "shop": "supermarket",
    "source": "website",
    "source:date": "2018-07-15",
    "website": "https://www.tesco.hu/aruhazak/aruhaz/tesco-kecskemet-target-center-hipermarket",
    "wheelchair": "yes",
    "youtube": "https://www.youtube.com/user/TescoMagyarorszag",
    "id": "node/-52"
  },
  "geometry": {
    "type": "Point",
    "coordinates": [
      19.66589,
      46.8953
    ]
  }
},
{
  "type": "Feature",
  "id": "node/-53",
  "properties": {
    "timestamp": "",
    "version": "99999",
    "changeset": "99999",
    "user": "KAMI",
    "uid": "4579407",
    "addr:city": "Keszthely",
    "addr:country": "HU",
    "addr:housenumber": "27",
    "addr:postcode": "8360",
    "addr:street": "Csapás utca",
    "branch": "Keszthely Hipermarket",
    "brand": "Tesco",
    "brand:wikidata": "Q487494",
    "brand:wikipedia": "hu:Tesco",
    "facebook": "https://www.facebook.com/tescoaruhazak/",
    "import": "osm_poi_matchmaker",
    "internet_access": "wlan",
    "internet_access:fee": "no",
    "name": "Tesco",
    "opening_hours": "Mo-Su 00:00-24:00",
    "operator": "TESCO-GLOBAL Áruházak Zrt.",
    "payment:cash": "yes",
    "payment:debit_cards": "yes",
    "ref:vatin:hu": "10307078-2-44",
    "shop": "supermarket",
    "source": "website",
    "source:date": "2018-07-15",
    "website": "https://www.tesco.hu/aruhazak/aruhaz/tesco-keszthely-hipermarket",
    "wheelchair": "yes",
    "youtube": "https://www.youtube.com/user/TescoMagyarorszag",
    "id": "node/-53"
  },
  "geometry": {
    "type": "Point",
    "coordinates": [
      17.25936,
      46.77787
    ]
  }
},
{
  "type": "Feature",
  "id": "node/-59",
  "properties": {
    "timestamp": "",
    "version": "99999",
    "changeset": "99999",
    "user": "KAMI",
    "uid": "4579407",
    "addr:city": "Budapest",
    "addr:country": "HU",
    "addr:housenumber": "75/B",
    "addr:postcode": "1191",
    "addr:street": "Vak Bottyán utca",
    "branch": "Köki Terminál Hipermarket",
    "brand": "Tesco",
    "brand:wikidata": "Q487494",
    "brand:wikipedia": "hu:Tesco",
    "facebook": "https://www.facebook.com/tescoaruhazak/",
    "import": "osm_poi_matchmaker",
    "internet_access": "wlan",
    "internet_access:fee": "no",
    "name": "Tesco",
    "opening_hours": "Mo-Sa 06:00-22:00; Su 07:00-20:00",
    "operator": "TESCO-GLOBAL Áruházak Zrt.",
    "payment:cash": "yes",
    "payment:debit_cards": "yes",
    "ref:vatin:hu": "10307078-2-44",
    "shop": "supermarket",
    "source": "website",
    "source:date": "2018-07-15",
    "website": "https://www.tesco.hu/aruhazak/aruhaz/tesco-koki-terminal-hipermarket",
    "wheelchair": "yes",
    "youtube": "https://www.youtube.com/user/TescoMagyarorszag",
    "id": "node/-59"
  },
  "geometry": {
    "type": "Point",
    "coordinates": [
      19.14893,
      47.461838
    ]
  }
},
{
  "type": "Feature",
  "id": "node/-62",
  "properties": {
    "timestamp": "",
    "version": "99999",
    "changeset": "99999",
    "user": "KAMI",
    "uid": "4579407",
    "addr:city": "Körmend",
    "addr:country": "HU",
    "addr:housenumber": "5",
    "addr:postcode": "9900",
    "addr:street": "Sport utca",
    "branch": "Körmend Hipermarket",
    "brand": "Tesco",
    "brand:wikidata": "Q487494",
    "brand:wikipedia": "hu:Tesco",
    "facebook": "https://www.facebook.com/tescoaruhazak/",
    "import": "osm_poi_matchmaker",
    "internet_access": "wlan",
    "internet_access:fee": "no",
    "name": "Tesco",
    "opening_hours": "Mo-Sa 06:00-22:00; Su 08:00-18:00",
    "operator": "TESCO-GLOBAL Áruházak Zrt.",
    "payment:cash": "yes",
    "payment:debit_cards": "yes",
    "ref:vatin:hu": "10307078-2-44",
    "shop": "supermarket",
    "source": "website",
    "source:date": "2018-07-15",
    "website": "https://www.tesco.hu/aruhazak/aruhaz/tesco-kormend-hipermarket",
    "wheelchair": "yes",
    "youtube": "https://www.youtube.com/user/TescoMagyarorszag",
    "id": "node/-62"
  },
  "geometry": {
    "type": "Point",
    "coordinates": [
      16.61298,
      47.015106
    ]
  }
},
{
  "type": "Feature",
  "id": "node/-63",
  "properties": {
    "timestamp": "",
    "version": "99999",
    "changeset": "99999",
    "user": "KAMI",
    "uid": "4579407",
    "addr:city": "Kőszeg",
    "addr:country": "HU",
    "addr:housenumber": "7",
    "addr:postcode": "9730",
    "addr:street": "Pogányi út",
    "branch": "Kőszeg Hipermarket",
    "brand": "Tesco",
    "brand:wikidata": "Q487494",
    "brand:wikipedia": "hu:Tesco",
    "facebook": "https://www.facebook.com/tescoaruhazak/",
    "import": "osm_poi_matchmaker",
    "internet_access": "wlan",
    "internet_access:fee": "no",
    "name": "Tesco",
    "opening_hours": "Mo-Sa 06:00-22:00; Su 08:00-18:00",
    "operator": "TESCO-GLOBAL Áruházak Zrt.",
    "payment:cash": "yes",
    "payment:debit_cards": "yes",
    "ref:vatin:hu": "10307078-2-44",
    "shop": "supermarket",
    "source": "website",
    "source:date": "2018-07-15",
    "website": "https://www.tesco.hu/aruhazak/aruhaz/tesco-koszeg-hipermarket",
    "wheelchair": "yes",
    "youtube": "https://www.youtube.com/user/TescoMagyarorszag",
    "id": "node/-63"
  },
  "geometry": {
    "type": "Point",
    "coordinates": [
      16.554264,
      47.380164
    ]
  }
},
{
  "type": "Feature",
  "id": "node/-67",
  "properties": {
    "timestamp": "",
    "version": "99999",
    "changeset": "99999",
    "user": "KAMI",
    "uid": "4579407",
    "addr:city": "Vecsés",
    "addr:country": "HU",
    "addr:housenumber": "246-248",
    "addr:postcode": "2220",
    "addr:street": "Fő út",
    "branch": "Market Central Ferihegy Hipermarket",
    "brand": "Tesco",
    "brand:wikidata": "Q487494",
    "brand:wikipedia": "hu:Tesco",
    "facebook": "https://www.facebook.com/tescoaruhazak/",
    "import": "osm_poi_matchmaker",
    "internet_access": "wlan",
    "internet_access:fee": "no",
    "name": "Tesco",
    "opening_hours": "Mo-Su 05:00-22:00",
    "operator": "TESCO-GLOBAL Áruházak Zrt.",
    "payment:cash": "yes",
    "payment:debit_cards": "yes",
    "ref:vatin:hu": "10307078-2-44",
    "shop": "supermarket",
    "source": "website",
    "source:date": "2018-07-15",
    "website": "https://www.tesco.hu/aruhazak/aruhaz/tesco-market-central-ferihegy-hipermarket",
    "wheelchair": "yes",
    "youtube": "https://www.youtube.com/user/TescoMagyarorszag",
    "id": "node/-67"
  },
  "geometry": {
    "type": "Point",
    "coordinates": [
      19.25304,
      47.41629
    ]
  }
},
{
  "type": "Feature",
  "id": "node/-68",
  "properties": {
    "timestamp": "",
    "version": "99999",
    "changeset": "99999",
    "user": "KAMI",
    "uid": "4579407",
    "addr:city": "Mátészalka",
    "addr:country": "HU",
    "addr:housenumber": "1/A",
    "addr:postcode": "4700",
    "addr:street": "Alkotmány út",
    "branch": "Mátészalka Hipermarket",
    "brand": "Tesco",
    "brand:wikidata": "Q487494",
    "brand:wikipedia": "hu:Tesco",
    "facebook": "https://www.facebook.com/tescoaruhazak/",
    "import": "osm_poi_matchmaker",
    "internet_access": "wlan",
    "internet_access:fee": "no",
    "name": "Tesco",
    "opening_hours": "Mo-Sa 06:00-22:00; Su 07:00-20:00",
    "operator": "TESCO-GLOBAL Áruházak Zrt.",
    "payment:cash": "yes",
    "payment:debit_cards": "yes",
    "ref:vatin:hu": "10307078-2-44",
    "shop": "supermarket",
    "source": "website",
    "source:date": "2018-07-15",
    "website": "https://www.tesco.hu/aruhazak/aruhaz/tesco-mateszalka-hipermarket",
    "wheelchair": "yes",
    "youtube": "https://www.youtube.com/user/TescoMagyarorszag",
    "id": "node/-68"
  },
  "geometry": {
    "type": "Point",
    "coordinates": [
      22.32446,
      47.94777
    ]
  }
},
{
  "type": "Feature",
  "id": "node/-71",
  "properties": {
    "timestamp": "",
    "version": "99999",
    "changeset": "99999",
    "user": "KAMI",
    "uid": "4579407",
    "addr:city": "Miskolc",
    "addr:country": "HU",
    "addr:housenumber": "1/A",
    "addr:postcode": "3529",
    "addr:street": "Mésztelep utca",
    "branch": "Miskolc Avas Hipermarket",
    "brand": "Tesco",
    "brand:wikidata": "Q487494",
    "brand:wikipedia": "hu:Tesco",
    "facebook": "https://www.facebook.com/tescoaruhazak/",
    "import": "osm_poi_matchmaker",
    "internet_access": "wlan",
    "internet_access:fee": "no",
    "name": "Tesco",
    "opening_hours": "Mo-Sa 06:00-22:00; Su 07:00-20:00",
    "operator": "TESCO-GLOBAL Áruházak Zrt.",
    "payment:cash": "yes",
    "payment:debit_cards": "yes",
    "ref:vatin:hu": "10307078-2-44",
    "shop": "supermarket",
    "source": "website",
    "source:date": "2018-07-15",
    "website": "https://www.tesco.hu/aruhazak/aruhaz/tesco-miskolc-avas-hipermarket",
    "wheelchair": "yes",
    "youtube": "https://www.youtube.com/user/TescoMagyarorszag",
    "id": "node/-71"
  },
  "geometry": {
    "type": "Point",
    "coordinates": [
      20.77957,
      48.0742
    ]
  }
},
{
  "type": "Feature",
  "id": "node/-73",
  "properties": {
    "timestamp": "",
    "version": "99999",
    "changeset": "99999",
    "user": "KAMI",
    "uid": "4579407",
    "addr:city": "Mohács",
    "addr:country": "HU",
    "addr:housenumber": "61",
    "addr:postcode": "7700",
    "addr:street": "Pécsi út",
    "branch": "Mohács Hipermarket",
    "brand": "Tesco",
    "brand:wikidata": "Q487494",
    "brand:wikipedia": "hu:Tesco",
    "facebook": "https://www.facebook.com/tescoaruhazak/",
    "import": "osm_poi_matchmaker",
    "internet_access": "wlan",
    "internet_access:fee": "no",
    "name": "Tesco",
    "opening_hours": "Mo-Sa 06:00-22:00; Su 08:00-18:00",
    "operator": "TESCO-GLOBAL Áruházak Zrt.",
    "payment:cash": "yes",
    "payment:debit_cards": "yes",
    "ref:vatin:hu": "10307078-2-44",
    "shop": "supermarket",
    "source": "website",
    "source:date": "2018-07-15",
    "website": "https://www.tesco.hu/aruhazak/aruhaz/tesco-mohacs-hipermarket",
    "wheelchair": "yes",
    "youtube": "https://www.youtube.com/user/TescoMagyarorszag",
    "id": "node/-73"
  },
  "geometry": {
    "type": "Point",
    "coordinates": [
      18.65647,
      45.99658
    ]
  }
},
{
  "type": "Feature",
  "id": "node/-75",
  "properties": {
    "timestamp": "",
    "version": "99999",
    "changeset": "99999",
    "user": "KAMI",
    "uid": "4579407",
    "addr:city": "Mosonmagyaróvár",
    "addr:country": "HU",
    "addr:housenumber": "42",
    "addr:postcode": "9200",
    "addr:street": "Királyhidai utca",
    "branch": "Mosonmagyaróvár Hipermarket",
    "brand": "Tesco",
    "brand:wikidata": "Q487494",
    "brand:wikipedia": "hu:Tesco",
    "facebook": "https://www.facebook.com/tescoaruhazak/",
    "import": "osm_poi_matchmaker",
    "internet_access": "wlan",
    "internet_access:fee": "no",
    "name": "Tesco",
    "opening_hours": "Mo-Sa 06:00-22:00; Su 07:00-20:00",
    "operator": "TESCO-GLOBAL Áruházak Zrt.",
    "payment:cash": "yes",
    "payment:debit_cards": "yes",
    "ref:vatin:hu": "10307078-2-44",
    "shop": "supermarket",
    "source": "website",
    "source:date": "2018-07-15",
    "website": "https://www.tesco.hu/aruhazak/aruhaz/tesco-mosonmagyarovar-hipermarket",
    "wheelchair": "yes",
    "youtube": "https://www.youtube.com/user/TescoMagyarorszag",
    "id": "node/-75"
  },
  "geometry": {
    "type": "Point",
    "coordinates": [
      17.264083,
      47.875059
    ]
  }
},
{
  "type": "Feature",
  "id": "node/-78",
  "properties": {
    "timestamp": "",
    "version": "99999",
    "changeset": "99999",
    "user": "KAMI",
    "uid": "4579407",
    "addr:city": "Nagykőrös",
    "addr:country": "HU",
    "addr:housenumber": "32",
    "addr:postcode": "2750",
    "addr:street": "Ceglédi utca",
    "branch": "Nagykőrös Hipermarket",
    "brand": "Tesco",
    "brand:wikidata": "Q487494",
    "brand:wikipedia": "hu:Tesco",
    "facebook": "https://www.facebook.com/tescoaruhazak/",
    "import": "osm_poi_matchmaker",
    "internet_access": "wlan",
    "internet_access:fee": "no",
    "name": "Tesco",
    "opening_hours": "Mo-Sa 06:00-22:00; Su 08:00-18:00",
    "operator": "TESCO-GLOBAL Áruházak Zrt.",
    "payment:cash": "yes",
    "payment:debit_cards": "yes",
    "ref:vatin:hu": "10307078-2-44",
    "shop": "supermarket",
    "source": "website",
    "source:date": "2018-07-15",
    "website": "https://www.tesco.hu/aruhazak/aruhaz/tesco-nagykoros-hipermarket",
    "wheelchair": "yes",
    "youtube": "https://www.youtube.com/user/TescoMagyarorszag",
    "id": "node/-78"
  },
  "geometry": {
    "type": "Point",
    "coordinates": [
      19.78378,
      47.04389
    ]
  }
},
{
  "type": "Feature",
  "id": "node/-79",
  "properties": {
    "timestamp": "",
    "version": "99999",
    "changeset": "99999",
    "user": "KAMI",
    "uid": "4579407",
    "addr:city": "Nyírbátor",
    "addr:country": "HU",
    "addr:housenumber": "71",
    "addr:postcode": "4300",
    "addr:street": "Debreceni utca",
    "branch": "Nyírbátor Hipermarket",
    "brand": "Tesco",
    "brand:wikidata": "Q487494",
    "brand:wikipedia": "hu:Tesco",
    "facebook": "https://www.facebook.com/tescoaruhazak/",
    "import": "osm_poi_matchmaker",
    "internet_access": "wlan",
    "internet_access:fee": "no",
    "name": "Tesco",
    "opening_hours": "Mo-Sa 06:00-22:00; Su 08:00-20:00",
    "operator": "TESCO-GLOBAL Áruházak Zrt.",
    "payment:cash": "yes",
    "payment:debit_cards": "yes",
    "ref:vatin:hu": "10307078-2-44",
    "shop": "supermarket",
    "source": "website",
    "source:date": "2018-07-15",
    "website": "https://www.tesco.hu/aruhazak/aruhaz/tesco-nyirbator-hipermarket",
    "wheelchair": "yes",
    "youtube": "https://www.youtube.com/user/TescoMagyarorszag",
    "id": "node/-79"
  },
  "geometry": {
    "type": "Point",
    "coordinates": [
      22.1159,
      47.8325
    ]
  }
},
{
  "type": "Feature",
  "id": "node/-80",
  "properties": {
    "timestamp": "",
    "version": "99999",
    "changeset": "99999",
    "user": "KAMI",
    "uid": "4579407",
    "addr:city": "Nyíregyháza",
    "addr:country": "HU",
    "addr:housenumber": "36",
    "addr:postcode": "4400",
    "addr:street": "Pazonyi út",
    "branch": "Nyíregyháza Hipermarket",
    "brand": "Tesco",
    "brand:wikidata": "Q487494",
    "brand:wikipedia": "hu:Tesco",
    "facebook": "https://www.facebook.com/tescoaruhazak/",
    "import": "osm_poi_matchmaker",
    "internet_access": "wlan",
    "internet_access:fee": "no",
    "name": "Tesco",
    "opening_hours": "Mo-Sa 06:00-22:00; Su 07:00-22:00",
    "operator": "TESCO-GLOBAL Áruházak Zrt.",
    "payment:cash": "yes",
    "payment:debit_cards": "yes",
    "ref:vatin:hu": "10307078-2-44",
    "shop": "supermarket",
    "source": "website",
    "source:date": "2018-07-15",
    "website": "https://www.tesco.hu/aruhazak/aruhaz/tesco-nyiregyhaza-hipermarket",
    "wheelchair": "yes",
    "youtube": "https://www.youtube.com/user/TescoMagyarorszag",
    "id": "node/-80"
  },
  "geometry": {
    "type": "Point",
    "coordinates": [
      21.73859,
      47.97031
    ]
  }
},
{
  "type": "Feature",
  "id": "node/-82",
  "properties": {
    "timestamp": "",
    "version": "99999",
    "changeset": "99999",
    "user": "KAMI",
    "uid": "4579407",
    "addr:city": "Ócsa",
    "addr:country": "HU",
    "addr:housenumber": "4/D",
    "addr:postcode": "2364",
    "addr:street": "Kiss János utca",
    "branch": "Ócsa Szupermarket",
    "brand": "Tesco",
    "brand:wikidata": "Q487494",
    "brand:wikipedia": "hu:Tesco",
    "facebook": "https://www.facebook.com/tescoaruhazak/",
    "import": "osm_poi_matchmaker",
    "internet_access": "wlan",
    "internet_access:fee": "no",
    "name": "Tesco",
    "opening_hours": "Mo-Sa 06:00-21:00; Su 07:00-18:00",
    "operator": "TESCO-GLOBAL Áruházak Zrt.",
    "payment:cash": "yes",
    "payment:debit_cards": "yes",
    "ref:vatin:hu": "10307078-2-44",
    "shop": "supermarket",
    "source": "website",
    "source:date": "2018-07-15",
    "website": "https://www.tesco.hu/aruhazak/aruhaz/tesco-ocsa-szupermarket",
    "wheelchair": "yes",
    "youtube": "https://www.youtube.com/user/TescoMagyarorszag",
    "id": "node/-82"
  },
  "geometry": {
    "type": "Point",
    "coordinates": [
      19.230039,
      47.290712
    ]
  }
},
{
  "type": "Feature",
  "id": "node/-85",
  "properties": {
    "timestamp": "",
    "version": "99999",
    "changeset": "99999",
    "user": "KAMI",
    "uid": "4579407",
    "addr:city": "Ózd",
    "addr:country": "HU",
    "addr:housenumber": "3",
    "addr:postcode": "3600",
    "addr:street": "Brassói utca",
    "branch": "Ózd Hipermarket",
    "brand": "Tesco",
    "brand:wikidata": "Q487494",
    "brand:wikipedia": "hu:Tesco",
    "facebook": "https://www.facebook.com/tescoaruhazak/",
    "import": "osm_poi_matchmaker",
    "internet_access": "wlan",
    "internet_access:fee": "no",
    "name": "Tesco",
    "opening_hours": "Mo-Sa 06:00-22:00; Su 07:00-20:00",
    "operator": "TESCO-GLOBAL Áruházak Zrt.",
    "payment:cash": "yes",
    "payment:debit_cards": "yes",
    "ref:vatin:hu": "10307078-2-44",
    "shop": "supermarket",
    "source": "website",
    "source:date": "2018-07-15",
    "website": "https://www.tesco.hu/aruhazak/aruhaz/tesco-ozd-hipermarket",
    "wheelchair": "yes",
    "youtube": "https://www.youtube.com/user/TescoMagyarorszag",
    "id": "node/-85"
  },
  "geometry": {
    "type": "Point",
    "coordinates": [
      20.2757,
      48.22362
    ]
  }
},
{
  "type": "Feature",
  "id": "node/-91",
  "properties": {
    "timestamp": "",
    "version": "99999",
    "changeset": "99999",
    "user": "KAMI",
    "uid": "4579407",
    "addr:city": "Pécs",
    "addr:country": "HU",
    "addr:housenumber": "2",
    "addr:postcode": "7632",
    "addr:street": "Maléter Pál út",
    "branch": "Pécs Szupermarket",
    "brand": "Tesco",
    "brand:wikidata": "Q487494",
    "brand:wikipedia": "hu:Tesco",
    "facebook": "https://www.facebook.com/tescoaruhazak/",
    "import": "osm_poi_matchmaker",
    "internet_access": "wlan",
    "internet_access:fee": "no",
    "name": "Tesco",
    "opening_hours": "Mo-Sa 06:00-21:00; Su 08:00-16:00",
    "operator": "TESCO-GLOBAL Áruházak Zrt.",
    "payment:cash": "yes",
    "payment:debit_cards": "yes",
    "ref:vatin:hu": "10307078-2-44",
    "shop": "supermarket",
    "source": "website",
    "source:date": "2018-07-15",
    "website": "https://www.tesco.hu/aruhazak/aruhaz/tesco-pecs-szupermarket",
    "wheelchair": "yes",
    "youtube": "https://www.youtube.com/user/TescoMagyarorszag",
    "id": "node/-91"
  },
  "geometry": {
    "type": "Point",
    "coordinates": [
      18.216728,
      46.041412
    ]
  }
},
{
  "type": "Feature",
  "id": "node/-94",
  "properties": {
    "timestamp": "",
    "version": "99999",
    "changeset": "99999",
    "user": "KAMI",
    "uid": "4579407",
    "addr:city": "Pilis",
    "addr:country": "HU",
    "addr:housenumber": "2/H",
    "addr:postcode": "2721",
    "addr:street": "Kossuth Lajos utca",
    "branch": "Pilis Szupermarket",
    "brand": "Tesco",
    "brand:wikidata": "Q487494",
    "brand:wikipedia": "hu:Tesco",
    "facebook": "https://www.facebook.com/tescoaruhazak/",
    "import": "osm_poi_matchmaker",
    "internet_access": "wlan",
    "internet_access:fee": "no",
    "name": "Tesco",
    "opening_hours": "Mo-Sa 06:00-21:00; Su 07:00-18:00",
    "operator": "TESCO-GLOBAL Áruházak Zrt.",
    "payment:cash": "yes",
    "payment:debit_cards": "yes",
    "ref:vatin:hu": "10307078-2-44",
    "shop": "supermarket",
    "source": "website",
    "source:date": "2018-07-15",
    "website": "https://www.tesco.hu/aruhazak/aruhaz/tesco-pilis-szupermarket",
    "wheelchair": "yes",
    "youtube": "https://www.youtube.com/user/TescoMagyarorszag",
    "id": "node/-94"
  },
  "geometry": {
    "type": "Point",
    "coordinates": [
      19.542838,
      47.288339
    ]
  }
},
{
  "type": "Feature",
  "id": "node/-97",
  "properties": {
    "timestamp": "",
    "version": "99999",
    "changeset": "99999",
    "user": "KAMI",
    "uid": "4579407",
    "addr:city": "Salgótarján",
    "addr:country": "HU",
    "addr:housenumber": "143",
    "addr:postcode": "3100",
    "addr:street": "Rákóczi út",
    "branch": "Salgótarján Hipermarket",
    "brand": "Tesco",
    "brand:wikidata": "Q487494",
    "brand:wikipedia": "hu:Tesco",
    "facebook": "https://www.facebook.com/tescoaruhazak/",
    "import": "osm_poi_matchmaker",
    "internet_access": "wlan",
    "internet_access:fee": "no",
    "name": "Tesco",
    "opening_hours": "Mo-Sa 06:00-22:00; Su 08:00-18:00",
    "operator": "TESCO-GLOBAL Áruházak Zrt.",
    "payment:cash": "yes",
    "payment:debit_cards": "yes",
    "ref:vatin:hu": "10307078-2-44",
    "shop": "supermarket",
    "source": "website",
    "source:date": "2018-07-15",
    "website": "https://www.tesco.hu/aruhazak/aruhaz/tesco-salgotarjan-hipermarket",
    "wheelchair": "yes",
    "youtube": "https://www.youtube.com/user/TescoMagyarorszag",
    "id": "node/-97"
  },
  "geometry": {
    "type": "Point",
    "coordinates": [
      19.78778,
      48.07685
    ]
  }
},
{
  "type": "Feature",
  "id": "node/-100",
  "properties": {
    "timestamp": "",
    "version": "99999",
    "changeset": "99999",
    "user": "KAMI",
    "uid": "4579407",
    "addr:city": "Sárvár",
    "addr:country": "HU",
    "addr:housenumber": "83",
    "addr:postcode": "9600",
    "addr:street": "Rákóczi utca",
    "branch": "Sárvár Hipermarket",
    "brand": "Tesco",
    "brand:wikidata": "Q487494",
    "brand:wikipedia": "hu:Tesco",
    "facebook": "https://www.facebook.com/tescoaruhazak/",
    "import": "osm_poi_matchmaker",
    "internet_access": "wlan",
    "internet_access:fee": "no",
    "name": "Tesco",
    "opening_hours": "Mo-Sa 06:00-22:00; Su 07:00-22:00",
    "operator": "TESCO-GLOBAL Áruházak Zrt.",
    "payment:cash": "yes",
    "payment:debit_cards": "yes",
    "ref:vatin:hu": "10307078-2-44",
    "shop": "supermarket",
    "source": "website",
    "source:date": "2018-07-15",
    "website": "https://www.tesco.hu/aruhazak/aruhaz/tesco-sarvar-hipermarket",
    "wheelchair": "yes",
    "youtube": "https://www.youtube.com/user/TescoMagyarorszag",
    "id": "node/-100"
  },
  "geometry": {
    "type": "Point",
    "coordinates": [
      16.950943,
      47.2479
    ]
  }
},
{
  "type": "Feature",
  "id": "node/-109",
  "properties": {
    "timestamp": "",
    "version": "99999",
    "changeset": "99999",
    "user": "KAMI",
    "uid": "4579407",
    "addr:city": "Százhalombatta",
    "addr:country": "HU",
    "addr:housenumber": "29",
    "addr:postcode": "2440",
    "addr:street": "Damjanich utca",
    "branch": "Százhalombatta Hipermarket",
    "brand": "Tesco",
    "brand:wikidata": "Q487494",
    "brand:wikipedia": "hu:Tesco",
    "facebook": "https://www.facebook.com/tescoaruhazak/",
    "import": "osm_poi_matchmaker",
    "internet_access": "wlan",
    "internet_access:fee": "no",
    "name": "Tesco",
    "opening_hours": "Mo-Sa 06:00-22:00; Su 07:00-20:00",
    "operator": "TESCO-GLOBAL Áruházak Zrt.",
    "payment:cash": "yes",
    "payment:debit_cards": "yes",
    "ref:vatin:hu": "10307078-2-44",
    "shop": "supermarket",
    "source": "website",
    "source:date": "2018-07-15",
    "website": "https://www.tesco.hu/aruhazak/aruhaz/tesco-szazhalombatta-hipermarket",
    "wheelchair": "yes",
    "youtube": "https://www.youtube.com/user/TescoMagyarorszag",
    "id": "node/-109"
  },
  "geometry": {
    "type": "Point",
    "coordinates": [
      18.91263,
      47.31531
    ]
  }
},
{
  "type": "Feature",
  "id": "node/-110",
  "properties": {
    "timestamp": "",
    "version": "99999",
    "changeset": "99999",
    "user": "KAMI",
    "uid": "4579407",
    "addr:city": "Szeged",
    "addr:country": "HU",
    "addr:housenumber": "4",
    "addr:postcode": "6723",
    "addr:street": "Makkosházi körút",
    "branch": "Szeged - Makkosházi krt. Szupermarket",
    "brand": "Tesco",
    "brand:wikidata": "Q487494",
    "brand:wikipedia": "hu:Tesco",
    "facebook": "https://www.facebook.com/tescoaruhazak/",
    "import": "osm_poi_matchmaker",
    "internet_access": "wlan",
    "internet_access:fee": "no",
    "name": "Tesco",
    "opening_hours": "Mo-Sa 06:00-21:00; Su 08:00-16:00",
    "operator": "TESCO-GLOBAL Áruházak Zrt.",
    "payment:cash": "yes",
    "payment:debit_cards": "yes",
    "ref:vatin:hu": "10307078-2-44",
    "shop": "supermarket",
    "source": "website",
    "source:date": "2018-07-15",
    "website": "https://www.tesco.hu/aruhazak/aruhaz/tesco-szeged-makkoshazi-krt-szupermarket",
    "wheelchair": "yes",
    "youtube": "https://www.youtube.com/user/TescoMagyarorszag",
    "id": "node/-110"
  },
  "geometry": {
    "type": "Point",
    "coordinates": [
      20.150705,
      46.272332
    ]
  }
},
{
  "type": "Feature",
  "id": "node/-111",
  "properties": {
    "timestamp": "",
    "version": "99999",
    "changeset": "99999",
    "user": "KAMI",
    "uid": "4579407",
    "addr:city": "Szeged",
    "addr:country": "HU",
    "addr:housenumber": "7",
    "addr:postcode": "6725",
    "addr:street": "Szabadkai utca",
    "branch": "Szeged - Móraváros Hipermarket",
    "brand": "Tesco",
    "brand:wikidata": "Q487494",
    "brand:wikipedia": "hu:Tesco",
    "facebook": "https://www.facebook.com/tescoaruhazak/",
    "import": "osm_poi_matchmaker",
    "internet_access": "wlan",
    "internet_access:fee": "no",
    "name": "Tesco",
    "opening_hours": "Mo-Sa 06:00-22:00; Su 07:00-20:00",
    "operator": "TESCO-GLOBAL Áruházak Zrt.",
    "payment:cash": "yes",
    "payment:debit_cards": "yes",
    "ref:vatin:hu": "10307078-2-44",
    "shop": "supermarket",
    "source": "website",
    "source:date": "2018-07-15",
    "website": "https://www.tesco.hu/aruhazak/aruhaz/tesco-szeged-moravaros-hipermarket",
    "wheelchair": "yes",
    "youtube": "https://www.youtube.com/user/TescoMagyarorszag",
    "id": "node/-111"
  },
  "geometry": {
    "type": "Point",
    "coordinates": [
      20.120195,
      46.24039
    ]
  }
},
{
  "type": "Feature",
  "id": "node/-113",
  "properties": {
    "timestamp": "",
    "version": "99999",
    "changeset": "99999",
    "user": "KAMI",
    "uid": "4579407",
    "addr:city": "Székesfehérvár",
    "addr:country": "HU",
    "addr:housenumber": "1",
    "addr:postcode": "8000",
    "addr:street": "Aszalvölgyi út",
    "branch": "Székesfehérvár Hipermarket",
    "brand": "Tesco",
    "brand:wikidata": "Q487494",
    "brand:wikipedia": "hu:Tesco",
    "facebook": "https://www.facebook.com/tescoaruhazak/",
    "import": "osm_poi_matchmaker",
    "internet_access": "wlan",
    "internet_access:fee": "no",
    "name": "Tesco",
    "opening_hours": "Mo-Sa 06:00-22:00; Su 07:00-20:00",
    "operator": "TESCO-GLOBAL Áruházak Zrt.",
    "payment:cash": "yes",
    "payment:debit_cards": "yes",
    "ref:vatin:hu": "10307078-2-44",
    "shop": "supermarket",
    "source": "website",
    "source:date": "2018-07-15",
    "website": "https://www.tesco.hu/aruhazak/aruhaz/tesco-szekesfehervar-hipermarket",
    "wheelchair": "yes",
    "youtube": "https://www.youtube.com/user/TescoMagyarorszag",
    "id": "node/-113"
  },
  "geometry": {
    "type": "Point",
    "coordinates": [
      18.42542,
      47.20885
    ]
  }
},
{
  "type": "Feature",
  "id": "node/-115",
  "properties": {
    "timestamp": "",
    "version": "99999",
    "changeset": "99999",
    "user": "KAMI",
    "uid": "4579407",
    "addr:city": "Szekszárd",
    "addr:country": "HU",
    "addr:housenumber": "40",
    "addr:postcode": "7100",
    "addr:street": "Tartsay Vilmos utca",
    "branch": "Szekszárd Hipermarket",
    "brand": "Tesco",
    "brand:wikidata": "Q487494",
    "brand:wikipedia": "hu:Tesco",
    "facebook": "https://www.facebook.com/tescoaruhazak/",
    "import": "osm_poi_matchmaker",
    "internet_access": "wlan",
    "internet_access:fee": "no",
    "name": "Tesco",
    "opening_hours": "Mo-Sa 06:00-22:00; Su 07:00-20:00",
    "operator": "TESCO-GLOBAL Áruházak Zrt.",
    "payment:cash": "yes",
    "payment:debit_cards": "yes",
    "ref:vatin:hu": "10307078-2-44",
    "shop": "supermarket",
    "source": "website",
    "source:date": "2018-07-15",
    "website": "https://www.tesco.hu/aruhazak/aruhaz/tesco-szekszard-hipermarket",
    "wheelchair": "yes",
    "youtube": "https://www.youtube.com/user/TescoMagyarorszag",
    "id": "node/-115"
  },
  "geometry": {
    "type": "Point",
    "coordinates": [
      18.70021,
      46.33098
    ]
  }
},
{
  "type": "Feature",
  "id": "node/-117",
  "properties": {
    "timestamp": "",
    "version": "99999",
    "changeset": "99999",
    "user": "KAMI",
    "uid": "4579407",
    "addr:city": "Szentes",
    "addr:country": "HU",
    "addr:postcode": "6600",
    "branch": "Szentes Hipermarket",
    "brand": "Tesco",
    "brand:wikidata": "Q487494",
    "brand:wikipedia": "hu:Tesco",
    "facebook": "https://www.facebook.com/tescoaruhazak/",
    "import": "osm_poi_matchmaker",
    "internet_access": "wlan",
    "internet_access:fee": "no",
    "name": "Tesco",
    "opening_hours": "Mo-Sa 06:00-22:00; Su 08:00-18:00",
    "operator": "TESCO-GLOBAL Áruházak Zrt.",
    "payment:cash": "yes",
    "payment:debit_cards": "yes",
    "ref:vatin:hu": "10307078-2-44",
    "shop": "supermarket",
    "source": "website",
    "source:date": "2018-07-15",
    "website": "https://www.tesco.hu/aruhazak/aruhaz/tesco-szentes-hipermarket",
    "wheelchair": "yes",
    "youtube": "https://www.youtube.com/user/TescoMagyarorszag",
    "id": "node/-117"
  },
  "geometry": {
    "type": "Point",
    "coordinates": [
      20.23365,
      46.66754
    ]
  }
},
{
  "type": "Feature",
  "id": "node/-118",
  "properties": {
    "timestamp": "",
    "version": "99999",
    "changeset": "99999",
    "user": "KAMI",
    "uid": "4579407",
    "addr:city": "Szerencs",
    "addr:country": "HU",
    "addr:housenumber": "40",
    "addr:postcode": "3900",
    "addr:street": "Gyár utca",
    "branch": "Szerencs Hipermarket",
    "brand": "Tesco",
    "brand:wikidata": "Q487494",
    "brand:wikipedia": "hu:Tesco",
    "facebook": "https://www.facebook.com/tescoaruhazak/",
    "import": "osm_poi_matchmaker",
    "internet_access": "wlan",
    "internet_access:fee": "no",
    "name": "Tesco",
    "opening_hours": "Mo-Sa 06:00-22:00; Su 08:00-18:00",
    "operator": "TESCO-GLOBAL Áruházak Zrt.",
    "payment:cash": "yes",
    "payment:debit_cards": "yes",
    "ref:vatin:hu": "10307078-2-44",
    "shop": "supermarket",
    "source": "website",
    "source:date": "2018-07-15",
    "website": "https://www.tesco.hu/aruhazak/aruhaz/tesco-szerencs-hipermarket",
    "wheelchair": "yes",
    "youtube": "https://www.youtube.com/user/TescoMagyarorszag",
    "id": "node/-118"
  },
  "geometry": {
    "type": "Point",
    "coordinates": [
      21.199208,
      48.154679
    ]
  }
},
{
  "type": "Feature",
  "id": "node/-124",
  "properties": {
    "timestamp": "",
    "version": "99999",
    "changeset": "99999",
    "user": "KAMI",
    "uid": "4579407",
    "addr:city": "Győr",
    "addr:country": "HU",
    "addr:housenumber": "22/A",
    "addr:postcode": "9024",
    "addr:street": "Herman O. utca",
    "branch": "Szupermarket Győr - Herman Ottó utca",
    "brand": "Tesco",
    "brand:wikidata": "Q487494",
    "brand:wikipedia": "hu:Tesco",
    "facebook": "https://www.facebook.com/tescoaruhazak/",
    "import": "osm_poi_matchmaker",
    "internet_access": "wlan",
    "internet_access:fee": "no",
    "name": "Tesco",
    "opening_hours": "Mo-Sa 06:00-21:00; Su 07:00-18:00",
    "operator": "TESCO-GLOBAL Áruházak Zrt.",
    "payment:cash": "yes",
    "payment:debit_cards": "yes",
    "ref:vatin:hu": "10307078-2-44",
    "shop": "supermarket",
    "source": "website",
    "source:date": "2018-07-15",
    "website": "https://www.tesco.hu/aruhazak/aruhaz/tesco-szupermarket-gyor-herman-otto-utca",
    "wheelchair": "yes",
    "youtube": "https://www.youtube.com/user/TescoMagyarorszag",
    "id": "node/-124"
  },
  "geometry": {
    "type": "Point",
    "coordinates": [
      17.64127,
      47.67785
    ]
  }
},
{
  "type": "Feature",
  "id": "node/-127",
  "properties": {
    "timestamp": "",
    "version": "99999",
    "changeset": "99999",
    "user": "KAMI",
    "uid": "4579407",
    "addr:city": "Tapolca",
    "addr:country": "HU",
    "addr:housenumber": "5",
    "addr:postcode": "8300",
    "addr:street": "Veszprémi út",
    "branch": "Tapolca Hipermarket",
    "brand": "Tesco",
    "brand:wikidata": "Q487494",
    "brand:wikipedia": "hu:Tesco",
    "facebook": "https://www.facebook.com/tescoaruhazak/",
    "import": "osm_poi_matchmaker",
    "internet_access": "wlan",
    "internet_access:fee": "no",
    "name": "Tesco",
    "opening_hours": "Mo-Su 06:00-23:00",
    "operator": "TESCO-GLOBAL Áruházak Zrt.",
    "payment:cash": "yes",
    "payment:debit_cards": "yes",
    "ref:vatin:hu": "10307078-2-44",
    "shop": "supermarket",
    "source": "website",
    "source:date": "2018-07-15",
    "website": "https://www.tesco.hu/aruhazak/aruhaz/tesco-tapolca-hipermarket",
    "wheelchair": "yes",
    "youtube": "https://www.youtube.com/user/TescoMagyarorszag",
    "id": "node/-127"
  },
  "geometry": {
    "type": "Point",
    "coordinates": [
      17.45263,
      46.88001
    ]
  }
},
{
  "type": "Feature",
  "id": "node/-131",
  "properties": {
    "timestamp": "",
    "version": "99999",
    "changeset": "99999",
    "user": "KAMI",
    "uid": "4579407",
    "addr:city": "Tiszaújváros",
    "addr:country": "HU",
    "addr:housenumber": "1/A",
    "addr:postcode": "3580",
    "addr:street": "Örösi út",
    "branch": "Tiszaújváros Hipermarket",
    "brand": "Tesco",
    "brand:wikidata": "Q487494",
    "brand:wikipedia": "hu:Tesco",
    "facebook": "https://www.facebook.com/tescoaruhazak/",
    "import": "osm_poi_matchmaker",
    "internet_access": "wlan",
    "internet_access:fee": "no",
    "name": "Tesco",
    "opening_hours": "Mo-Sa 06:00-22:00; Su 07:00-20:00",
    "operator": "TESCO-GLOBAL Áruházak Zrt.",
    "payment:cash": "yes",
    "payment:debit_cards": "yes",
    "ref:vatin:hu": "10307078-2-44",
    "shop": "supermarket",
    "source": "website",
    "source:date": "2018-07-15",
    "website": "https://www.tesco.hu/aruhazak/aruhaz/tesco-tiszaujvaros-hipermarket",
    "wheelchair": "yes",
    "youtube": "https://www.youtube.com/user/TescoMagyarorszag",
    "id": "node/-131"
  },
  "geometry": {
    "type": "Point",
    "coordinates": [
      21.02533,
      47.93075
    ]
  }
},
{
  "type": "Feature",
  "id": "node/4933472305",
  "properties": {
    "timestamp": "2017-09-25T11:00:28Z",
    "version": "3",
    "changeset": "1",
    "user": "KAMI",
    "uid": "4579407",
    "addr:city": "Túrkeve",
    "addr:country": "HU",
    "addr:housenumber": "2",
    "addr:postcode": "5420",
    "addr:street": "Kabai út",
    "branch": "Túrkeve Szupermarket",
    "brand": "Tesco",
    "brand:wikidata": "Q487494",
    "brand:wikipedia": "hu:Tesco",
    "facebook": "https://www.facebook.com/tescoaruhazak/",
    "fixme": "verify",
    "import": "osm_poi_matchmaker",
    "internet_access": "wlan",
    "internet_access:fee": "no",
    "name": "Tesco",
    "opening_hours": "Mo-Sa 06:00-21:00; Su 08:00-16:00",
    "operator": "TESCO-GLOBAL Áruházak Zrt.",
    "payment:cash": "yes",
    "payment:debit_cards": "yes",
    "ref:vatin:hu": "10307078-2-44",
    "shop": "supermarket",
    "source": "website",
    "source:date": "2018-07-15",
    "toilets:wheelchair": "no",
    "website": "https://www.tesco.hu/aruhazak/aruhaz/tesco-turkeve-szupermarket",
    "wheelchair": "yes",
    "youtube": "https://www.youtube.com/user/TescoMagyarorszag",
    "id": "node/4933472305"
  },
  "geometry": {
    "type": "Point",
    "coordinates": [
      20.7344073971137,
      47.1100347949277
    ]
  }
},
{
  "type": "Feature",
  "id": "node/-134",
  "properties": {
    "timestamp": "",
    "version": "99999",
    "changeset": "99999",
    "user": "KAMI",
    "uid": "4579407",
    "addr:city": "Budapest",
    "addr:country": "HU",
    "addr:housenumber": "19-21",
    "addr:postcode": "1117",
    "addr:street": "Hengermalom utca",
    "branch": "Új Buda Center Hipermarket",
    "brand": "Tesco",
    "brand:wikidata": "Q487494",
    "brand:wikipedia": "hu:Tesco",
    "facebook": "https://www.facebook.com/tescoaruhazak/",
    "import": "osm_poi_matchmaker",
    "internet_access": "wlan",
    "internet_access:fee": "no",
    "name": "Tesco",
    "opening_hours": "Mo-Sa 06:00-22:00; Su 07:00-20:00",
    "operator": "TESCO-GLOBAL Áruházak Zrt.",
    "payment:cash": "yes",
    "payment:debit_cards": "yes",
    "ref:vatin:hu": "10307078-2-44",
    "shop": "supermarket",
    "source": "website",
    "source:date": "2018-07-15",
    "website": "https://www.tesco.hu/aruhazak/aruhaz/tesco-uj-buda-center-hipermarket",
    "wheelchair": "yes",
    "youtube": "https://www.youtube.com/user/TescoMagyarorszag",
    "id": "node/-134"
  },
  "geometry": {
    "type": "Point",
    "coordinates": [
      19.05213,
      47.46099
    ]
  }
},
{
  "type": "Feature",
  "id": "node/-141",
  "properties": {
    "timestamp": "",
    "version": "99999",
    "changeset": "99999",
    "user": "KAMI",
    "uid": "4579407",
    "addr:city": "Zalaegerszeg",
    "addr:country": "HU",
    "addr:housenumber": "1",
    "addr:postcode": "8900",
    "addr:street": "Sport utca",
    "branch": "Zalaegerszeg Hipermarket",
    "brand": "Tesco",
    "brand:wikidata": "Q487494",
    "brand:wikipedia": "hu:Tesco",
    "facebook": "https://www.facebook.com/tescoaruhazak/",
    "import": "osm_poi_matchmaker",
    "internet_access": "wlan",
    "internet_access:fee": "no",
    "name": "Tesco",
    "opening_hours": "Mo-Sa 06:00-22:00; Su 07:00-22:00",
    "operator": "TESCO-GLOBAL Áruházak Zrt.",
    "payment:cash": "yes",
    "payment:debit_cards": "yes",
    "ref:vatin:hu": "10307078-2-44",
    "shop": "supermarket",
    "source": "website",
    "source:date": "2018-07-15",
    "website": "https://www.tesco.hu/aruhazak/aruhaz/tesco-zalaegerszeg-hipermarket",
    "wheelchair": "yes",
    "youtube": "https://www.youtube.com/user/TescoMagyarorszag",
    "id": "node/-141"
  },
  "geometry": {
    "type": "Point",
    "coordinates": [
      16.86112,
      46.84427
    ]
  }
}
]
}
{
"type": "FeatureCollection",
"features": [
{
  "type": "Feature",
  "id": "node/600390561",
  "properties": {
    "timestamp": "2017-09-11T13:49:16Z",
    "version": "4",
    "changeset": "1",
    "user": "KAMI",
    "uid": "4579407",
    "addr:city": "Budapest",
    "addr:country": "HU",
    "addr:housenumber": "9-11",
    "addr:postcode": "1039",
    "addr:street": "Madzsar József utca",
    "branch": "Expressz Bp. - Madzsar József utca",
    "brand": "Tesco",
    "brand:wikidata": "Q487494",
    "brand:wikipedia": "hu:Tesco",
    "facebook": "https://www.facebook.com/tescoaruhazak/",
    "import": "osm_poi_matchmaker",
    "internet_access": "wlan",
    "internet_access:fee": "no",
    "name": "Tesco Expressz",
    "opening_hours": "Mo-Sa 06:00-21:00; Su 07:00-18:00",
    "operator": "TESCO-GLOBAL Áruházak Zrt.",
    "payment:cash": "yes",
    "payment:debit_cards": "yes",
    "ref:vatin:hu": "10307078-2-44",
    "shop": "convenience",
    "source": "website",
    "source:date": "2018-07-15",
    "website": "https://www.tesco.hu/aruhazak/aruhaz/tesco-expressz-bp-madzsar-jozsef-utca",
    "wheelchair": "yes",
    "wheelchair:description": "nincs mozgássérültek számára kialakított mellékhelyiség",
    "youtube": "https://www.youtube.com/user/TescoMagyarorszag",
    "id": "node/600390561"
  },
  "geometry": {
    "type": "Point",
    "coordinates": [
      19.058782497347,
      47.6014997949066
    ]
  }
},
{
  "type": "Feature",
  "id": "node/603594037",
  "properties": {
    "timestamp": "2017-12-17T16:58:06Z",
    "version": "8",
    "changeset": "1",
    "user": "KAMI",
    "uid": "4579407",
    "addr:city": "Budapest",
    "addr:country": "HU",
    "addr:housenumber": "70",
    "addr:postcode": "1188",
    "addr:street": "Kisfaludy utca",
    "branch": "Expressz Bp. - Kisfaludy utca",
    "brand": "Tesco",
    "brand:wikidata": "Q487494",
    "brand:wikipedia": "hu:Tesco",
    "facebook": "https://www.facebook.com/tescoaruhazak/",
    "import": "osm_poi_matchmaker",
    "internet_access": "wlan",
    "internet_access:fee": "no",
    "name": "Tesco Expressz",
    "opening_hours": "Mo-Sa 07:00-21:00; Su 00:00-00:00",
    "operator": "TESCO-GLOBAL Áruházak Zrt.",
    "payment:cash": "yes",
    "payment:debit_cards": "yes",
    "ref:vatin:hu": "10307078-2-44",
    "shop": "convenience",
    "source": "website",
    "source:date": "2018-07-15",
    "website": "https://www.tesco.hu/aruhazak/aruhaz/tesco-expressz-bp-kisfaludy-utca",
    "wheelchair": "yes",
    "youtube": "https://www.youtube.com/user/TescoMagyarorszag",
    "id": "node/603594037"
  },
  "geometry": {
    "type": "Point",
    "coordinates": [
      19.1930216973283,
      47.4085499949147
    ]
  }
},
{
  "type": "Feature",
  "id": "node/613359560",
  "properties": {
    "timestamp": "2016-07-28T13:28:20Z",
    "version": "5",
    "changeset": "1",
    "user": "KAMI",
    "uid": "4579407",
    "addr:city": "Budapest",
    "addr:country": "HU",
    "addr:housenumber": "115",
    "addr:postcode": "1213",
    "addr:street": "Szent László út",
    "branch": "Expressz Bp. - Szent László út",
    "brand": "Tesco",
    "brand:wikidata": "Q487494",
    "brand:wikipedia": "hu:Tesco",
    "facebook": "https://www.facebook.com/tescoaruhazak/",
    "import": "osm_poi_matchmaker",
    "internet_access": "wlan",
    "internet_access:fee": "no",
    "name": "Tesco Expressz",
    "opening_hours": "Mo-Sa 07:00-21:00; Su 08:00-16:00",
    "operator": "TESCO-GLOBAL Áruházak Zrt.",
    "payment:cash": "yes",
    "payment:debit_cards": "yes",
    "ref:vatin:hu": "10307078-2-44",
    "shop": "convenience",
    "source": "website",
    "source:date": "2018-07-15",
    "website": "https://www.tesco.hu/aruhazak/aruhaz/tesco-expressz-bp-szent-laszlo-ut",
    "youtube": "https://www.youtube.com/user/TescoMagyarorszag",
    "id": "node/613359560"
  },
  "geometry": {
    "type": "Point",
    "coordinates": [
      19.0794750973441,
      47.4073085949148
    ]
  }
},
{
  "type": "Feature",
  "id": "node/856442310",
  "properties": {
    "timestamp": "2018-05-10T05:29:38Z",
    "version": "9",
    "changeset": "1",
    "user": "KAMI",
    "uid": "4579407",
    "addr:city": "Budapest",
    "addr:country": "HU",
    "addr:housenumber": "20",
    "addr:postcode": "1088",
    "addr:street": "Rákóczi út",
    "branch": "Expressz Bp. - Rákóczi út",
    "brand": "Tesco",
    "brand:wikidata": "Q487494",
    "brand:wikipedia": "hu:Tesco",
    "facebook": "https://www.facebook.com/tescoaruhazak/",
    "import": "osm_poi_matchmaker",
    "internet_access": "wlan",
    "internet_access:fee": "no",
    "name": "Tesco Expressz",
    "name:en": "Tesco Express",
    "opening_hours": "Mo-Sa 07:00-22:00; Su 08:00-16:00",
    "operator": "TESCO-GLOBAL Áruházak Zrt.",
    "payment:cash": "yes",
    "payment:debit_cards": "yes",
    "ref:vatin:hu": "10307078-2-44",
    "shop": "convenience",
    "source": "website",
    "source:date": "2018-07-15",
    "website": "https://www.tesco.hu/aruhazak/aruhaz/tesco-expressz-bp-rakoczi-ut",
    "wheelchair": "yes",
    "youtube": "https://www.youtube.com/user/TescoMagyarorszag",
    "id": "node/856442310"
  },
  "geometry": {
    "type": "Point",
    "coordinates": [
      19.0646239973462,
      47.495659594911
    ]
  }
},
{
  "type": "Feature",
  "id": "node/930054557",
  "properties": {
    "timestamp": "2017-09-24T06:44:46Z",
    "version": "9",
    "changeset": "1",
    "user": "KAMI",
    "uid": "4579407",
    "addr:city": "Budapest",
    "addr:country": "HU",
    "addr:housenumber": "105-113",
    "addr:postcode": "1115",
    "addr:street": "Bartók Béla utca",
    "branch": "Expressz Bp. - Bartók Béla utca",
    "brand": "Tesco",
    "brand:wikidata": "Q487494",
    "brand:wikipedia": "hu:Tesco",
    "facebook": "https://www.facebook.com/tescoaruhazak/",
    "import": "osm_poi_matchmaker",
    "internet_access": "wlan",
    "internet_access:fee": "no",
    "name": "Tesco Expressz",
    "name:pl": "Tesco Express",
    "opening_hours": "Mo-Sa 07:00-22:00; Su 08:00-16:00",
    "operator": "TESCO-GLOBAL Áruházak Zrt.",
    "payment:cash": "yes",
    "payment:debit_cards": "yes",
    "ref:vatin:hu": "10307078-2-44",
    "shop": "convenience",
    "source": "website",
    "source:date": "2018-07-15",
    "website": "https://www.tesco.hu/aruhazak/aruhaz/tesco-expressz-bp-bartok-bela-utca",
    "wheelchair": "limited",
    "wheelchair:description": "nincs mozgássérültek számára kialakított mellékhelyiség",
    "youtube": "https://www.youtube.com/user/TescoMagyarorszag",
    "id": "node/930054557"
  },
  "geometry": {
    "type": "Point",
    "coordinates": [
      19.0320138973507,
      47.472479894912
    ]
  }
},
{
  "type": "Feature",
  "id": "node/974419451",
  "properties": {
    "timestamp": "2016-11-05T20:30:07Z",
    "version": "5",
    "changeset": "1",
    "user": "KAMI",
    "uid": "4579407",
    "addr:city": "Budapest",
    "addr:country": "HU",
    "addr:housenumber": "125",
    "addr:postcode": "1142",
    "addr:street": "Erzsébet királyné útja",
    "branch": "Expressz Bp. - Erzsébet Királyné útja",
    "brand": "Tesco",
    "brand:wikidata": "Q487494",
    "brand:wikipedia": "hu:Tesco",
    "facebook": "https://www.facebook.com/tescoaruhazak/",
    "import": "osm_poi_matchmaker",
    "internet_access": "wlan",
    "internet_access:fee": "no",
    "name": "Tesco Expressz",
    "opening_hours": "Mo-Sa 06:00-22:00; Su 07:00-18:00",
    "operator": "TESCO-GLOBAL Áruházak Zrt.",
    "payment:cash": "yes",
    "payment:debit_cards": "yes",
    "ref:vatin:hu": "10307078-2-44",
    "shop": "convenience",
    "source": "website",
    "source:date": "2018-07-15",
    "website": "https://www.tesco.hu/aruhazak/aruhaz/tesco-expressz-bp-erzsebet-kiralyne-utja",
    "wheelchair": "yes",
    "youtube": "https://www.youtube.com/user/TescoMagyarorszag",
    "id": "node/974419451"
  },
  "geometry": {
    "type": "Point",
    "coordinates": [
      19.1133282973394,
      47.5344607949094
    ]
  }
},
{
  "type": "Feature",
  "id": "node/1202347665",
  "properties": {
    "timestamp": "2017-09-12T11:56:03Z",
    "version": "6",
    "changeset": "1",
    "user": "KAMI",
    "uid": "4579407",
    "addr:city": "Budapest",
    "addr:country": "HU",
    "addr:housenumber": "2",
    "addr:postcode": "1119",
    "addr:street": "Andor utca",
    "branch": "Expressz Bp. - Andor utca",
    "brand": "Tesco",
    "brand:wikidata": "Q487494",
    "brand:wikipedia": "hu:Tesco",
    "facebook": "https://www.facebook.com/tescoaruhazak/",
    "import": "osm_poi_matchmaker",
    "internet_access": "wlan",
    "internet_access:fee": "no",
    "name": "Tesco Expressz",
    "opening_hours": "Mo-Sa 06:00-22:00; Su 07:00-18:00",
    "operator": "TESCO-GLOBAL Áruházak Zrt.",
    "payment:cash": "yes",
    "payment:debit_cards": "yes",
    "ref:vatin:hu": "10307078-2-44",
    "shop": "convenience",
    "source": "website",
    "source:date": "2018-07-15",
    "website": "https://www.tesco.hu/aruhazak/aruhaz/tesco-expressz-bp-andor-utca",
    "wheelchair": "yes",
    "wheelchair:description": "nincs mozgássérültek számára kialakított mellékhelyiség\n",
    "youtube": "https://www.youtube.com/user/TescoMagyarorszag",
    "id": "node/1202347665"
  },
  "geometry": {
    "type": "Point",
    "coordinates": [
      19.0387653973498,
      47.4558212949127
    ]
  }
},
{
  "type": "Feature",
  "id": "node/1232504673",
  "properties": {
    "timestamp": "2015-11-19T10:33:01Z",
    "version": "3",
    "changeset": "1",
    "user": "KAMI",
    "uid": "4579407",
    "addr:city": "Budapest",
    "addr:country": "HU",
    "addr:housenumber": "132",
    "addr:postcode": "1131",
    "addr:street": "Reitter Ferenc utca",
    "branch": "Expressz Bp. - Reitter Ferenc utca",
    "brand": "Tesco",
    "brand:wikidata": "Q487494",
    "brand:wikipedia": "hu:Tesco",
    "facebook": "https://www.facebook.com/tescoaruhazak/",
    "import": "osm_poi_matchmaker",
    "internet_access": "wlan",
    "internet_access:fee": "no",
    "name": "Tesco Expressz",
    "opening_hours": "Mo-Sa 06:00-22:00; Su 08:00-16:00",
    "operator": "TESCO-GLOBAL Áruházak Zrt.",
    "payment:cash": "yes",
    "payment:debit_cards": "yes",
    "ref:vatin:hu": "10307078-2-44",
    "shop": "convenience",
    "source": "website",
    "source:date": "2018-07-15",
    "website": "https://www.tesco.hu/aruhazak/aruhaz/tesco-expressz-bp-reitter-ferenc-utca",
    "wheelchair": "yes",
    "youtube": "https://www.youtube.com/user/TescoMagyarorszag",
    "id": "node/1232504673"
  },
  "geometry": {
    "type": "Point",
    "coordinates": [
      19.0907531973425,
      47.5403182949091
    ]
  }
},
{
  "type": "Feature",
  "id": "node/1243092890",
  "properties": {
    "timestamp": "2015-10-24T10:15:22Z",
    "version": "2",
    "changeset": "1",
    "user": "KAMI",
    "uid": "4579407",
    "addr:city": "Budapest",
    "addr:country": "HU",
    "addr:housenumber": "1-2",
    "addr:postcode": "1039",
    "addr:street": "Pablo Neruda utca",
    "branch": "Expressz Bp. - Pablo Neruda utca",
    "brand": "Tesco",
    "brand:wikidata": "Q487494",
    "brand:wikipedia": "hu:Tesco",
    "facebook": "https://www.facebook.com/tescoaruhazak/",
    "import": "osm_poi_matchmaker",
    "internet_access": "wlan",
    "internet_access:fee": "no",
    "name": "Tesco Expressz",
    "opening_hours": "Mo-Sa 06:00-21:00; Su 07:00-18:00",
    "operator": "TESCO-GLOBAL Áruházak Zrt.",
    "payment:cash": "yes",
    "payment:debit_cards": "yes",
    "ref:vatin:hu": "10307078-2-44",
    "shop": "convenience",
    "source": "website",
    "source:date": "2018-07-15",
    "website": "https://www.tesco.hu/aruhazak/aruhaz/tesco-expressz-bp-pablo-neruda-utca",
    "wheelchair": "yes",
    "youtube": "https://www.youtube.com/user/TescoMagyarorszag",
    "id": "node/1243092890"
  },
  "geometry": {
    "type": "Point",
    "coordinates": [
      19.0496602973483,
      47.5968238949068
    ]
  }
},
{
  "type": "Feature",
  "id": "node/1243306114",
  "properties": {
    "timestamp": "2016-08-27T18:29:23Z",
    "version": "2",
    "changeset": "1",
    "user": "KAMI",
    "uid": "4579407",
    "addr:city": "Balatonföldvár",
    "addr:country": "HU",
    "addr:housenumber": "1",
    "addr:postcode": "8623",
    "addr:street": "Budapesti út",
    "branch": "Expressz Balatonföldvár - Budapesti út",
    "brand": "Tesco",
    "brand:wikidata": "Q487494",
    "brand:wikipedia": "hu:Tesco",
    "facebook": "https://www.facebook.com/tescoaruhazak/",
    "import": "osm_poi_matchmaker",
    "internet_access": "wlan",
    "internet_access:fee": "no",
    "name": "Tesco Expressz",
    "opening_hours": "Mo-Su 06:00-22:00",
    "operator": "TESCO-GLOBAL Áruházak Zrt.",
    "payment:cash": "yes",
    "payment:debit_cards": "yes",
    "ref:vatin:hu": "10307078-2-44",
    "shop": "convenience",
    "source": "website",
    "source:date": "2018-07-15",
    "website": "https://www.tesco.hu/aruhazak/aruhaz/tesco-expressz-balatonfoldvar-budapesti-ut",
    "youtube": "https://www.youtube.com/user/TescoMagyarorszag",
    "id": "node/1243306114"
  },
  "geometry": {
    "type": "Point",
    "coordinates": [
      17.8799189975111,
      46.8492877949392
    ]
  }
},
{
  "type": "Feature",
  "id": "node/1349471996",
  "properties": {
    "timestamp": "2015-11-20T21:40:02Z",
    "version": "3",
    "changeset": "1",
    "user": "KAMI",
    "uid": "4579407",
    "addr:city": "Miskolc",
    "addr:country": "HU",
    "addr:housenumber": "29",
    "addr:postcode": "3525",
    "addr:street": "Széchenyi utca",
    "branch": "Expressz Miskolc - Széchenyi utca",
    "brand": "Tesco",
    "brand:wikidata": "Q487494",
    "brand:wikipedia": "hu:Tesco",
    "facebook": "https://www.facebook.com/tescoaruhazak/",
    "import": "osm_poi_matchmaker",
    "internet_access": "wlan",
    "internet_access:fee": "no",
    "name": "Tesco Expressz",
    "opening_hours": "Mo-Sa 06:00-22:00; Su 08:00-16:00",
    "operator": "TESCO-GLOBAL Áruházak Zrt.",
    "payment:cash": "yes",
    "payment:debit_cards": "yes",
    "ref:vatin:hu": "10307078-2-44",
    "shop": "convenience",
    "source": "website",
    "source:date": "2018-07-15",
    "website": "https://www.tesco.hu/aruhazak/aruhaz/tesco-expressz-miskolc-szechenyi-utca",
    "wheelchair": "yes",
    "youtube": "https://www.youtube.com/user/TescoMagyarorszag",
    "id": "node/1349471996"
  },
  "geometry": {
    "type": "Point",
    "coordinates": [
      20.7848259971067,
      48.1026634948861
    ]
  }
},
{
  "type": "Feature",
  "id": "node/1398794949",
  "properties": {
    "timestamp": "2015-04-23T03:23:03Z",
    "version": "6",
    "changeset": "1",
    "user": "KAMI",
    "uid": "4579407",
    "addr:city": "Budapest",
    "addr:country": "HU",
    "addr:housenumber": "6",
    "addr:postcode": "1153",
    "addr:street": "Hubay Jenő tér",
    "branch": "Expressz Bp. - Hubay Jenő tér",
    "brand": "Tesco",
    "brand:wikidata": "Q487494",
    "brand:wikipedia": "hu:Tesco",
    "facebook": "https://www.facebook.com/tescoaruhazak/",
    "import": "osm_poi_matchmaker",
    "internet_access": "wlan",
    "internet_access:fee": "no",
    "name": "Tesco Expressz",
    "opening_hours": "Mo-Sa 06:00-22:00; Su 00:00-00:00",
    "operator": "TESCO-GLOBAL Áruházak Zrt.",
    "payment:cash": "yes",
    "payment:debit_cards": "yes",
    "ref:vatin:hu": "10307078-2-44",
    "shop": "convenience",
    "source": "website",
    "source:date": "2018-07-15",
    "website": "https://www.tesco.hu/aruhazak/aruhaz/tesco-expressz-bp-hubay-jeno-ter",
    "youtube": "https://www.youtube.com/user/TescoMagyarorszag",
    "id": "node/1398794949"
  },
  "geometry": {
    "type": "Point",
    "coordinates": [
      19.1156616973391,
      47.5627729949082
    ]
  }
},
{
  "type": "Feature",
  "id": "node/1406975311",
  "properties": {
    "timestamp": "2017-09-27T07:26:29Z",
    "version": "5",
    "changeset": "1",
    "user": "KAMI",
    "uid": "4579407",
    "addr:city": "Sopron",
    "addr:country": "HU",
    "addr:housenumber": "9",
    "addr:postcode": "9400",
    "addr:street": "Végfordulat utca",
    "branch": "Expressz Sopron - Végfordulat utca",
    "brand": "Tesco",
    "brand:wikidata": "Q487494",
    "brand:wikipedia": "hu:Tesco",
    "facebook": "https://www.facebook.com/tescoaruhazak/",
    "import": "osm_poi_matchmaker",
    "internet_access": "wlan",
    "internet_access:fee": "no",
    "name": "Tesco Expressz",
    "opening_hours": "Mo-Sa 07:00-21:00; Su 00:00-00:00",
    "operator": "TESCO-GLOBAL Áruházak Zrt.",
    "payment:cash": "yes",
    "payment:debit_cards": "yes",
    "ref:vatin:hu": "10307078-2-44",
    "shop": "convenience",
    "source": "website",
    "source:date": "2018-07-15",
    "website": "https://www.tesco.hu/aruhazak/aruhaz/tesco-expressz-sopron-vegfordulat-utca",
    "wheelchair": "limited",
    "youtube": "https://www.youtube.com/user/TescoMagyarorszag",
    "id": "node/1406975311"
  },
  "geometry": {
    "type": "Point",
    "coordinates": [
      16.5981705976895,
      47.6851303949031
    ]
  }
},
{
  "type": "Feature",
  "id": "node/1442528046",
  "properties": {
    "timestamp": "2017-09-11T12:49:04Z",
    "version": "4",
    "changeset": "1",
    "user": "KAMI",
    "uid": "4579407",
    "addr:city": "Sopron",
    "addr:country": "HU",
    "addr:housenumber": "8",
    "addr:postcode": "9400",
    "addr:street": "Hátsókapu. utca",
    "branch": "Expressz Sopron - Hátsókapu utca",
    "brand": "Tesco",
    "brand:wikidata": "Q487494",
    "brand:wikipedia": "hu:Tesco",
    "facebook": "https://www.facebook.com/tescoaruhazak/",
    "import": "osm_poi_matchmaker",
    "internet_access": "wlan",
    "internet_access:fee": "no",
    "name": "Tesco Expressz",
    "opening_hours": "Mo-Sa 06:00-21:00; Su 08:00-16:00",
    "operator": "TESCO-GLOBAL Áruházak Zrt.",
    "payment:cash": "yes",
    "payment:debit_cards": "yes",
    "ref:vatin:hu": "10307078-2-44",
    "shop": "convenience",
    "source": "website",
    "source:date": "2018-07-15",
    "website": "https://www.tesco.hu/aruhazak/aruhaz/tesco-expressz-sopron-hatsokapu-utca",
    "wheelchair": "yes",
    "youtube": "https://www.youtube.com/user/TescoMagyarorszag",
    "id": "node/1442528046"
  },
  "geometry": {
    "type": "Point",
    "coordinates": [
      16.5914487976905,
      47.6832956949032
    ]
  }
},
{
  "type": "Feature",
  "id": "node/1880546349",
  "properties": {
    "timestamp": "2012-08-24T09:55:38Z",
    "version": "1",
    "changeset": "1",
    "user": "KAMI",
    "uid": "4579407",
    "addr:city": "Siófok",
    "addr:country": "HU",
    "addr:housenumber": "20",
    "addr:postcode": "8600",
    "addr:street": "Dózsa György utca",
    "branch": "Expressz Siófok-Dózsa György utca",
    "brand": "Tesco",
    "brand:wikidata": "Q487494",
    "brand:wikipedia": "hu:Tesco",
    "facebook": "https://www.facebook.com/tescoaruhazak/",
    "import": "osm_poi_matchmaker",
    "internet_access": "wlan",
    "internet_access:fee": "no",
    "name": "Tesco Expressz",
    "opening_hours": "Mo-Su 06:00-22:00",
    "operator": "TESCO-GLOBAL Áruházak Zrt.",
    "payment:cash": "yes",
    "payment:debit_cards": "yes",
    "ref:vatin:hu": "10307078-2-44",
    "shop": "convenience",
    "source": "website",
    "source:date": "2018-07-15",
    "website": "https://www.tesco.hu/aruhazak/aruhaz/tesco-expressz-siofok-dozsa-gyorgy-utca",
    "youtube": "https://www.youtube.com/user/TescoMagyarorszag",
    "id": "node/1880546349"
  },
  "geometry": {
    "type": "Point",
    "coordinates": [
      18.0612310974859,
      46.9076669949366
    ]
  }
},
{
  "type": "Feature",
  "id": "node/1985469546",
  "properties": {
    "timestamp": "2017-09-13T08:47:38Z",
    "version": "6",
    "changeset": "1",
    "user": "KAMI",
    "uid": "4579407",
    "addr:city": "Budapest",
    "addr:country": "HU",
    "addr:housenumber": "70",
    "addr:postcode": "1211",
    "addr:street": "Kossuth Lajos utca",
    "branch": "Expressz Bp. - Kossuth Lajos utca",
    "brand": "Tesco",
    "brand:wikidata": "Q487494",
    "brand:wikipedia": "hu:Tesco",
    "facebook": "https://www.facebook.com/tescoaruhazak/",
    "import": "osm_poi_matchmaker",
    "internet_access": "wlan",
    "internet_access:fee": "no",
    "name": "Tesco Expressz",
    "opening_hours": "Mo-Sa 07:00-22:00; Su 08:00-16:00",
    "operator": "TESCO-GLOBAL Áruházak Zrt.",
    "payment:cash": "yes",
    "payment:debit_cards": "yes",
    "ref:vatin:hu": "10307078-2-44",
    "shop": "convenience",
    "source": "website",
    "source:date": "2018-07-15",
    "toilets:wheelchair": "no",
    "website": "https://www.tesco.hu/aruhazak/aruhaz/tesco-expressz-bp-kossuth-lajos-utca",
    "wheelchair": "yes",
    "youtube": "https://www.youtube.com/user/TescoMagyarorszag",
    "id": "node/1985469546"
  },
  "geometry": {
    "type": "Point",
    "coordinates": [
      19.0704930973454,
      47.4281920949139
    ]
  }
},
{
  "type": "Feature",
  "id": "node/2157559535",
  "properties": {
    "timestamp": "2017-09-20T05:21:27Z",
    "version": "8",
    "changeset": "1",
    "user": "KAMI",
    "uid": "4579407",
    "addr:city": "Budapest",
    "addr:country": "HU",
    "addr:housenumber": "1",
    "addr:postcode": "1071",
    "addr:street": "Bajza utca",
    "branch": "Expressz Bp. - Bajza utca",
    "brand": "Tesco",
    "brand:wikidata": "Q487494",
    "brand:wikipedia": "hu:Tesco",
    "facebook": "https://www.facebook.com/tescoaruhazak/",
    "import": "osm_poi_matchmaker",
    "internet_access": "wlan",
    "internet_access:fee": "no",
    "name": "Tesco Expressz",
    "opening_hours": "Mo-Sa 07:00-21:00; Su 00:00-00:00",
    "operator": "TESCO-GLOBAL Áruházak Zrt.",
    "payment:cash": "yes",
    "payment:debit_cards": "yes",
    "phone": "+36 20 827 0000",
    "ref:vatin:hu": "10307078-2-44",
    "shop": "convenience",
    "source": "website",
    "source:date": "2018-07-15",
    "website": "https://www.tesco.hu/aruhazak/aruhaz/tesco-expressz-bp-bajza-utca",
    "wheelchair": "limited",
    "youtube": "https://www.youtube.com/user/TescoMagyarorszag",
    "id": "node/2157559535"
  },
  "geometry": {
    "type": "Point",
    "coordinates": [
      19.0764105973445,
      47.5075835949105
    ]
  }
},
{
  "type": "Feature",
  "id": "node/2296466496",
  "properties": {
    "timestamp": "2017-09-11T09:23:15Z",
    "version": "8",
    "changeset": "1",
    "user": "KAMI",
    "uid": "4579407",
    "addr:city": "Budapest",
    "addr:country": "HU",
    "addr:housenumber": "7",
    "addr:postcode": "1092",
    "addr:street": "Kálvin tér",
    "branch": "Expressz Bp. - Kálvin tér",
    "brand": "Tesco",
    "brand:wikidata": "Q487494",
    "brand:wikipedia": "hu:Tesco",
    "facebook": "https://www.facebook.com/tescoaruhazak/",
    "import": "osm_poi_matchmaker",
    "internet_access": "wlan",
    "internet_access:fee": "no",
    "name": "Tesco Expressz",
    "opening_hours": "Mo-Su 05:00-23:00",
    "operator": "TESCO-GLOBAL Áruházak Zrt.",
    "payment:cash": "yes",
    "payment:debit_cards": "yes",
    "ref:vatin:hu": "10307078-2-44",
    "shop": "convenience",
    "source": "website",
    "source:date": "2018-07-15",
    "toilets:wheelchair": "no",
    "website": "https://www.tesco.hu/aruhazak/aruhaz/tesco-expressz-bp-kalvin-ter",
    "wheelchair": "yes",
    "youtube": "https://www.youtube.com/user/TescoMagyarorszag",
    "id": "node/2296466496"
  },
  "geometry": {
    "type": "Point",
    "coordinates": [
      19.0608772973467,
      47.4882926949113
    ]
  }
},
{
  "type": "Feature",
  "id": "node/2296479433",
  "properties": {
    "timestamp": "2018-06-17T07:41:56Z",
    "version": "9",
    "changeset": "1",
    "user": "KAMI",
    "uid": "4579407",
    "addr:city": "Budapest",
    "addr:country": "HU",
    "addr:housenumber": "1-3",
    "addr:postcode": "1072",
    "addr:street": "Rákóczi út",
    "branch": "Astoria Expressz",
    "brand": "Tesco",
    "brand:wikidata": "Q487494",
    "brand:wikipedia": "hu:Tesco",
    "facebook": "https://www.facebook.com/tescoaruhazak/",
    "import": "osm_poi_matchmaker",
    "internet_access": "wlan",
    "internet_access:fee": "no",
    "name": "Tesco Expressz",
    "opening_hours": "Mo-Sa 06:00-22:00; Su 08:00-20:00",
    "operator": "TESCO-GLOBAL Áruházak Zrt.",
    "payment:cash": "yes",
    "payment:debit_cards": "yes",
    "ref:vatin:hu": "10307078-2-44",
    "shop": "convenience",
    "source": "website",
    "source:date": "2018-07-15",
    "toilets:wheelchair": "no",
    "website": "https://www.tesco.hu/aruhazak/aruhaz/tesco-astoria-expressz",
    "wheelchair": "yes",
    "youtube": "https://www.youtube.com/user/TescoMagyarorszag",
    "id": "node/2296479433"
  },
  "geometry": {
    "type": "Point",
    "coordinates": [
      19.0611358973467,
      47.4943601949111
    ]
  }
},
{
  "type": "Feature",
  "id": "node/2351067330",
  "properties": {
    "timestamp": "2017-10-03T12:15:01Z",
    "version": "2",
    "changeset": "1",
    "user": "KAMI",
    "uid": "4579407",
    "addr:city": "Budapest",
    "addr:country": "HU",
    "addr:housenumber": "72",
    "addr:postcode": "1028",
    "addr:street": "Máriaremetei út",
    "branch": "Express Bp. - Máriaremetei út",
    "brand": "Tesco",
    "brand:wikidata": "Q487494",
    "brand:wikipedia": "hu:Tesco",
    "facebook": "https://www.facebook.com/tescoaruhazak/",
    "import": "osm_poi_matchmaker",
    "internet_access": "wlan",
    "internet_access:fee": "no",
    "name": "Tesco Expressz",
    "opening_hours": "Mo-Sa 07:00-22:00; Su 07:00-18:00",
    "operator": "TESCO-GLOBAL Áruházak Zrt.",
    "payment:cash": "yes",
    "payment:debit_cards": "yes",
    "ref:vatin:hu": "10307078-2-44",
    "shop": "convenience",
    "source": "website",
    "source:date": "2018-07-15",
    "website": "https://www.tesco.hu/aruhazak/aruhaz/tesco-express-bp-mariaremetei-ut",
    "wheelchair": "limited",
    "youtube": "https://www.youtube.com/user/TescoMagyarorszag",
    "id": "node/2351067330"
  },
  "geometry": {
    "type": "Point",
    "coordinates": [
      18.9538430973616,
      47.5480358949088
    ]
  }
},
{
  "type": "Feature",
  "id": "node/2351067332",
  "properties": {
    "timestamp": "2017-10-02T16:02:49Z",
    "version": "4",
    "changeset": "1",
    "user": "KAMI",
    "uid": "4579407",
    "addr:city": "Budapest",
    "addr:country": "HU",
    "addr:housenumber": "22",
    "addr:postcode": "1028",
    "addr:street": "Galóca utca",
    "branch": "Expressz Bp. - Galóca utca",
    "brand": "Tesco",
    "brand:wikidata": "Q487494",
    "brand:wikipedia": "hu:Tesco",
    "facebook": "https://www.facebook.com/tescoaruhazak/",
    "import": "osm_poi_matchmaker",
    "internet_access": "wlan",
    "internet_access:fee": "no",
    "name": "Tesco Expressz",
    "opening_hours": "Mo-Sa 07:00-22:00; Su 08:00-16:00",
    "operator": "TESCO-GLOBAL Áruházak Zrt.",
    "payment:cash": "yes",
    "payment:debit_cards": "yes",
    "ref:vatin:hu": "10307078-2-44",
    "shop": "convenience",
    "source": "website",
    "source:date": "2018-07-15",
    "website": "https://www.tesco.hu/aruhazak/aruhaz/tesco-expressz-bp-galoca-utca",
    "wheelchair": "yes",
    "youtube": "https://www.youtube.com/user/TescoMagyarorszag",
    "id": "node/2351067332"
  },
  "geometry": {
    "type": "Point",
    "coordinates": [
      18.9643141973601,
      47.5515760949087
    ]
  }
},
{
  "type": "Feature",
  "id": "node/2420796265",
  "properties": {
    "timestamp": "2016-03-20T12:45:41Z",
    "version": "4",
    "changeset": "1",
    "user": "KAMI",
    "uid": "4579407",
    "addr:city": "Budapest",
    "addr:country": "HU",
    "addr:housenumber": "4",
    "addr:postcode": "1036",
    "addr:street": "Kolosy tér",
    "branch": "Expressz Bp. - Kolosy tér",
    "brand": "Tesco",
    "brand:wikidata": "Q487494",
    "brand:wikipedia": "hu:Tesco",
    "facebook": "https://www.facebook.com/tescoaruhazak/",
    "import": "osm_poi_matchmaker",
    "internet_access": "wlan",
    "internet_access:fee": "no",
    "name": "Tesco Expressz",
    "opening_hours": "Mo-Sa 06:00-22:00; Su 08:00-20:00",
    "operator": "TESCO-GLOBAL Áruházak Zrt.",
    "payment:cash": "yes",
    "payment:debit_cards": "yes",
    "ref:vatin:hu": "10307078-2-44",
    "shop": "convenience",
    "source": "website",
    "source:date": "2018-07-15",
    "website": "https://www.tesco.hu/aruhazak/aruhaz/tesco-expressz-bp-kolosy-ter",
    "wheelchair": "limited",
    "youtube": "https://www.youtube.com/user/TescoMagyarorszag",
    "id": "node/2420796265"
  },
  "geometry": {
    "type": "Point",
    "coordinates": [
      19.0380342973499,
      47.5280446949097
    ]
  }
},
{
  "type": "Feature",
  "id": "node/2433857106",
  "properties": {
    "timestamp": "2018-06-19T12:54:44Z",
    "version": "4",
    "changeset": "1",
    "user": "KAMI",
    "uid": "4579407",
    "addr:city": "Szeged",
    "addr:country": "HU",
    "addr:housenumber": "41",
    "addr:postcode": "6722",
    "addr:street": "Tisza Lajos körút",
    "branch": "Expressz Szeged - Tisza Lajos krt. ",
    "brand": "Tesco",
    "brand:wikidata": "Q487494",
    "brand:wikipedia": "hu:Tesco",
    "facebook": "https://www.facebook.com/tescoaruhazak/",
    "import": "osm_poi_matchmaker",
    "internet_access": "wlan",
    "internet_access:fee": "no",
    "name": "Tesco Expressz",
    "opening_hours": "Mo-Su 05:00-23:00",
    "operator": "TESCO-GLOBAL Áruházak Zrt.",
    "payment:cash": "yes",
    "payment:debit_cards": "yes",
    "ref:vatin:hu": "10307078-2-44",
    "shop": "convenience",
    "source": "website",
    "source:date": "2018-07-15",
    "website": "https://www.tesco.hu/aruhazak/aruhaz/tesco-expressz-szeged-tisza-lajos-krt",
    "wheelchair": "no",
    "youtube": "https://www.youtube.com/user/TescoMagyarorszag",
    "id": "node/2433857106"
  },
  "geometry": {
    "type": "Point",
    "coordinates": [
      20.1473916971955,
      46.2561393949666
    ]
  }
},
{
  "type": "Feature",
  "id": "node/2444299064",
  "properties": {
    "timestamp": "2017-09-11T09:43:21Z",
    "version": "5",
    "changeset": "1",
    "user": "KAMI",
    "uid": "4579407",
    "addr:city": "Budapest",
    "addr:country": "HU",
    "addr:housenumber": "46-48",
    "addr:postcode": "1096",
    "addr:street": "Thaly Kálmán út",
    "branch": "Budapest-Thaly Kálmán Expressz",
    "brand": "Tesco",
    "brand:wikidata": "Q487494",
    "brand:wikipedia": "hu:Tesco",
    "facebook": "https://www.facebook.com/tescoaruhazak/",
    "import": "osm_poi_matchmaker",
    "internet_access": "wlan",
    "internet_access:fee": "no",
    "name": "Tesco Expressz",
    "opening_hours": "Mo-Sa 06:00-22:00; Su 08:00-16:00",
    "operator": "TESCO-GLOBAL Áruházak Zrt.",
    "payment:cash": "yes",
    "payment:debit_cards": "yes",
    "ref:vatin:hu": "10307078-2-44",
    "shop": "convenience",
    "source": "website",
    "source:date": "2018-07-15",
    "toilets:wheelchair": "no",
    "website": "https://www.tesco.hu/aruhazak/aruhaz/tesco-budapest-thaly-kalman-expressz",
    "wheelchair": "yes",
    "youtube": "https://www.youtube.com/user/TescoMagyarorszag",
    "id": "node/2444299064"
  },
  "geometry": {
    "type": "Point",
    "coordinates": [
      19.0772008973444,
      47.4812821949116
    ]
  }
},
{
  "type": "Feature",
  "id": "node/2494246958",
  "properties": {
    "timestamp": "2017-09-11T06:42:36Z",
    "version": "7",
    "changeset": "1",
    "user": "KAMI",
    "uid": "4579407",
    "addr:city": "Budapest",
    "addr:country": "HU",
    "addr:housenumber": "142-146",
    "addr:postcode": "1162",
    "addr:street": "Rákosi utca",
    "branch": "Expressz Bp. - Rákosi utca",
    "brand": "Tesco",
    "brand:wikidata": "Q487494",
    "brand:wikipedia": "hu:Tesco",
    "facebook": "https://www.facebook.com/tescoaruhazak/",
    "import": "osm_poi_matchmaker",
    "internet_access": "wlan",
    "internet_access:fee": "no",
    "name": "Tesco Expressz",
    "opening_hours": "Mo-Sa 07:00-22:00; Su 08:00-16:00",
    "operator": "TESCO-GLOBAL Áruházak Zrt.",
    "payment:cash": "yes",
    "payment:debit_cards": "yes",
    "ref:vatin:hu": "10307078-2-44",
    "shop": "convenience",
    "source": "website",
    "source:date": "2018-07-15",
    "website": "https://www.tesco.hu/aruhazak/aruhaz/tesco-expressz-bp-rakosi-utca",
    "wheelchair": "yes",
    "youtube": "https://www.youtube.com/user/TescoMagyarorszag",
    "id": "node/2494246958"
  },
  "geometry": {
    "type": "Point",
    "coordinates": [
      19.1722441973312,
      47.5236535949098
    ]
  }
},
{
  "type": "Feature",
  "id": "node/2515145578",
  "properties": {
    "timestamp": "2017-09-12T10:35:42Z",
    "version": "5",
    "changeset": "1",
    "user": "KAMI",
    "uid": "4579407",
    "addr:city": "Budapest",
    "addr:country": "HU",
    "addr:housenumber": "45-47",
    "addr:postcode": "1119",
    "addr:street": "Fehérvári út",
    "branch": "Expressz Bp. - Fehérvári út",
    "brand": "Tesco",
    "brand:wikidata": "Q487494",
    "brand:wikipedia": "hu:Tesco",
    "facebook": "https://www.facebook.com/tescoaruhazak/",
    "import": "osm_poi_matchmaker",
    "internet_access": "wlan",
    "internet_access:fee": "no",
    "name": "Tesco Expressz",
    "opening_hours": "Mo-Sa 06:00-22:00; Su 07:00-18:00",
    "operator": "TESCO-GLOBAL Áruházak Zrt.",
    "payment:cash": "yes",
    "payment:debit_cards": "yes",
    "ref:vatin:hu": "10307078-2-44",
    "shop": "convenience",
    "source": "website",
    "source:date": "2018-07-15",
    "website": "https://www.tesco.hu/aruhazak/aruhaz/tesco-expressz-bp-fehervari-ut",
    "wheelchair": "yes",
    "wheelchair:description": "nincs mozgássérültek számára kialakított mellékhelyiség",
    "youtube": "https://www.youtube.com/user/TescoMagyarorszag",
    "id": "node/2515145578"
  },
  "geometry": {
    "type": "Point",
    "coordinates": [
      19.044410997349,
      47.4694609949121
    ]
  }
},
{
  "type": "Feature",
  "id": "node/2603639147",
  "properties": {
    "timestamp": "2017-08-02T13:24:48Z",
    "version": "3",
    "changeset": "1",
    "user": "KAMI",
    "uid": "4579407",
    "addr:city": "Debrecen",
    "addr:country": "HU",
    "addr:housenumber": "16",
    "addr:postcode": "4024",
    "addr:street": "Piac utca",
    "branch": "Debrecen Piac Expressz",
    "brand": "Tesco",
    "brand:wikidata": "Q487494",
    "brand:wikipedia": "hu:Tesco",
    "facebook": "https://www.facebook.com/tescoaruhazak/",
    "import": "osm_poi_matchmaker",
    "internet_access": "wlan",
    "internet_access:fee": "no",
    "name": "Tesco Expressz",
    "opening_hours": "Mo-Sa 06:00-22:00; Su 07:00-20:00",
    "operator": "TESCO-GLOBAL Áruházak Zrt.",
    "payment:cash": "yes",
    "payment:debit_cards": "yes",
    "ref:vatin:hu": "10307078-2-44",
    "shop": "convenience",
    "source": "website",
    "source:date": "2018-07-15",
    "website": "https://www.tesco.hu/aruhazak/aruhaz/tesco-debrecen-piac-expressz",
    "wheelchair": "yes",
    "youtube": "https://www.youtube.com/user/TescoMagyarorszag",
    "id": "node/2603639147"
  },
  "geometry": {
    "type": "Point",
    "coordinates": [
      21.6252565969897,
      47.5304982949096
    ]
  }
},
{
  "type": "Feature",
  "id": "node/2764421663",
  "properties": {
    "timestamp": "2015-12-01T08:21:13Z",
    "version": "4",
    "changeset": "1",
    "user": "KAMI",
    "uid": "4579407",
    "addr:city": "Budapest",
    "addr:country": "HU",
    "addr:housenumber": "1",
    "addr:postcode": "1039",
    "addr:street": "Mátyás király út",
    "branch": "Expressz Bp. - Mátyás király út",
    "brand": "Tesco",
    "brand:wikidata": "Q487494",
    "brand:wikipedia": "hu:Tesco",
    "facebook": "https://www.facebook.com/tescoaruhazak/",
    "import": "osm_poi_matchmaker",
    "internet_access": "wlan",
    "internet_access:fee": "no",
    "name": "Tesco Expressz",
    "opening_hours": "Mo-Sa 06:00-22:00; Su 08:00-16:00",
    "operator": "TESCO-GLOBAL Áruházak Zrt.",
    "payment:cash": "yes",
    "payment:debit_cards": "yes",
    "ref:vatin:hu": "10307078-2-44",
    "shop": "convenience",
    "source": "website",
    "source:date": "2018-07-15",
    "website": "https://www.tesco.hu/aruhazak/aruhaz/tesco-expressz-bp-matyas-kiraly-ut",
    "wheelchair": "limited",
    "youtube": "https://www.youtube.com/user/TescoMagyarorszag",
    "id": "node/2764421663"
  },
  "geometry": {
    "type": "Point",
    "coordinates": [
      19.0452507973489,
      47.5859691949072
    ]
  }
},
{
  "type": "Feature",
  "id": "node/2905800795",
  "properties": {
    "timestamp": "2017-09-18T09:54:30Z",
    "version": "4",
    "changeset": "1",
    "user": "KAMI",
    "uid": "4579407",
    "addr:city": "Budapest",
    "addr:country": "HU",
    "addr:housenumber": "13-19",
    "addr:postcode": "1135",
    "addr:street": "Béke út",
    "branch": "Expressz Bp. - Béke út ",
    "brand": "Tesco",
    "brand:wikidata": "Q487494",
    "brand:wikipedia": "hu:Tesco",
    "facebook": "https://www.facebook.com/tescoaruhazak/",
    "import": "osm_poi_matchmaker",
    "internet_access": "wlan",
    "internet_access:fee": "no",
    "name": "Tesco Expressz",
    "opening_hours": "Mo-Sa 06:00-22:00; Su 07:00-18:00",
    "operator": "TESCO-GLOBAL Áruházak Zrt.",
    "payment:cash": "yes",
    "payment:debit_cards": "yes",
    "ref:vatin:hu": "10307078-2-44",
    "shop": "convenience",
    "source": "website",
    "source:date": "2018-07-15",
    "toilets:wheelchair": "no",
    "website": "https://www.tesco.hu/aruhazak/aruhaz/tesco-expressz-bp-beke-ut",
    "wheelchair": "yes",
    "youtube": "https://www.youtube.com/user/TescoMagyarorszag",
    "id": "node/2905800795"
  },
  "geometry": {
    "type": "Point",
    "coordinates": [
      19.0823801973437,
      47.5336187949094
    ]
  }
},
{
  "type": "Feature",
  "id": "node/2926275625",
  "properties": {
    "timestamp": "2015-12-04T14:22:00Z",
    "version": "2",
    "changeset": "1",
    "user": "KAMI",
    "uid": "4579407",
    "addr:city": "Budapest",
    "addr:country": "HU",
    "addr:housenumber": "42-44",
    "addr:postcode": "1191",
    "addr:street": "Ady Endre utca",
    "branch": "Expressz Bp. - Ady Endre utca",
    "brand": "Tesco",
    "brand:wikidata": "Q487494",
    "brand:wikipedia": "hu:Tesco",
    "facebook": "https://www.facebook.com/tescoaruhazak/",
    "import": "osm_poi_matchmaker",
    "internet_access": "wlan",
    "internet_access:fee": "no",
    "name": "Tesco Expressz",
    "opening_hours": "Mo-Sa 07:00-21:00; Su 00:00-00:00",
    "operator": "TESCO-GLOBAL Áruházak Zrt.",
    "payment:cash": "yes",
    "payment:debit_cards": "yes",
    "ref:vatin:hu": "10307078-2-44",
    "shop": "convenience",
    "source": "website",
    "source:date": "2018-07-15",
    "website": "https://www.tesco.hu/aruhazak/aruhaz/tesco-expressz-bp-ady-endre-utca",
    "wheelchair": "yes",
    "youtube": "https://www.youtube.com/user/TescoMagyarorszag",
    "id": "node/2926275625"
  },
  "geometry": {
    "type": "Point",
    "coordinates": [
      19.1325394973367,
      47.4602042949126
    ]
  }
},
{
  "type": "Feature",
  "id": "node/2934194830",
  "properties": {
    "timestamp": "2017-09-11T10:18:31Z",
    "version": "3",
    "changeset": "1",
    "user": "KAMI",
    "uid": "4579407",
    "addr:city": "Budapest",
    "addr:country": "HU",
    "addr:housenumber": "30",
    "addr:postcode": "1081",
    "addr:street": "Népszínház utca",
    "branch": "Expressz Bp. - Népszínház utca",
    "brand": "Tesco",
    "brand:wikidata": "Q487494",
    "brand:wikipedia": "hu:Tesco",
    "facebook": "https://www.facebook.com/tescoaruhazak/",
    "import": "osm_poi_matchmaker",
    "internet_access": "wlan",
    "internet_access:fee": "no",
    "name": "Tesco Expressz",
    "opening_hours": "Mo-Sa 06:00-22:00; Su 07:00-18:00",
    "operator": "TESCO-GLOBAL Áruházak Zrt.",
    "payment:cash": "yes",
    "payment:debit_cards": "yes",
    "ref:vatin:hu": "10307078-2-44",
    "shop": "convenience",
    "source": "website",
    "source:date": "2018-07-15",
    "toilets:wheelchair": "no",
    "website": "https://www.tesco.hu/aruhazak/aruhaz/tesco-expressz-bp-nepszinhaz-utca",
    "wheelchair": "no",
    "youtube": "https://www.youtube.com/user/TescoMagyarorszag",
    "id": "node/2934194830"
  },
  "geometry": {
    "type": "Point",
    "coordinates": [
      19.0773908973444,
      47.4948430949111
    ]
  }
},
{
  "type": "Feature",
  "id": "node/2938508503",
  "properties": {
    "timestamp": "2014-12-28T12:42:29Z",
    "version": "2",
    "changeset": "1",
    "user": "KAMI",
    "uid": "4579407",
    "addr:city": "Páty",
    "addr:country": "HU",
    "addr:housenumber": "11",
    "addr:postcode": "2071",
    "addr:street": "Rákóczi utca",
    "branch": "Expressz Páty - Rákóczi utca",
    "brand": "Tesco",
    "brand:wikidata": "Q487494",
    "brand:wikipedia": "hu:Tesco",
    "facebook": "https://www.facebook.com/tescoaruhazak/",
    "import": "osm_poi_matchmaker",
    "internet_access": "wlan",
    "internet_access:fee": "no",
    "name": "Tesco Expressz",
    "opening_hours": "Mo-Sa 07:00-21:00; Su 08:00-16:00",
    "operator": "TESCO-GLOBAL Áruházak Zrt.",
    "payment:cash": "yes",
    "payment:debit_cards": "yes",
    "ref:vatin:hu": "10307078-2-44",
    "shop": "convenience",
    "source": "website",
    "source:date": "2018-07-15",
    "website": "https://www.tesco.hu/aruhazak/aruhaz/tesco-expressz-paty-rakoczi-utca",
    "wheelchair": "yes",
    "youtube": "https://www.youtube.com/user/TescoMagyarorszag",
    "id": "node/2938508503"
  },
  "geometry": {
    "type": "Point",
    "coordinates": [
      18.8298678973789,
      47.5153380949102
    ]
  }
},
{
  "type": "Feature",
  "id": "node/3057051146",
  "properties": {
    "timestamp": "2014-09-03T13:19:41Z",
    "version": "2",
    "changeset": "1",
    "user": "KAMI",
    "uid": "4579407",
    "addr:city": "Sopron",
    "addr:country": "HU",
    "addr:housenumber": "3",
    "addr:postcode": "9400",
    "addr:street": "Király J. utca",
    "branch": "Expressz Sopron - Király J. utca",
    "brand": "Tesco",
    "brand:wikidata": "Q487494",
    "brand:wikipedia": "hu:Tesco",
    "facebook": "https://www.facebook.com/tescoaruhazak/",
    "import": "osm_poi_matchmaker",
    "internet_access": "wlan",
    "internet_access:fee": "no",
    "name": "Tesco Expressz",
    "opening_hours": "Mo-Sa 06:00-21:00; Su 08:00-16:00",
    "operator": "TESCO-GLOBAL Áruházak Zrt.",
    "payment:cash": "yes",
    "payment:debit_cards": "yes",
    "ref:vatin:hu": "10307078-2-44",
    "shop": "convenience",
    "source": "website",
    "source:date": "2018-07-15",
    "website": "https://www.tesco.hu/aruhazak/aruhaz/tesco-expressz-sopron-kiraly-j-utca",
    "youtube": "https://www.youtube.com/user/TescoMagyarorszag",
    "id": "node/3057051146"
  },
  "geometry": {
    "type": "Point",
    "coordinates": [
      16.5930760976902,
      47.6792774949033
    ]
  }
},
{
  "type": "Feature",
  "id": "node/3057129277",
  "properties": {
    "timestamp": "2017-10-02T13:09:45Z",
    "version": "2",
    "changeset": "1",
    "user": "KAMI",
    "uid": "4579407",
    "addr:city": "Sopron",
    "addr:country": "HU",
    "addr:housenumber": "39",
    "addr:postcode": "9400",
    "addr:street": "IV. László király utca",
    "branch": "Expressz Sopron - IV. László utca",
    "brand": "Tesco",
    "brand:wikidata": "Q487494",
    "brand:wikipedia": "hu:Tesco",
    "facebook": "https://www.facebook.com/tescoaruhazak/",
    "import": "osm_poi_matchmaker",
    "internet_access": "wlan",
    "internet_access:fee": "no",
    "name": "Tesco Expressz",
    "opening_hours": "Mo-Sa 06:00-21:00; Su 08:00-16:00",
    "operator": "TESCO-GLOBAL Áruházak Zrt.",
    "payment:cash": "yes",
    "payment:debit_cards": "yes",
    "ref:vatin:hu": "10307078-2-44",
    "shop": "convenience",
    "source": "website",
    "source:date": "2018-07-15",
    "website": "https://www.tesco.hu/aruhazak/aruhaz/tesco-expressz-sopron-iv-laszlo-utca",
    "wheelchair": "limited",
    "youtube": "https://www.youtube.com/user/TescoMagyarorszag",
    "id": "node/3057129277"
  },
  "geometry": {
    "type": "Point",
    "coordinates": [
      16.573132897693,
      47.6924972949028
    ]
  }
},
{
  "type": "Feature",
  "id": "node/3210031716",
  "properties": {
    "timestamp": "2015-11-15T12:25:38Z",
    "version": "6",
    "changeset": "1",
    "user": "KAMI",
    "uid": "4579407",
    "addr:city": "Győr",
    "addr:country": "HU",
    "addr:housenumber": "20",
    "addr:postcode": "9026",
    "addr:street": "Hédervári utca",
    "branch": "Expressz Győr - Hédervári út",
    "brand": "Tesco",
    "brand:wikidata": "Q487494",
    "brand:wikipedia": "hu:Tesco",
    "facebook": "https://www.facebook.com/tescoaruhazak/",
    "import": "osm_poi_matchmaker",
    "internet_access": "wlan",
    "internet_access:fee": "no",
    "name": "Tesco Expressz",
    "opening_hours": "Mo-Sa 06:00-22:00; Su 08:00-16:00",
    "operator": "TESCO-GLOBAL Áruházak Zrt.",
    "payment:cash": "yes",
    "payment:debit_cards": "yes",
    "ref:vatin:hu": "10307078-2-44",
    "shop": "convenience",
    "source": "website",
    "source:date": "2018-07-15",
    "website": "https://www.tesco.hu/aruhazak/aruhaz/tesco-expressz-gyor-hedervari-ut",
    "wheelchair": "limited",
    "wheelchair:description": "Bejárat szélessége 145cm.Rámpa 12%-os ,1méter széles",
    "youtube": "https://www.youtube.com/user/TescoMagyarorszag",
    "id": "node/3210031716"
  },
  "geometry": {
    "type": "Point",
    "coordinates": [
      17.6303440975458,
      47.6952668949027
    ]
  }
},
{
  "type": "Feature",
  "id": "node/3473673382",
  "properties": {
    "timestamp": "2015-04-23T18:06:42Z",
    "version": "1",
    "changeset": "1",
    "user": "KAMI",
    "uid": "4579407",
    "addr:city": "Győr",
    "addr:country": "HU",
    "addr:housenumber": "13",
    "addr:postcode": "9023",
    "addr:street": "Bartók Béla utca",
    "branch": "Expressz Győr - Bartók Béla utca",
    "brand": "Tesco",
    "brand:wikidata": "Q487494",
    "brand:wikipedia": "hu:Tesco",
    "facebook": "https://www.facebook.com/tescoaruhazak/",
    "import": "osm_poi_matchmaker",
    "internet_access": "wlan",
    "internet_access:fee": "no",
    "name": "Tesco Expressz",
    "opening_hours": "Mo-Sa 06:00-21:00; Su 00:00-00:00",
    "operator": "TESCO-GLOBAL Áruházak Zrt.",
    "payment:cash": "yes",
    "payment:debit_cards": "yes",
    "ref:vatin:hu": "10307078-2-44",
    "shop": "convenience",
    "source": "website",
    "source:date": "2018-07-15",
    "url": "http://turistautak.hu/poi.php?id=37172",
    "website": "https://www.tesco.hu/aruhazak/aruhaz/tesco-expressz-gyor-bartok-bela-utca",
    "youtube": "https://www.youtube.com/user/TescoMagyarorszag",
    "id": "node/3473673382"
  },
  "geometry": {
    "type": "Point",
    "coordinates": [
      17.6381799975447,
      47.6819979949032
    ]
  }
},
{
  "type": "Feature",
  "id": "node/-5",
  "properties": {
    "timestamp": "",
    "version": "99999",
    "changeset": "99999",
    "user": "KAMI",
    "uid": "4579407",
    "addr:city": "Levél",
    "addr:country": "HU",
    "addr:housenumber": "84",
    "addr:postcode": "9221",
    "addr:street": "Szövetkezet utca",
    "branch": "Expressz  Levél - Szövetkezet utca",
    "brand": "Tesco",
    "brand:wikidata": "Q487494",
    "brand:wikipedia": "hu:Tesco",
    "facebook": "https://www.facebook.com/tescoaruhazak/",
    "import": "osm_poi_matchmaker",
    "internet_access": "wlan",
    "internet_access:fee": "no",
    "name": "Tesco Expressz",
    "opening_hours": "Mo-Sa 06:00-21:00; Su 08:00-16:00",
    "operator": "TESCO-GLOBAL Áruházak Zrt.",
    "payment:cash": "yes",
    "payment:debit_cards": "yes",
    "ref:vatin:hu": "10307078-2-44",
    "shop": "convenience",
    "source": "website",
    "source:date": "2018-07-15",
    "website": "https://www.tesco.hu/aruhazak/aruhaz/tesco-expressz-level-szovetkezet-utca",
    "youtube": "https://www.youtube.com/user/TescoMagyarorszag",
    "id": "node/-5"
  },
  "geometry": {
    "type": "Point",
    "coordinates": [
      17.20989,
      47.89598
    ]
  }
},
{
  "type": "Feature",
  "id": "node/4939175128",
  "properties": {
    "timestamp": "2017-09-19T09:25:42Z",
    "version": "4",
    "changeset": "1",
    "user": "KAMI",
    "uid": "4579407",
    "addr:city": "Budapest",
    "addr:country": "HU",
    "addr:housenumber": "18-28",
    "addr:postcode": "1035",
    "addr:street": "Vihar utca",
    "branch": "Expressz Bp. -  Vihar utca",
    "brand": "Tesco",
    "brand:wikidata": "Q487494",
    "brand:wikipedia": "hu:Tesco",
    "facebook": "https://www.facebook.com/tescoaruhazak/",
    "fixme": "verify",
    "import": "osm_poi_matchmaker",
    "internet_access": "wlan",
    "internet_access:fee": "no",
    "name": "Tesco Expressz",
    "opening_hours": "Mo-Sa 07:00-22:00; Su 08:00-16:00",
    "operator": "TESCO-GLOBAL Áruházak Zrt.",
    "payment:cash": "yes",
    "payment:debit_cards": "yes",
    "ref:vatin:hu": "10307078-2-44",
    "shop": "convenience",
    "source": "website",
    "source:date": "2018-07-15",
    "website": "https://www.tesco.hu/aruhazak/aruhaz/tesco-expressz-bp-vihar-utca",
    "wheelchair": "no",
    "youtube": "https://www.youtube.com/user/TescoMagyarorszag",
    "id": "node/4939175128"
  },
  "geometry": {
    "type": "Point",
    "coordinates": [
      19.0377513973499,
      47.5473546949089
    ]
  }
},
{
  "type": "Feature",
  "id": "node/-14",
  "properties": {
    "timestamp": "",
    "version": "99999",
    "changeset": "99999",
    "user": "KAMI",
    "uid": "4579407",
    "addr:city": "Budapest",
    "addr:country": "HU",
    "addr:housenumber": "55-57",
    "addr:postcode": "1062",
    "addr:street": "Teréz körút",
    "branch": "Expressz Bp. - Eiffel tér",
    "brand": "Tesco",
    "brand:wikidata": "Q487494",
    "brand:wikipedia": "hu:Tesco",
    "facebook": "https://www.facebook.com/tescoaruhazak/",
    "import": "osm_poi_matchmaker",
    "internet_access": "wlan",
    "internet_access:fee": "no",
    "name": "Tesco Expressz",
    "opening_hours": "Mo-Sa 06:00-22:00; Su 00:00-00:00",
    "operator": "TESCO-GLOBAL Áruházak Zrt.",
    "payment:cash": "yes",
    "payment:debit_cards": "yes",
    "ref:vatin:hu": "10307078-2-44",
    "shop": "convenience",
    "source": "website",
    "source:date": "2018-07-15",
    "website": "https://www.tesco.hu/aruhazak/aruhaz/tesco-expressz-bp-eiffel-ter",
    "youtube": "https://www.youtube.com/user/TescoMagyarorszag",
    "id": "node/-14"
  },
  "geometry": {
    "type": "Point",
    "coordinates": [
      19.059487,
      47.510954
    ]
  }
},
{
  "type": "Feature",
  "id": "node/4933469047",
  "properties": {
    "timestamp": "2017-10-04T20:05:33Z",
    "version": "4",
    "changeset": "1",
    "user": "KAMI",
    "uid": "4579407",
    "addr:city": "Dunaújváros",
    "addr:country": "HU",
    "addr:housenumber": "4",
    "addr:postcode": "2400",
    "addr:street": "Bercsényi utca",
    "branch": "Expressz Dunaújváros - Bercsényi utca",
    "brand": "Tesco",
    "brand:wikidata": "Q487494",
    "brand:wikipedia": "hu:Tesco",
    "facebook": "https://www.facebook.com/tescoaruhazak/",
    "import": "osm_poi_matchmaker",
    "internet_access": "wlan",
    "internet_access:fee": "no",
    "name": "Tesco Expressz",
    "opening_hours": "Mo-Sa 06:00-22:00; Su 08:00-16:00",
    "operator": "TESCO-GLOBAL Áruházak Zrt.",
    "payment:cash": "yes",
    "payment:debit_cards": "yes",
    "ref:vatin:hu": "10307078-2-44",
    "shop": "convenience",
    "source": "website",
    "source:date": "2018-07-15",
    "website": "https://www.tesco.hu/aruhazak/aruhaz/tesco-expressz-dunaujvaros-bercsenyi-utca",
    "wheelchair": "yes",
    "youtube": "https://www.youtube.com/user/TescoMagyarorszag",
    "id": "node/4933469047"
  },
  "geometry": {
    "type": "Point",
    "coordinates": [
      18.9312977973647,
      46.966962994934
    ]
  }
},
{
  "type": "Feature",
  "id": "node/-35",
  "properties": {
    "timestamp": "",
    "version": "99999",
    "changeset": "99999",
    "user": "KAMI",
    "uid": "4579407",
    "addr:city": "Győr",
    "addr:country": "HU",
    "addr:housenumber": "2",
    "addr:postcode": "9024",
    "addr:street": "Hunyadi utca",
    "branch": "Expressz Győr - Hunyadi utca",
    "brand": "Tesco",
    "brand:wikidata": "Q487494",
    "brand:wikipedia": "hu:Tesco",
    "facebook": "https://www.facebook.com/tescoaruhazak/",
    "import": "osm_poi_matchmaker",
    "internet_access": "wlan",
    "internet_access:fee": "no",
    "name": "Tesco Expressz",
    "opening_hours": "Mo-Sa 06:00-21:00; Su 00:00-00:00",
    "operator": "TESCO-GLOBAL Áruházak Zrt.",
    "payment:cash": "yes",
    "payment:debit_cards": "yes",
    "ref:vatin:hu": "10307078-2-44",
    "shop": "convenience",
    "source": "website",
    "source:date": "2018-07-15",
    "website": "https://www.tesco.hu/aruhazak/aruhaz/tesco-expressz-gyor-hunyadi-utca",
    "youtube": "https://www.youtube.com/user/TescoMagyarorszag",
    "id": "node/-35"
  },
  "geometry": {
    "type": "Point",
    "coordinates": [
      17.63266,
      47.68045
    ]
  }
},
{
  "type": "Feature",
  "id": "node/-36",
  "properties": {
    "timestamp": "",
    "version": "99999",
    "changeset": "99999",
    "user": "KAMI",
    "uid": "4579407",
    "addr:city": "Győr",
    "addr:country": "HU",
    "addr:housenumber": "28",
    "addr:postcode": "9027",
    "addr:street": "Ipar utca",
    "branch": "Expressz Győr - Ipar utca",
    "brand": "Tesco",
    "brand:wikidata": "Q487494",
    "brand:wikipedia": "hu:Tesco",
    "facebook": "https://www.facebook.com/tescoaruhazak/",
    "import": "osm_poi_matchmaker",
    "internet_access": "wlan",
    "internet_access:fee": "no",
    "name": "Tesco Expressz",
    "opening_hours": "Mo-Sa 07:00-21:00; Su 00:00-00:00",
    "operator": "TESCO-GLOBAL Áruházak Zrt.",
    "payment:cash": "yes",
    "payment:debit_cards": "yes",
    "ref:vatin:hu": "10307078-2-44",
    "shop": "convenience",
    "source": "website",
    "source:date": "2018-07-15",
    "website": "https://www.tesco.hu/aruhazak/aruhaz/tesco-expressz-gyor-ipar-utca",
    "youtube": "https://www.youtube.com/user/TescoMagyarorszag",
    "id": "node/-36"
  },
  "geometry": {
    "type": "Point",
    "coordinates": [
      17.66049,
      47.69258
    ]
  }
},
{
  "type": "Feature",
  "id": "node/-37",
  "properties": {
    "timestamp": "",
    "version": "99999",
    "changeset": "99999",
    "user": "KAMI",
    "uid": "4579407",
    "addr:city": "Győr",
    "addr:country": "HU",
    "addr:housenumber": "8",
    "addr:postcode": "9025",
    "addr:street": "Köztelek utca",
    "branch": "Expressz Győr - Köztelek utca",
    "brand": "Tesco",
    "brand:wikidata": "Q487494",
    "brand:wikipedia": "hu:Tesco",
    "facebook": "https://www.facebook.com/tescoaruhazak/",
    "import": "osm_poi_matchmaker",
    "internet_access": "wlan",
    "internet_access:fee": "no",
    "name": "Tesco Expressz",
    "opening_hours": "Mo-Sa 06:00-21:00; Su 08:00-16:00",
    "operator": "TESCO-GLOBAL Áruházak Zrt.",
    "payment:cash": "yes",
    "payment:debit_cards": "yes",
    "ref:vatin:hu": "10307078-2-44",
    "shop": "convenience",
    "source": "website",
    "source:date": "2018-07-15",
    "website": "https://www.tesco.hu/aruhazak/aruhaz/tesco-expressz-gyor-koztelek-utca",
    "youtube": "https://www.youtube.com/user/TescoMagyarorszag",
    "id": "node/-37"
  },
  "geometry": {
    "type": "Point",
    "coordinates": [
      17.61824,
      47.68635
    ]
  }
},
{
  "type": "Feature",
  "id": "node/-39",
  "properties": {
    "timestamp": "",
    "version": "99999",
    "changeset": "99999",
    "user": "KAMI",
    "uid": "4579407",
    "addr:city": "Miskolc",
    "addr:country": "HU",
    "addr:housenumber": "1",
    "addr:postcode": "3526",
    "addr:street": "Arany János tér",
    "branch": "Expressz Miskolc - Arany János tér",
    "brand": "Tesco",
    "brand:wikidata": "Q487494",
    "brand:wikipedia": "hu:Tesco",
    "facebook": "https://www.facebook.com/tescoaruhazak/",
    "import": "osm_poi_matchmaker",
    "internet_access": "wlan",
    "internet_access:fee": "no",
    "name": "Tesco Expressz",
    "opening_hours": "Mo-Sa 06:00-22:00; Su 08:00-16:00",
    "operator": "TESCO-GLOBAL Áruházak Zrt.",
    "payment:cash": "yes",
    "payment:debit_cards": "yes",
    "ref:vatin:hu": "10307078-2-44",
    "shop": "convenience",
    "source": "website",
    "source:date": "2018-07-15",
    "website": "https://www.tesco.hu/aruhazak/aruhaz/tesco-expressz-miskolc-arany-janos-ter",
    "youtube": "https://www.youtube.com/user/TescoMagyarorszag",
    "id": "node/-39"
  },
  "geometry": {
    "type": "Point",
    "coordinates": [
      20.787642,
      48.109297
    ]
  }
},
{
  "type": "Feature",
  "id": "node/-41",
  "properties": {
    "timestamp": "",
    "version": "99999",
    "changeset": "99999",
    "user": "KAMI",
    "uid": "4579407",
    "addr:city": "Mosonmagyaróvár",
    "addr:country": "HU",
    "addr:housenumber": "96",
    "addr:postcode": "9200",
    "addr:street": "Szent I. kir. utca",
    "branch": "Expressz Móvár - Szent I. kir. utca",
    "brand": "Tesco",
    "brand:wikidata": "Q487494",
    "brand:wikipedia": "hu:Tesco",
    "facebook": "https://www.facebook.com/tescoaruhazak/",
    "import": "osm_poi_matchmaker",
    "internet_access": "wlan",
    "internet_access:fee": "no",
    "name": "Tesco Expressz",
    "opening_hours": "Mo-Sa 06:00-21:00; Su 08:00-16:00",
    "operator": "TESCO-GLOBAL Áruházak Zrt.",
    "payment:cash": "yes",
    "payment:debit_cards": "yes",
    "ref:vatin:hu": "10307078-2-44",
    "shop": "convenience",
    "source": "website",
    "source:date": "2018-07-15",
    "website": "https://www.tesco.hu/aruhazak/aruhaz/tesco-expressz-movar-szent-i-kir-utca",
    "youtube": "https://www.youtube.com/user/TescoMagyarorszag",
    "id": "node/-41"
  },
  "geometry": {
    "type": "Point",
    "coordinates": [
      17.27842,
      47.85557
    ]
  }
},
{
  "type": "Feature",
  "id": "node/-42",
  "properties": {
    "timestamp": "",
    "version": "99999",
    "changeset": "99999",
    "user": "KAMI",
    "uid": "4579407",
    "addr:city": "Mosonmagyaróvár",
    "addr:country": "HU",
    "addr:housenumber": "44",
    "addr:postcode": "9200",
    "addr:street": "Szent I. kir. utca",
    "branch": "Expressz Móvár - Szent I. kir. utca",
    "brand": "Tesco",
    "brand:wikidata": "Q487494",
    "brand:wikipedia": "hu:Tesco",
    "facebook": "https://www.facebook.com/tescoaruhazak/",
    "import": "osm_poi_matchmaker",
    "internet_access": "wlan",
    "internet_access:fee": "no",
    "name": "Tesco Expressz",
    "opening_hours": "Mo-Sa 06:00-21:00; Su 08:00-16:00",
    "operator": "TESCO-GLOBAL Áruházak Zrt.",
    "payment:cash": "yes",
    "payment:debit_cards": "yes",
    "ref:vatin:hu": "10307078-2-44",
    "shop": "convenience",
    "source": "website",
    "source:date": "2018-07-15",
    "website": "https://www.tesco.hu/aruhazak/aruhaz/tesco-expressz-movar-szent-i-kir-utca",
    "youtube": "https://www.youtube.com/user/TescoMagyarorszag",
    "id": "node/-42"
  },
  "geometry": {
    "type": "Point",
    "coordinates": [
      17.27494,
      47.86276
    ]
  }
},
{
  "type": "Feature",
  "id": "node/4940559150",
  "properties": {
    "timestamp": "2018-02-24T16:47:50Z",
    "version": "3",
    "changeset": "1",
    "user": "KAMI",
    "uid": "4579407",
    "addr:city": "Sopron",
    "addr:country": "HU",
    "addr:housenumber": "1",
    "addr:postcode": "9400",
    "addr:street": "József A. utca",
    "branch": "Expressz Sopron - József Attila utca",
    "brand": "Tesco",
    "brand:wikidata": "Q487494",
    "brand:wikipedia": "hu:Tesco",
    "facebook": "https://www.facebook.com/tescoaruhazak/",
    "fixme": "verify",
    "import": "osm_poi_matchmaker",
    "internet_access": "wlan",
    "internet_access:fee": "no",
    "name": "Tesco Expressz",
    "opening_hours": "Mo-Sa 06:00-21:00; Su 08:00-16:00",
    "operator": "TESCO-GLOBAL Áruházak Zrt.",
    "payment:cash": "yes",
    "payment:debit_cards": "yes",
    "ref:vatin:hu": "10307078-2-44",
    "shop": "convenience",
    "source": "website",
    "source:date": "2018-07-15",
    "website": "https://www.tesco.hu/aruhazak/aruhaz/tesco-expressz-sopron-jozsef-attila-utca",
    "youtube": "https://www.youtube.com/user/TescoMagyarorszag",
    "id": "node/4940559150"
  },
  "geometry": {
    "type": "Point",
    "coordinates": [
      16.5831148976916,
      47.6746999949035
    ]
  }
},
{
  "type": "Feature",
  "id": "node/-49",
  "properties": {
    "timestamp": "",
    "version": "99999",
    "changeset": "99999",
    "user": "KAMI",
    "uid": "4579407",
    "addr:city": "Sopron",
    "addr:country": "HU",
    "addr:housenumber": "11",
    "addr:postcode": "9400",
    "addr:street": "Lackner K. utca",
    "branch": "Expressz Sopron - Lackner K. utca",
    "brand": "Tesco",
    "brand:wikidata": "Q487494",
    "brand:wikipedia": "hu:Tesco",
    "facebook": "https://www.facebook.com/tescoaruhazak/",
    "import": "osm_poi_matchmaker",
    "internet_access": "wlan",
    "internet_access:fee": "no",
    "name": "Tesco Expressz",
    "opening_hours": "Mo-Sa 06:00-21:00; Su 00:00-00:00",
    "operator": "TESCO-GLOBAL Áruházak Zrt.",
    "payment:cash": "yes",
    "payment:debit_cards": "yes",
    "ref:vatin:hu": "10307078-2-44",
    "shop": "convenience",
    "source": "website",
    "source:date": "2018-07-15",
    "website": "https://www.tesco.hu/aruhazak/aruhaz/tesco-expressz-sopron-lackner-k-utca",
    "youtube": "https://www.youtube.com/user/TescoMagyarorszag",
    "id": "node/-49"
  },
  "geometry": {
    "type": "Point",
    "coordinates": [
      16.58626,
      47.68852
    ]
  }
},
{
  "type": "Feature",
  "id": "node/4747723237",
  "properties": {
    "timestamp": "2017-03-21T21:17:24Z",
    "version": "1",
    "changeset": "1",
    "user": "KAMI",
    "uid": "4579407",
    "addr:city": "Szeged",
    "addr:country": "HU",
    "addr:housenumber": "8-9",
    "addr:postcode": "6722",
    "addr:street": "Dugonics tér",
    "branch": "Expressz Szeged - Dugonics tér",
    "brand": "Tesco",
    "brand:wikidata": "Q487494",
    "brand:wikipedia": "hu:Tesco",
    "facebook": "https://www.facebook.com/tescoaruhazak/",
    "import": "osm_poi_matchmaker",
    "internet_access": "wlan",
    "internet_access:fee": "no",
    "name": "Tesco Expressz",
    "opening_hours": "Mo-Sa 07:00-22:00; Su 07:00-18:00",
    "operator": "TESCO-GLOBAL Áruházak Zrt.",
    "payment:cash": "yes",
    "payment:debit_cards": "yes",
    "ref:vatin:hu": "10307078-2-44",
    "shop": "convenience",
    "source": "website",
    "source:date": "2018-07-15",
    "website": "https://www.tesco.hu/aruhazak/aruhaz/tesco-expressz-szeged-dugonics-ter",
    "wheelchair": "yes",
    "youtube": "https://www.youtube.com/user/TescoMagyarorszag",
    "id": "node/4747723237"
  },
  "geometry": {
    "type": "Point",
    "coordinates": [
      20.143767297196,
      46.2506513949669
    ]
  }
},
{
  "type": "Feature",
  "id": "node/4568001190",
  "properties": {
    "timestamp": "2018-03-08T10:44:59Z",
    "version": "3",
    "changeset": "1",
    "user": "KAMI",
    "uid": "4579407",
    "addr:city": "Törökbálint",
    "addr:country": "HU",
    "addr:housenumber": "67",
    "addr:postcode": "2045",
    "addr:street": "Bajcsy-Zsilinszky utca",
    "branch": "Törökbálint Expressz",
    "brand": "Tesco",
    "brand:wikidata": "Q487494",
    "brand:wikipedia": "hu:Tesco",
    "facebook": "https://www.facebook.com/tescoaruhazak/",
    "import": "osm_poi_matchmaker",
    "internet_access": "wlan",
    "internet_access:fee": "no",
    "name": "Tesco Expressz",
    "opening_hours": "Mo-Sa 06:00-22:00; Su 08:00-16:00",
    "operator": "TESCO-GLOBAL Áruházak Zrt.",
    "payment:cash": "yes",
    "payment:debit_cards": "yes",
    "ref:vatin:hu": "10307078-2-44",
    "shop": "convenience",
    "source": "website",
    "source:date": "2018-07-15",
    "website": "https://www.tesco.hu/aruhazak/aruhaz/tesco-torokbalint-expressz",
    "wheelchair": "yes",
    "youtube": "https://www.youtube.com/user/TescoMagyarorszag",
    "id": "node/4568001190"
  },
  "geometry": {
    "type": "Point",
    "coordinates": [
      18.9134983973672,
      47.4414448949133
    ]
  }
}
]
}
{
"type": "FeatureCollection",
"features": [
{
  "type": "Feature",
  "id": "node/-4",
  "properties": {
    "timestamp": "",
    "version": "99999",
    "changeset": "99999",
    "user": "KAMI",
    "uid": "4579407",
    "addr:city": "Miskolc",
    "addr:country": "HU",
    "addr:housenumber": "103",
    "addr:postcode": "3526",
    "addr:street": "Szentpéteri kapu",
    "branch": "Extra Miskolc - Szentpéteri kapu",
    "brand": "Tesco",
    "brand:wikidata": "Q487494",
    "brand:wikipedia": "hu:Tesco",
    "facebook": "https://www.facebook.com/tescoaruhazak/",
    "import": "osm_poi_matchmaker",
    "internet_access": "wlan",
    "internet_access:fee": "no",
    "name": "Tesco Extra",
    "opening_hours": "Mo-Sa 06:00-22:00; Su 07:00-20:00",
    "operator": "TESCO-GLOBAL Áruházak Zrt.",
    "payment:cash": "yes",
    "payment:debit_cards": "yes",
    "ref:vatin:hu": "10307078-2-44",
    "shop": "supermarket",
    "source": "website",
    "source:date": "2018-07-15",
    "website": "https://www.tesco.hu/aruhazak/aruhaz/tesco-extra-miskolc-szentpeteri-kapu",
    "wheelchair": "yes",
    "youtube": "https://www.youtube.com/user/TescoMagyarorszag",
    "id": "node/-4"
  },
  "geometry": {
    "type": "Point",
    "coordinates": [
      20.78274,
      48.12795
    ]
  }
},
{
  "type": "Feature",
  "id": "node/4781258096",
  "properties": {
    "timestamp": "2017-09-05T04:39:26Z",
    "version": "3",
    "changeset": "1",
    "user": "KAMI",
    "uid": "4579407",
    "addr:city": "Szeged",
    "addr:country": "HU",
    "addr:housenumber": "42-64",
    "addr:postcode": "6724",
    "addr:street": "Rókusi körút",
    "branch": "Szeged Extra - Rókusi krt.",
    "brand": "Tesco",
    "brand:wikidata": "Q487494",
    "brand:wikipedia": "hu:Tesco",
    "facebook": "https://www.facebook.com/tescoaruhazak/",
    "import": "osm_poi_matchmaker",
    "internet_access": "wlan",
    "internet_access:fee": "no",
    "name": "Tesco Extra",
    "opening_hours": "Mo-Su 00:00-24:00",
    "operator": "TESCO-GLOBAL Áruházak Zrt.",
    "payment:cash": "yes",
    "payment:debit_cards": "yes",
    "phone": "+36208273999",
    "ref:vatin:hu": "10307078-2-44",
    "shop": "supermarket",
    "source": "website",
    "source:date": "2018-07-15",
    "toilets:wheelchair": "limited",
    "website": "https://www.tesco.hu/aruhazak/aruhaz/tesco-szeged-extra-rokusi-krt",
    "wheelchair": "yes",
    "youtube": "https://www.youtube.com/user/TescoMagyarorszag",
    "id": "node/4781258096"
  },
  "geometry": {
    "type": "Point",
    "coordinates": [
      20.1385925971967,
      46.2680189949661
    ]
  }
}
]
}
