{
"type": "FeatureCollection",
"features": [
{
  "type": "Feature",
  "id": "node/1406975311",
  "properties": {
    "timestamp": "2017-09-27T07:26:29Z",
    "version": "5",
    "changeset": "1",
    "user": "KAMI",
    "uid": "4579407",
    "addr:city": "Sopron",
    "addr:country": "HU",
    "addr:housenumber": "9",
    "addr:postcode": "9400",
    "addr:street": "Végfordulat utca",
    "alt_name": "S-Market",
    "branch": "Expressz Sopron - Végfordulat utca",
    "brand": "Tesco",
    "brand:wikidata": "Q487494",
    "brand:wikipedia": "hu:Tesco",
    "facebook": "https://www.facebook.com/tescoaruhazak",
    "import": "osm_poi_matchmaker",
    "internet_access": "wlan",
    "internet_access:fee": "no",
    "name": "Tesco Expressz",
    "opening_hours": "Mo-Sa 07:00-21:00; Su 00:00-00:00",
    "operator": "TESCO-GLOBAL Áruházak Zrt.",
    "payment:cash": "yes",
    "payment:debit_cards": "yes",
    "ref:vatin:hu": "10307078-2-44",
    "shop": "convenience",
    "source": "website",
    "source:date": "2018-07-15",
    "website": "https://www.tesco.hu/aruhazak/aruhaz/tesco-expressz-sopron-vegfordulat-utca",
    "wheelchair": "limited",
    "youtube": "https://www.youtube.com/user/TescoMagyarorszag",
    "id": "node/1406975311"
  },
  "geometry": {
    "type": "Point",
    "coordinates": [
      16.5981705976895,
      47.6851303949031
    ]
  }
},
{
  "type": "Feature",
  "id": "node/1442528046",
  "properties": {
    "timestamp": "2017-09-11T12:49:04Z",
    "version": "4",
    "changeset": "1",
    "user": "KAMI",
    "uid": "4579407",
    "addr:city": "Sopron",
    "addr:country": "HU",
    "addr:housenumber": "8",
    "addr:postcode": "9400",
    "addr:street": "Hátsókapu. utca",
    "alt_name": "S-Market",
    "branch": "Expressz Sopron - Hátsókapu utca",
    "brand": "Tesco",
    "brand:wikidata": "Q487494",
    "brand:wikipedia": "hu:Tesco",
    "facebook": "https://www.facebook.com/tescoaruhazak",
    "import": "osm_poi_matchmaker",
    "internet_access": "wlan",
    "internet_access:fee": "no",
    "name": "Tesco Expressz",
    "opening_hours": "Mo-Sa 06:00-21:00; Su 08:00-16:00",
    "operator": "TESCO-GLOBAL Áruházak Zrt.",
    "payment:cash": "yes",
    "payment:debit_cards": "yes",
    "ref:vatin:hu": "10307078-2-44",
    "shop": "convenience",
    "source": "website",
    "source:date": "2018-07-15",
    "website": "https://www.tesco.hu/aruhazak/aruhaz/tesco-expressz-sopron-hatsokapu-utca",
    "wheelchair": "yes",
    "youtube": "https://www.youtube.com/user/TescoMagyarorszag",
    "id": "node/1442528046"
  },
  "geometry": {
    "type": "Point",
    "coordinates": [
      16.5914487976905,
      47.6832956949032
    ]
  }
},
{
  "type": "Feature",
  "id": "node/3210031716",
  "properties": {
    "timestamp": "2015-11-15T12:25:38Z",
    "version": "6",
    "changeset": "1",
    "user": "KAMI",
    "uid": "4579407",
    "addr:city": "Győr",
    "addr:country": "HU",
    "addr:housenumber": "20",
    "addr:postcode": "9026",
    "addr:street": "Hédervári utca",
    "alt_name": "S-Market",
    "branch": "Expressz Győr - Hédervári út",
    "brand": "Tesco",
    "brand:wikidata": "Q487494",
    "brand:wikipedia": "hu:Tesco",
    "facebook": "https://www.facebook.com/tescoaruhazak",
    "import": "osm_poi_matchmaker",
    "internet_access": "wlan",
    "internet_access:fee": "no",
    "name": "Tesco Expressz",
    "opening_hours": "Mo-Sa 06:00-22:00; Su 08:00-16:00",
    "operator": "TESCO-GLOBAL Áruházak Zrt.",
    "payment:cash": "yes",
    "payment:debit_cards": "yes",
    "ref:vatin:hu": "10307078-2-44",
    "shop": "convenience",
    "source": "website",
    "source:date": "2018-07-15",
    "website": "https://www.tesco.hu/aruhazak/aruhaz/tesco-expressz-gyor-hedervari-ut",
    "wheelchair": "limited",
    "wheelchair:description": "Bejárat szélessége 145cm.Rámpa 12%-os ,1méter széles",
    "youtube": "https://www.youtube.com/user/TescoMagyarorszag",
    "id": "node/3210031716"
  },
  "geometry": {
    "type": "Point",
    "coordinates": [
      17.6303440975458,
      47.6952668949027
    ]
  }
},
{
  "type": "Feature",
  "id": "node/3473677615",
  "properties": {
    "timestamp": "2017-10-03T06:24:50Z",
    "version": "3",
    "changeset": "1",
    "user": "KAMI",
    "uid": "4579407",
    "addr:city": "Győr",
    "addr:country": "HU",
    "addr:housenumber": "8",
    "addr:postcode": "9025",
    "addr:street": "Köztelek utca",
    "alt_name": "S-Market",
    "branch": "Expressz Győr - Köztelek utca",
    "brand": "Tesco",
    "brand:wikidata": "Q487494",
    "brand:wikipedia": "hu:Tesco",
    "facebook": "https://www.facebook.com/tescoaruhazak",
    "import": "osm_poi_matchmaker",
    "internet_access": "wlan",
    "internet_access:fee": "no",
    "name": "Tesco Expressz",
    "opening_hours": "Mo-Sa 06:00-21:00; Su 08:00-16:00",
    "operator": "TESCO-GLOBAL Áruházak Zrt.",
    "payment:cash": "yes",
    "payment:debit_cards": "yes",
    "ref:vatin:hu": "10307078-2-44",
    "shop": "convenience",
    "source": "website",
    "source:date": "2018-07-15",
    "toilets:wheelchair": "no",
    "website": "https://www.tesco.hu/aruhazak/aruhaz/tesco-expressz-gyor-koztelek-utca",
    "wheelchair": "limited",
    "youtube": "https://www.youtube.com/user/TescoMagyarorszag",
    "id": "node/3473677615"
  },
  "geometry": {
    "type": "Point",
    "coordinates": [
      17.6191690975474,
      47.686704394903
    ]
  }
},
{
  "type": "Feature",
  "id": "node/-4",
  "properties": {
    "timestamp": "",
    "version": "99999",
    "changeset": "99999",
    "user": "KAMI",
    "uid": "4579407",
    "addr:city": "Győr",
    "addr:country": "HU",
    "addr:housenumber": "28",
    "addr:postcode": "9027",
    "addr:street": "Ipar utca",
    "alt_name": "S-Market",
    "branch": "Expressz Győr - Ipar utca",
    "brand": "Tesco",
    "brand:wikidata": "Q487494",
    "brand:wikipedia": "hu:Tesco",
    "facebook": "https://www.facebook.com/tescoaruhazak",
    "import": "osm_poi_matchmaker",
    "internet_access": "wlan",
    "internet_access:fee": "no",
    "name": "Tesco Expressz",
    "opening_hours": "Mo-Sa 07:00-21:00; Su 00:00-00:00",
    "operator": "TESCO-GLOBAL Áruházak Zrt.",
    "payment:cash": "yes",
    "payment:debit_cards": "yes",
    "ref:vatin:hu": "10307078-2-44",
    "shop": "convenience",
    "source": "website",
    "source:date": "2018-07-15",
    "website": "https://www.tesco.hu/aruhazak/aruhaz/tesco-expressz-gyor-ipar-utca",
    "youtube": "https://www.youtube.com/user/TescoMagyarorszag",
    "id": "node/-4"
  },
  "geometry": {
    "type": "Point",
    "coordinates": [
      17.66049,
      47.69258
    ]
  }
}
]
}
