{
"type": "FeatureCollection",
"features": [
{
  "type": "Feature",
  "id": "node/166004114",
  "properties": {
    "timestamp": "2017-09-15T07:37:36Z",
    "version": "7",
    "changeset": "1",
    "user": "KAMI",
    "uid": "4579407",
    "addr:city": "Budapest",
    "addr:country": "HU",
    "addr:housenumber": "35",
    "addr:postcode": "1223",
    "addr:street": "Nagytétényi út",
    "branch": "Campona Hipermarket",
    "brand": "Tesco",
    "brand:wikidata": "Q487494",
    "brand:wikipedia": "hu:Tesco",
    "facebook": "https://www.facebook.com/tescoaruhazak",
    "import": "osm_poi_matchmaker",
    "internet_access": "wlan",
    "internet_access:fee": "no",
    "name": "Tesco",
    "opening_hours": "Mo-Sa 06:00-22:00; Su 07:00-20:00",
    "operator": "TESCO-GLOBAL Áruházak Zrt.",
    "payment:cash": "yes",
    "payment:debit_cards": "yes",
    "ref:vatin:hu": "10307078-2-44",
    "shop": "supermarket",
    "source": "website",
    "source:date": "2018-07-15",
    "toilets:wheelchair": "yes",
    "website": "https://www.tesco.hu/aruhazak/aruhaz/tesco-campona-hipermarket",
    "wheelchair": "yes",
    "youtube": "https://www.youtube.com/user/TescoMagyarorszag",
    "id": "node/166004114"
  },
  "geometry": {
    "type": "Point",
    "coordinates": [
      19.0193187973525,
      47.4079450949148
    ]
  }
},
{
  "type": "Feature",
  "id": "node/324584681",
  "properties": {
    "timestamp": "2017-07-25T12:06:54Z",
    "version": "4",
    "changeset": "1",
    "user": "KAMI",
    "uid": "4579407",
    "addr:city": "Ráckeve",
    "addr:country": "HU",
    "addr:housenumber": "98-100",
    "addr:postcode": "2300",
    "addr:street": "Kossuth Lajos utca",
    "branch": "Ráckeve Szupermarket",
    "brand": "Tesco",
    "brand:wikidata": "Q487494",
    "brand:wikipedia": "hu:Tesco",
    "facebook": "https://www.facebook.com/tescoaruhazak",
    "import": "osm_poi_matchmaker",
    "internet_access": "wlan",
    "internet_access:fee": "no",
    "name": "Tesco",
    "opening_hours": "Mo-Sa 06:00-22:00; Su 08:00-20:00",
    "operator": "TESCO-GLOBAL Áruházak Zrt.",
    "payment:cash": "yes",
    "payment:debit_cards": "yes",
    "ref:vatin:hu": "10307078-2-44",
    "shop": "supermarket",
    "source": "website",
    "source:date": "2018-07-15",
    "toilets:wheelchair": "no",
    "website": "https://www.tesco.hu/aruhazak/aruhaz/tesco-rackeve-szupermarket",
    "wheelchair": "yes",
    "youtube": "https://www.youtube.com/user/TescoMagyarorszag",
    "id": "node/324584681"
  },
  "geometry": {
    "type": "Point",
    "coordinates": [
      18.943632197363,
      47.1730826949249
    ]
  }
},
{
  "type": "Feature",
  "id": "node/483596662",
  "properties": {
    "timestamp": "2017-07-15T18:48:00Z",
    "version": "6",
    "changeset": "1",
    "user": "KAMI",
    "uid": "4579407",
    "addr:city": "Budapest",
    "addr:country": "HU",
    "addr:housenumber": "131",
    "addr:postcode": "1152",
    "addr:street": "Szentmihályi út",
    "branch": "Pólus Hipermarket",
    "brand": "Tesco",
    "brand:wikidata": "Q487494",
    "brand:wikipedia": "hu:Tesco",
    "facebook": "https://www.facebook.com/tescoaruhazak",
    "import": "osm_poi_matchmaker",
    "internet_access": "wlan",
    "internet_access:fee": "no",
    "name": "Tesco",
    "opening_hours": "Mo-Sa 06:00-22:00; Su 07:00-20:00",
    "operator": "TESCO-GLOBAL Áruházak Zrt.",
    "payment:cash": "yes",
    "payment:debit_cards": "yes",
    "ref:vatin:hu": "10307078-2-44",
    "shop": "supermarket",
    "source": "website",
    "source:date": "2018-07-15",
    "website": "https://www.tesco.hu/aruhazak/aruhaz/tesco-polus-hipermarket",
    "wheelchair": "yes",
    "youtube": "https://www.youtube.com/user/TescoMagyarorszag",
    "id": "node/483596662"
  },
  "geometry": {
    "type": "Point",
    "coordinates": [
      19.1391796973358,
      47.5517920949087
    ]
  }
},
{
  "type": "Feature",
  "id": "node/727750381",
  "properties": {
    "timestamp": "2017-09-12T08:40:13Z",
    "version": "9",
    "changeset": "1",
    "user": "KAMI",
    "uid": "4579407",
    "addr:city": "Vecsés",
    "addr:country": "HU",
    "addr:housenumber": "246-248",
    "addr:postcode": "2220",
    "addr:street": "Fő út",
    "branch": "Market Central Ferihegy Hipermarket",
    "brand": "Tesco",
    "brand:wikidata": "Q487494",
    "brand:wikipedia": "hu:Tesco",
    "facebook": "https://www.facebook.com/tescoaruhazak",
    "import": "osm_poi_matchmaker",
    "internet_access": "wlan",
    "internet_access:fee": "no",
    "name": "Tesco",
    "opening_hours": "Mo-Su 05:00-22:00",
    "operator": "TESCO-GLOBAL Áruházak Zrt.",
    "payment:cash": "yes",
    "payment:debit_cards": "yes",
    "ref:vatin:hu": "10307078-2-44",
    "shop": "supermarket",
    "source": "website",
    "source:date": "2018-07-15",
    "toilets:wheelchair": "yes",
    "website": "https://www.tesco.hu/aruhazak/aruhaz/tesco-market-central-ferihegy-hipermarket",
    "wheelchair": "yes",
    "youtube": "https://www.youtube.com/user/TescoMagyarorszag",
    "id": "node/727750381"
  },
  "geometry": {
    "type": "Point",
    "coordinates": [
      19.2506295973203,
      47.4152269949144
    ]
  }
},
{
  "type": "Feature",
  "id": "node/752198395",
  "properties": {
    "timestamp": "2012-03-04T13:47:19Z",
    "version": "2",
    "changeset": "1",
    "user": "KAMI",
    "uid": "4579407",
    "addr:city": "Budakeszi",
    "addr:country": "HU",
    "addr:housenumber": "1",
    "addr:postcode": "2092",
    "addr:street": "Bianka utca",
    "branch": "Budakeszi Hipermarket",
    "brand": "Tesco",
    "brand:wikidata": "Q487494",
    "brand:wikipedia": "hu:Tesco",
    "facebook": "https://www.facebook.com/tescoaruhazak",
    "import": "osm_poi_matchmaker",
    "internet_access": "wlan",
    "internet_access:fee": "no",
    "name": "Tesco",
    "opening_hours": "Mo-Sa 06:00-22:00; Su 07:00-20:00",
    "operator": "TESCO-GLOBAL Áruházak Zrt.",
    "payment:cash": "yes",
    "payment:debit_cards": "yes",
    "ref:vatin:hu": "10307078-2-44",
    "shop": "supermarket",
    "source": "website",
    "source:date": "2018-07-15",
    "website": "https://www.tesco.hu/aruhazak/aruhaz/tesco-budakeszi-hipermarket",
    "wheelchair": "yes",
    "youtube": "https://www.youtube.com/user/TescoMagyarorszag",
    "id": "node/752198395"
  },
  "geometry": {
    "type": "Point",
    "coordinates": [
      18.9157598973669,
      47.5001489949108
    ]
  }
},
{
  "type": "Feature",
  "id": "node/866731937",
  "properties": {
    "timestamp": "2018-01-11T16:44:35Z",
    "version": "9",
    "changeset": "1",
    "user": "KAMI",
    "uid": "4579407",
    "addr:city": "Budapest",
    "addr:country": "HU",
    "addr:housenumber": "19-21",
    "addr:postcode": "1117",
    "addr:street": "Hengermalom utca",
    "alt_name": "Tesco Új Buda Center Hipermarket",
    "branch": "Új Buda Center Hipermarket",
    "brand": "Tesco",
    "brand:wikidata": "Q487494",
    "brand:wikipedia": "hu:Tesco",
    "facebook": "https://www.facebook.com/tescoaruhazak",
    "import": "osm_poi_matchmaker",
    "internet_access": "wlan",
    "internet_access:fee": "no",
    "name": "Tesco",
    "opening_hours": "Mo-Sa 06:00-22:00; Su 07:00-20:00",
    "operator": "TESCO-GLOBAL Áruházak Zrt.",
    "payment:cash": "yes",
    "payment:debit_cards": "yes",
    "ref:vatin:hu": "10307078-2-44",
    "shop": "supermarket",
    "source": "website",
    "source:date": "2018-07-15",
    "toilets:wheelchair": "yes",
    "website": "https://www.tesco.hu/aruhazak/aruhaz/tesco-uj-buda-center-hipermarket",
    "wheelchair": "yes",
    "youtube": "https://www.youtube.com/user/TescoMagyarorszag",
    "id": "node/866731937"
  },
  "geometry": {
    "type": "Point",
    "coordinates": [
      19.051451897348,
      47.4589435949126
    ]
  }
},
{
  "type": "Feature",
  "id": "node/948125218",
  "properties": {
    "timestamp": "2012-01-22T16:53:42Z",
    "version": "3",
    "changeset": "1",
    "user": "KAMI",
    "uid": "4579407",
    "addr:city": "Siklós",
    "addr:country": "HU",
    "addr:housenumber": "55",
    "addr:postcode": "7800",
    "addr:street": "Harkányi utca",
    "branch": "Siklós Hipermarket",
    "brand": "Tesco",
    "brand:wikidata": "Q487494",
    "brand:wikipedia": "hu:Tesco",
    "facebook": "https://www.facebook.com/tescoaruhazak",
    "import": "osm_poi_matchmaker",
    "internet_access": "wlan",
    "internet_access:fee": "no",
    "name": "Tesco",
    "opening_hours": "Mo-Sa 06:00-22:00; Su 07:00-20:00",
    "operator": "TESCO-GLOBAL Áruházak Zrt.",
    "payment:cash": "yes",
    "payment:debit_cards": "yes",
    "ref:vatin:hu": "10307078-2-44",
    "shop": "supermarket",
    "source": "website",
    "source:date": "2018-07-15",
    "website": "https://www.tesco.hu/aruhazak/aruhaz/tesco-siklos-hipermarket",
    "wheelchair": "yes",
    "youtube": "https://www.youtube.com/user/TescoMagyarorszag",
    "id": "node/948125218"
  },
  "geometry": {
    "type": "Point",
    "coordinates": [
      18.2781540974557,
      45.8568727949859
    ]
  }
},
{
  "type": "Feature",
  "id": "node/1156820103",
  "properties": {
    "timestamp": "2017-09-11T10:03:40Z",
    "version": "4",
    "changeset": "1",
    "user": "KAMI",
    "uid": "4579407",
    "addr:city": "Bicske",
    "addr:country": "HU",
    "addr:housenumber": "4",
    "addr:postcode": "2060",
    "addr:street": "Csabdi út",
    "branch": "Bicske Hipermarket",
    "brand": "Tesco",
    "brand:wikidata": "Q487494",
    "brand:wikipedia": "hu:Tesco",
    "facebook": "https://www.facebook.com/tescoaruhazak",
    "import": "osm_poi_matchmaker",
    "internet_access": "wlan",
    "internet_access:fee": "no",
    "name": "Tesco",
    "opening_hours": "Mo-Sa 06:00-22:00; Su 08:00-20:00",
    "operator": "TESCO-GLOBAL Áruházak Zrt.",
    "payment:cash": "yes",
    "payment:debit_cards": "yes",
    "ref:vatin:hu": "10307078-2-44",
    "shop": "supermarket",
    "source": "website",
    "source:date": "2018-07-15",
    "website": "https://www.tesco.hu/aruhazak/aruhaz/tesco-bicske-hipermarket",
    "wheelchair": "yes",
    "youtube": "https://www.youtube.com/user/TescoMagyarorszag",
    "id": "node/1156820103"
  },
  "geometry": {
    "type": "Point",
    "coordinates": [
      18.6283517974069,
      47.5028645949107
    ]
  }
},
{
  "type": "Feature",
  "id": "node/1251052088",
  "properties": {
    "timestamp": "2018-06-02T12:09:01Z",
    "version": "3",
    "changeset": "1",
    "user": "KAMI",
    "uid": "4579407",
    "addr:city": "Kiskunhalas",
    "addr:country": "HU",
    "addr:housenumber": "24",
    "addr:postcode": "6400",
    "addr:street": "Fejérföld utca",
    "branch": "Kiskunhalas Hipermarket",
    "brand": "Tesco",
    "brand:wikidata": "Q487494",
    "brand:wikipedia": "hu:Tesco",
    "facebook": "https://www.facebook.com/tescoaruhazak",
    "import": "osm_poi_matchmaker",
    "internet_access": "wlan",
    "internet_access:fee": "no",
    "name": "Tesco",
    "opening_hours": "Mo-Sa 06:00-22:00; Su 07:00-20:00",
    "operator": "TESCO-GLOBAL Áruházak Zrt.",
    "payment:cash": "yes",
    "payment:debit_cards": "yes",
    "ref:vatin:hu": "10307078-2-44",
    "shop": "supermarket",
    "source": "website",
    "source:date": "2018-07-15",
    "toilets:wheelchair": "yes",
    "website": "https://www.tesco.hu/aruhazak/aruhaz/tesco-kiskunhalas-hipermarket",
    "wheelchair": "yes",
    "youtube": "https://www.youtube.com/user/TescoMagyarorszag",
    "id": "node/1251052088"
  },
  "geometry": {
    "type": "Point",
    "coordinates": [
      19.4990828972857,
      46.418348694959
    ]
  }
},
{
  "type": "Feature",
  "id": "node/1303961374",
  "properties": {
    "timestamp": "2017-09-25T10:10:24Z",
    "version": "7",
    "changeset": "1",
    "user": "KAMI",
    "uid": "4579407",
    "addr:city": "Kecskemét",
    "addr:country": "HU",
    "addr:housenumber": "12/B",
    "addr:postcode": "6000",
    "addr:street": "Izsáki út",
    "branch": "Kecskemét Target Center Hipermarket",
    "brand": "Tesco",
    "brand:wikidata": "Q487494",
    "brand:wikipedia": "hu:Tesco",
    "facebook": "https://www.facebook.com/tescoaruhazak",
    "import": "osm_poi_matchmaker",
    "internet_access": "wlan",
    "internet_access:fee": "no",
    "name": "Tesco",
    "opening_hours": "Mo-Sa 06:00-22:00; Su 07:00-20:00",
    "operator": "TESCO-GLOBAL Áruházak Zrt.",
    "payment:cash": "yes",
    "payment:debit_cards": "yes",
    "ref:vatin:hu": "10307078-2-44",
    "shop": "supermarket",
    "source": "website",
    "source:date": "2018-07-15",
    "toilets:wheelchair": "yes",
    "website": "https://www.tesco.hu/aruhazak/aruhaz/tesco-kecskemet-target-center-hipermarket",
    "wheelchair": "yes",
    "youtube": "https://www.youtube.com/user/TescoMagyarorszag",
    "id": "node/1303961374"
  },
  "geometry": {
    "type": "Point",
    "coordinates": [
      19.6665488972624,
      46.8931098949373
    ]
  }
},
{
  "type": "Feature",
  "id": "node/1332575876",
  "properties": {
    "timestamp": "2011-06-20T18:27:40Z",
    "version": "1",
    "changeset": "1",
    "user": "KAMI",
    "uid": "4579407",
    "addr:city": "Miskolc",
    "addr:country": "HU",
    "addr:housenumber": "1",
    "addr:postcode": "3531",
    "addr:street": "Nagyváthy J. utca",
    "branch": "Miskolc Szupermarket",
    "brand": "Tesco",
    "brand:wikidata": "Q487494",
    "brand:wikipedia": "hu:Tesco",
    "facebook": "https://www.facebook.com/tescoaruhazak",
    "import": "osm_poi_matchmaker",
    "internet_access": "wlan",
    "internet_access:fee": "no",
    "name": "Tesco",
    "opening_hours": "Mo-Sa 06:00-21:00; Su 07:00-18:00",
    "operator": "TESCO-GLOBAL Áruházak Zrt.",
    "payment:cash": "yes",
    "payment:debit_cards": "yes",
    "ref:vatin:hu": "10307078-2-44",
    "shop": "supermarket",
    "source": "website",
    "source:date": "2018-07-15",
    "website": "https://www.tesco.hu/aruhazak/aruhaz/tesco-miskolc-szupermarket",
    "wheelchair": "yes",
    "youtube": "https://www.youtube.com/user/TescoMagyarorszag",
    "id": "node/1332575876"
  },
  "geometry": {
    "type": "Point",
    "coordinates": [
      20.7643768971096,
      48.1031990948861
    ]
  }
},
{
  "type": "Feature",
  "id": "node/1492382764",
  "properties": {
    "timestamp": "2016-12-26T15:17:43Z",
    "version": "6",
    "changeset": "1",
    "user": "KAMI",
    "uid": "4579407",
    "addr:city": "Monor",
    "addr:country": "HU",
    "addr:postcode": "2200",
    "addr:street": "4-es főút",
    "branch": "Monor Hipermarket",
    "brand": "Tesco",
    "brand:wikidata": "Q487494",
    "brand:wikipedia": "hu:Tesco",
    "facebook": "https://www.facebook.com/tescoaruhazak",
    "import": "osm_poi_matchmaker",
    "internet_access": "wlan",
    "internet_access:fee": "no",
    "name": "Tesco",
    "opening_hours": "Mo-Sa 06:00-22:00; Su 08:00-18:00",
    "operator": "TESCO-GLOBAL Áruházak Zrt.",
    "payment:cash": "yes",
    "payment:debit_cards": "yes",
    "ref:vatin:hu": "10307078-2-44",
    "shop": "supermarket",
    "source": "website",
    "source:date": "2018-07-15",
    "website": "https://www.tesco.hu/aruhazak/aruhaz/tesco-monor-hipermarket",
    "wheelchair": "yes",
    "youtube": "https://www.youtube.com/user/TescoMagyarorszag",
    "id": "node/1492382764"
  },
  "geometry": {
    "type": "Point",
    "coordinates": [
      19.410953997298,
      47.3478881949173
    ]
  }
},
{
  "type": "Feature",
  "id": "node/1661000718",
  "properties": {
    "timestamp": "2014-12-14T13:56:47Z",
    "version": "2",
    "changeset": "1",
    "user": "KAMI",
    "uid": "4579407",
    "addr:city": "Miskolc",
    "addr:country": "HU",
    "addr:housenumber": "1/A",
    "addr:postcode": "3529",
    "addr:street": "Mésztelep utca",
    "branch": "Miskolc Avas Hipermarket",
    "brand": "Tesco",
    "brand:wikidata": "Q487494",
    "brand:wikipedia": "hu:Tesco",
    "facebook": "https://www.facebook.com/tescoaruhazak",
    "import": "osm_poi_matchmaker",
    "internet_access": "wlan",
    "internet_access:fee": "no",
    "name": "Tesco",
    "opening_hours": "Mo-Sa 06:00-22:00; Su 07:00-20:00",
    "operator": "TESCO-GLOBAL Áruházak Zrt.",
    "payment:cash": "yes",
    "payment:debit_cards": "yes",
    "ref:vatin:hu": "10307078-2-44",
    "shop": "supermarket",
    "source": "website",
    "source:date": "2018-07-15",
    "website": "https://www.tesco.hu/aruhazak/aruhaz/tesco-miskolc-avas-hipermarket",
    "wheelchair": "yes",
    "youtube": "https://www.youtube.com/user/TescoMagyarorszag",
    "id": "node/1661000718"
  },
  "geometry": {
    "type": "Point",
    "coordinates": [
      20.7769252971078,
      48.0739615948873
    ]
  }
},
{
  "type": "Feature",
  "id": "node/1788509369",
  "properties": {
    "timestamp": "2017-09-04T11:14:10Z",
    "version": "8",
    "changeset": "1",
    "user": "KAMI",
    "uid": "4579407",
    "addr:city": "Balatonfüred",
    "addr:country": "HU",
    "addr:housename": "TESCO MARINA CENTER",
    "addr:housenumber": "55",
    "addr:postcode": "8230",
    "addr:street": "Széchenyi utca",
    "branch": "Balatonfüred Hipermarket",
    "brand": "Tesco",
    "brand:wikidata": "Q487494",
    "brand:wikipedia": "hu:Tesco",
    "facebook": "https://www.facebook.com/tescoaruhazak",
    "import": "osm_poi_matchmaker",
    "internet_access": "wlan",
    "internet_access:fee": "no",
    "level": "1",
    "name": "Tesco",
    "opening_hours": "Mo-Su 00:00-24:00",
    "operator": "TESCO-GLOBAL Áruházak Zrt.",
    "payment:cash": "yes",
    "payment:debit_cards": "yes",
    "phone": "+36208211311",
    "ref:vatin:hu": "10307078-2-44",
    "shop": "supermarket",
    "source": "website",
    "source:date": "2018-07-15",
    "toilets:wheelchair": "yes",
    "website": "https://www.tesco.hu/aruhazak/aruhaz/tesco-balatonfured-hipermarket",
    "wheelchair": "yes",
    "youtube": "https://www.youtube.com/user/TescoMagyarorszag",
    "id": "node/1788509369"
  },
  "geometry": {
    "type": "Point",
    "coordinates": [
      17.8774123975114,
      46.9482254949348
    ]
  }
},
{
  "type": "Feature",
  "id": "node/1839858422",
  "properties": {
    "timestamp": "2017-09-08T10:48:12Z",
    "version": "2",
    "changeset": "1",
    "user": "KAMI",
    "uid": "4579407",
    "addr:city": "Kunszentmiklós",
    "addr:country": "HU",
    "addr:housenumber": "57/A",
    "addr:postcode": "6090",
    "addr:street": "Rákóczi F. utca",
    "branch": "Kunszentmiklós Szupermarket",
    "brand": "Tesco",
    "brand:wikidata": "Q487494",
    "brand:wikipedia": "hu:Tesco",
    "facebook": "https://www.facebook.com/tescoaruhazak",
    "import": "osm_poi_matchmaker",
    "internet_access": "wlan",
    "internet_access:fee": "no",
    "name": "Tesco",
    "opening_hours": "Mo-Sa 06:00-21:00; Su 07:00-18:00",
    "operator": "TESCO-GLOBAL Áruházak Zrt.",
    "payment:cash": "yes",
    "payment:debit_cards": "yes",
    "ref:vatin:hu": "10307078-2-44",
    "shop": "supermarket",
    "source": "website",
    "source:date": "2018-07-15",
    "toilets:wheelchair": "no",
    "website": "https://www.tesco.hu/aruhazak/aruhaz/tesco-kunszentmiklos-szupermarket",
    "wheelchair": "yes",
    "youtube": "https://www.youtube.com/user/TescoMagyarorszag",
    "id": "node/1839858422"
  },
  "geometry": {
    "type": "Point",
    "coordinates": [
      19.1111526973397,
      47.0226389949315
    ]
  }
},
{
  "type": "Feature",
  "id": "node/1844332411",
  "properties": {
    "timestamp": "2017-12-11T00:50:43Z",
    "version": "4",
    "changeset": "1",
    "user": "KAMI",
    "uid": "4579407",
    "addr:city": "Salgótarján",
    "addr:country": "HU",
    "addr:housenumber": "143",
    "addr:postcode": "3100",
    "addr:street": "Rákóczi út",
    "branch": "Salgótarján Hipermarket",
    "brand": "Tesco",
    "brand:wikidata": "Q487494",
    "brand:wikipedia": "hu:Tesco",
    "facebook": "https://www.facebook.com/tescoaruhazak",
    "import": "osm_poi_matchmaker",
    "internet_access": "wlan",
    "internet_access:fee": "no",
    "name": "Tesco",
    "opening_hours": "Mo-Sa 06:00-22:00; Su 08:00-18:00",
    "operator": "TESCO-GLOBAL Áruházak Zrt.",
    "payment:cash": "yes",
    "payment:debit_cards": "yes",
    "ref:vatin:hu": "10307078-2-44",
    "shop": "supermarket",
    "source": "website",
    "source:date": "2018-07-15",
    "toilets:wheelchair": "yes",
    "website": "https://www.tesco.hu/aruhazak/aruhaz/tesco-salgotarjan-hipermarket",
    "wheelchair": "yes",
    "youtube": "https://www.youtube.com/user/TescoMagyarorszag",
    "id": "node/1844332411"
  },
  "geometry": {
    "type": "Point",
    "coordinates": [
      19.7895656972453,
      48.0782674948871
    ]
  }
},
{
  "type": "Feature",
  "id": "node/1868466510",
  "properties": {
    "timestamp": "2012-08-16T09:52:44Z",
    "version": "1",
    "changeset": "1",
    "user": "KAMI",
    "uid": "4579407",
    "addr:city": "Hódmezővásárhely",
    "addr:country": "HU",
    "addr:housenumber": "17",
    "addr:postcode": "6800",
    "addr:street": "Hódtó utca",
    "branch": "Hódmezővásárhely Hipermarket",
    "brand": "Tesco",
    "brand:wikidata": "Q487494",
    "brand:wikipedia": "hu:Tesco",
    "facebook": "https://www.facebook.com/tescoaruhazak",
    "import": "osm_poi_matchmaker",
    "internet_access": "wlan",
    "internet_access:fee": "no",
    "name": "Tesco",
    "opening_hours": "Mo-Sa 06:00-22:00; Su 07:00-20:00",
    "operator": "TESCO-GLOBAL Áruházak Zrt.",
    "payment:cash": "yes",
    "payment:debit_cards": "yes",
    "ref:vatin:hu": "10307078-2-44",
    "shop": "supermarket",
    "source": "website",
    "source:date": "2018-07-15",
    "website": "https://www.tesco.hu/aruhazak/aruhaz/tesco-hodmezovasarhely-hipermarket",
    "wheelchair": "yes",
    "youtube": "https://www.youtube.com/user/TescoMagyarorszag",
    "id": "node/1868466510"
  },
  "geometry": {
    "type": "Point",
    "coordinates": [
      20.3324528971697,
      46.4125485949593
    ]
  }
},
{
  "type": "Feature",
  "id": "node/2316853129",
  "properties": {
    "timestamp": "2015-11-21T18:45:00Z",
    "version": "6",
    "changeset": "1",
    "user": "KAMI",
    "uid": "4579407",
    "addr:city": "Székesfehérvár",
    "addr:country": "HU",
    "addr:housenumber": "6",
    "addr:postcode": "8000",
    "addr:street": "Palotai út",
    "branch": "Székesfehérvár Palota Hipermarket",
    "brand": "Tesco",
    "brand:wikidata": "Q487494",
    "brand:wikipedia": "hu:Tesco",
    "facebook": "https://www.facebook.com/tescoaruhazak",
    "import": "osm_poi_matchmaker",
    "internet_access": "wlan",
    "internet_access:fee": "no",
    "name": "Tesco",
    "opening_hours": "Mo-Sa 06:00-22:00; Su 07:00-20:00",
    "operator": "TESCO-GLOBAL Áruházak Zrt.",
    "payment:cash": "yes",
    "payment:debit_cards": "yes",
    "ref:vatin:hu": "10307078-2-44",
    "shop": "supermarket",
    "source": "website",
    "source:date": "2018-07-15",
    "website": "https://www.tesco.hu/aruhazak/aruhaz/tesco-szekesfehervar-palota-hipermarket",
    "wheelchair": "yes",
    "youtube": "https://www.youtube.com/user/TescoMagyarorszag",
    "id": "node/2316853129"
  },
  "geometry": {
    "type": "Point",
    "coordinates": [
      18.4041081974381,
      47.1900589949242
    ]
  }
},
{
  "type": "Feature",
  "id": "node/2433857103",
  "properties": {
    "timestamp": "2016-08-23T17:38:49Z",
    "version": "4",
    "changeset": "1",
    "user": "KAMI",
    "uid": "4579407",
    "addr:city": "Szeged",
    "addr:country": "HU",
    "addr:housenumber": "1",
    "addr:postcode": "6723",
    "addr:street": "Etelka sor",
    "branch": "Szeged - Tisza Center Szupermarket",
    "brand": "Tesco",
    "brand:wikidata": "Q487494",
    "brand:wikipedia": "hu:Tesco",
    "facebook": "https://www.facebook.com/tescoaruhazak",
    "import": "osm_poi_matchmaker",
    "internet_access": "wlan",
    "internet_access:fee": "no",
    "name": "Tesco",
    "opening_hours": "Mo-Sa 06:00-22:00; Su 07:00-18:00",
    "operator": "TESCO-GLOBAL Áruházak Zrt.",
    "payment:cash": "yes",
    "payment:debit_cards": "yes",
    "ref:vatin:hu": "10307078-2-44",
    "shop": "supermarket",
    "source": "website",
    "source:date": "2018-07-15",
    "website": "https://www.tesco.hu/aruhazak/aruhaz/tesco-szeged-tisza-center-szupermarket",
    "wheelchair": "yes",
    "youtube": "https://www.youtube.com/user/TescoMagyarorszag",
    "id": "node/2433857103"
  },
  "geometry": {
    "type": "Point",
    "coordinates": [
      20.1716920971921,
      46.2596247949665
    ]
  }
},
{
  "type": "Feature",
  "id": "node/2651774032",
  "properties": {
    "timestamp": "2018-03-06T20:35:14Z",
    "version": "4",
    "changeset": "1",
    "user": "KAMI",
    "uid": "4579407",
    "addr:city": "Budapest",
    "addr:country": "HU",
    "addr:housenumber": "75/B",
    "addr:postcode": "1191",
    "addr:street": "Vak Bottyán utca",
    "branch": "Köki Terminál Hipermarket",
    "brand": "Tesco",
    "brand:wikidata": "Q487494",
    "brand:wikipedia": "hu:Tesco",
    "facebook": "https://www.facebook.com/tescoaruhazak",
    "import": "osm_poi_matchmaker",
    "internet_access": "wlan",
    "internet_access:fee": "no",
    "level": "1",
    "name": "Tesco",
    "opening_hours": "Mo-Sa 06:00-22:00; Su 07:00-20:00",
    "operator": "TESCO-GLOBAL Áruházak Zrt.",
    "payment:cash": "yes",
    "payment:debit_cards": "yes",
    "phone": "+36 20 521 2534",
    "ref:vatin:hu": "10307078-2-44",
    "shop": "supermarket",
    "source": "website",
    "source:date": "2018-07-15",
    "website": "https://www.tesco.hu/aruhazak/aruhaz/tesco-koki-terminal-hipermarket",
    "wheelchair": "yes",
    "youtube": "https://www.youtube.com/user/TescoMagyarorszag",
    "id": "node/2651774032"
  },
  "geometry": {
    "type": "Point",
    "coordinates": [
      19.1460637973348,
      47.4628112949124
    ]
  }
},
{
  "type": "Feature",
  "id": "node/2906134501",
  "properties": {
    "timestamp": "2014-06-08T18:14:01Z",
    "version": "1",
    "changeset": "1",
    "user": "KAMI",
    "uid": "4579407",
    "addr:city": "Sülysáp",
    "addr:country": "HU",
    "addr:housenumber": "6",
    "addr:postcode": "2241",
    "addr:street": "Szent István tér",
    "branch": "Sülysáp Szupermarket",
    "brand": "Tesco",
    "brand:wikidata": "Q487494",
    "brand:wikipedia": "hu:Tesco",
    "facebook": "https://www.facebook.com/tescoaruhazak",
    "import": "osm_poi_matchmaker",
    "internet_access": "wlan",
    "internet_access:fee": "no",
    "name": "Tesco",
    "opening_hours": "Mo-Sa 06:00-22:00; Su 07:00-18:00",
    "operator": "TESCO-GLOBAL Áruházak Zrt.",
    "payment:cash": "yes",
    "payment:debit_cards": "yes",
    "ref:vatin:hu": "10307078-2-44",
    "shop": "supermarket",
    "source": "website",
    "source:date": "2018-07-15",
    "website": "https://www.tesco.hu/aruhazak/aruhaz/tesco-sulysap-szupermarket",
    "wheelchair": "yes",
    "youtube": "https://www.youtube.com/user/TescoMagyarorszag",
    "id": "node/2906134501"
  },
  "geometry": {
    "type": "Point",
    "coordinates": [
      19.5343434972808,
      47.4506210949129
    ]
  }
},
{
  "type": "Feature",
  "id": "node/2923512763",
  "properties": {
    "timestamp": "2016-02-14T18:14:37Z",
    "version": "5",
    "changeset": "1",
    "user": "KAMI",
    "uid": "4579407",
    "addr:city": "Szekszárd",
    "addr:country": "HU",
    "addr:housenumber": "31",
    "addr:postcode": "7100",
    "addr:street": "Arany János utca",
    "branch": "Szekszárd Szupermarket",
    "brand": "Tesco",
    "brand:wikidata": "Q487494",
    "brand:wikipedia": "hu:Tesco",
    "facebook": "https://www.facebook.com/tescoaruhazak",
    "import": "osm_poi_matchmaker",
    "internet_access": "wlan",
    "internet_access:fee": "no",
    "name": "Tesco",
    "opening_hours": "Mo-Sa 06:00-21:00; Su 08:00-16:00",
    "operator": "TESCO-GLOBAL Áruházak Zrt.",
    "payment:cash": "yes",
    "payment:debit_cards": "yes",
    "ref:vatin:hu": "10307078-2-44",
    "shop": "supermarket",
    "source": "website",
    "source:date": "2018-07-15",
    "website": "https://www.tesco.hu/aruhazak/aruhaz/tesco-szekszard-szupermarket",
    "wheelchair": "yes",
    "youtube": "https://www.youtube.com/user/TescoMagyarorszag",
    "id": "node/2923512763"
  },
  "geometry": {
    "type": "Point",
    "coordinates": [
      18.7028009973965,
      46.3453063949624
    ]
  }
},
{
  "type": "Feature",
  "id": "node/3237453813",
  "properties": {
    "timestamp": "2017-09-21T07:42:51Z",
    "version": "2",
    "changeset": "1",
    "user": "KAMI",
    "uid": "4579407",
    "addr:city": "Vác",
    "addr:country": "HU",
    "addr:housenumber": "2",
    "addr:postcode": "2600",
    "addr:street": "Deres utca",
    "branch": "Vác Hipermarket",
    "brand": "Tesco",
    "brand:wikidata": "Q487494",
    "brand:wikipedia": "hu:Tesco",
    "facebook": "https://www.facebook.com/tescoaruhazak",
    "import": "osm_poi_matchmaker",
    "internet_access": "wlan",
    "internet_access:fee": "no",
    "name": "Tesco",
    "opening_hours": "Mo-Sa 06:00-22:00; Su 07:00-22:00",
    "operator": "TESCO-GLOBAL Áruházak Zrt.",
    "payment:cash": "yes",
    "payment:debit_cards": "yes",
    "ref:vatin:hu": "10307078-2-44",
    "shop": "supermarket",
    "source": "website",
    "source:date": "2018-07-15",
    "toilets:wheelchair": "yes",
    "website": "https://www.tesco.hu/aruhazak/aruhaz/tesco-vac-hipermarket",
    "wheelchair": "yes",
    "youtube": "https://www.youtube.com/user/TescoMagyarorszag",
    "id": "node/3237453813"
  },
  "geometry": {
    "type": "Point",
    "coordinates": [
      19.1461795973348,
      47.7559585949002
    ]
  }
},
{
  "type": "Feature",
  "id": "node/3264424348",
  "properties": {
    "timestamp": "2017-09-27T07:01:28Z",
    "version": "3",
    "changeset": "1",
    "user": "KAMI",
    "uid": "4579407",
    "addr:city": "Szolnok",
    "addr:country": "HU",
    "addr:housenumber": "38",
    "addr:postcode": "5008",
    "addr:street": "Karinthy Frigyes út",
    "branch": "Szolnok - Szandaszőlős Szupermarket",
    "brand": "Tesco",
    "brand:wikidata": "Q487494",
    "brand:wikipedia": "hu:Tesco",
    "facebook": "https://www.facebook.com/tescoaruhazak",
    "import": "osm_poi_matchmaker",
    "internet_access": "wlan",
    "internet_access:fee": "no",
    "name": "Tesco",
    "opening_hours": "Mo-Sa 06:00-22:00; Su 07:00-20:00",
    "operator": "TESCO-GLOBAL Áruházak Zrt.",
    "payment:cash": "yes",
    "payment:debit_cards": "yes",
    "ref:vatin:hu": "10307078-2-44",
    "shop": "supermarket",
    "source": "website",
    "source:date": "2018-07-15",
    "website": "https://www.tesco.hu/aruhazak/aruhaz/tesco-szolnok-szandaszolos-szupermarket",
    "wheelchair": "yes",
    "youtube": "https://www.youtube.com/user/TescoMagyarorszag",
    "id": "node/3264424348"
  },
  "geometry": {
    "type": "Point",
    "coordinates": [
      20.2174621971857,
      47.1322748949267
    ]
  }
},
{
  "type": "Feature",
  "id": "node/3465808596",
  "properties": {
    "timestamp": "2017-07-21T08:04:41Z",
    "version": "4",
    "changeset": "1",
    "user": "KAMI",
    "uid": "4579407",
    "addr:city": "Dunaharaszti",
    "addr:country": "HU",
    "addr:housenumber": "56",
    "addr:postcode": "2330",
    "addr:street": "Fő utca",
    "branch": "Dunaharaszti Szupermarket",
    "brand": "Tesco",
    "brand:wikidata": "Q487494",
    "brand:wikipedia": "hu:Tesco",
    "facebook": "https://www.facebook.com/tescoaruhazak",
    "fixme": "check opening_hours",
    "import": "osm_poi_matchmaker",
    "internet_access": "wlan",
    "internet_access:fee": "no",
    "name": "Tesco",
    "opening_hours": "Mo-Sa 07:00-21:00; Su 08:00-16:00",
    "operator": "TESCO-GLOBAL Áruházak Zrt.",
    "payment:cash": "yes",
    "payment:debit_cards": "yes",
    "ref:vatin:hu": "10307078-2-44",
    "shop": "supermarket",
    "source": "website",
    "source:date": "2018-07-15",
    "toilets:wheelchair": "no",
    "url": "http://turistautak.hu/poi.php?id=79512",
    "website": "https://www.tesco.hu/aruhazak/aruhaz/tesco-dunaharaszti-szupermarket",
    "wheelchair": "yes",
    "youtube": "https://www.youtube.com/user/TescoMagyarorszag",
    "id": "node/3465808596"
  },
  "geometry": {
    "type": "Point",
    "coordinates": [
      19.0882109973429,
      47.3617779949167
    ]
  }
},
{
  "type": "Feature",
  "id": "node/3471930793",
  "properties": {
    "timestamp": "2017-07-20T11:04:15Z",
    "version": "2",
    "changeset": "1",
    "user": "KAMI",
    "uid": "4579407",
    "addr:city": "Dabas",
    "addr:conscriptionnumber": "2256/15",
    "addr:country": "HU",
    "addr:postcode": "2370",
    "branch": "Dabas Hipermarket",
    "brand": "Tesco",
    "brand:wikidata": "Q487494",
    "brand:wikipedia": "hu:Tesco",
    "facebook": "https://www.facebook.com/tescoaruhazak",
    "import": "osm_poi_matchmaker",
    "internet_access": "wlan",
    "internet_access:fee": "no",
    "name": "Tesco",
    "opening_hours": "Mo-Sa 06:00-22:00; Su 08:00-18:00",
    "operator": "TESCO-GLOBAL Áruházak Zrt.",
    "payment:cash": "yes",
    "payment:debit_cards": "yes",
    "ref:vatin:hu": "10307078-2-44",
    "shop": "supermarket",
    "source": "website",
    "source:date": "2018-07-15",
    "toilets:wheelchair": "yes",
    "url": "http://turistautak.hu/poi.php?id=94334",
    "website": "https://www.tesco.hu/aruhazak/aruhaz/tesco-dabas-hipermarket",
    "wheelchair": "yes",
    "youtube": "https://www.youtube.com/user/TescoMagyarorszag",
    "id": "node/3471930793"
  },
  "geometry": {
    "type": "Point",
    "coordinates": [
      19.3195639973107,
      47.193865994924
    ]
  }
},
{
  "type": "Feature",
  "id": "node/3485173360",
  "properties": {
    "timestamp": "2017-12-27T15:45:48Z",
    "version": "3",
    "changeset": "1",
    "user": "KAMI",
    "uid": "4579407",
    "addr:city": "Sarkad",
    "addr:country": "HU",
    "addr:housenumber": "3-7",
    "addr:postcode": "5720",
    "addr:street": "Szalontai utca",
    "branch": "Sarkad Szupermarket",
    "brand": "Tesco",
    "brand:wikidata": "Q487494",
    "brand:wikipedia": "hu:Tesco",
    "contact:phone": "+36 20 8278253",
    "description": "5720 Sarkad, Szalontai u. 3-7. Tel.: 20/827-8253 H-V: 6.00-20.00",
    "facebook": "https://www.facebook.com/tescoaruhazak",
    "fixme": "resurvey (source was old)",
    "import": "osm_poi_matchmaker",
    "internet_access": "wlan",
    "internet_access:fee": "no",
    "name": "Tesco",
    "opening_hours": "Mo-Sa 06:00-21:00; Su 08:00-16:00",
    "operator": "TESCO-GLOBAL Áruházak Zrt.",
    "payment:cash": "yes",
    "payment:debit_cards": "yes",
    "ref:vatin:hu": "10307078-2-44",
    "shop": "supermarket",
    "source": "website",
    "source:date": "2018-07-15",
    "url": "http://turistautak.hu/poi.php?id=50561",
    "website": "https://www.tesco.hu/aruhazak/aruhaz/tesco-sarkad-szupermarket",
    "wheelchair": "yes",
    "youtube": "https://www.youtube.com/user/TescoMagyarorszag",
    "id": "node/3485173360"
  },
  "geometry": {
    "type": "Point",
    "coordinates": [
      21.3856999970231,
      46.7464669949439
    ]
  }
},
{
  "type": "Feature",
  "id": "node/3843299091",
  "properties": {
    "timestamp": "2016-01-19T10:45:26Z",
    "version": "3",
    "changeset": "1",
    "user": "KAMI",
    "uid": "4579407",
    "addr:city": "Debrecen",
    "addr:country": "HU",
    "addr:housenumber": "9",
    "addr:postcode": "4225",
    "addr:street": "Szentgyörgyfalvi utca",
    "addr:suburb": "Józsa",
    "branch": "Debrecen Szupermarket",
    "brand": "Tesco",
    "brand:wikidata": "Q487494",
    "brand:wikipedia": "hu:Tesco",
    "facebook": "https://www.facebook.com/tescoaruhazak",
    "import": "osm_poi_matchmaker",
    "internet_access": "wlan",
    "internet_access:fee": "no",
    "name": "Tesco",
    "opening_hours": "Mo-Sa 06:00-21:00; Su 08:00-16:00",
    "operator": "TESCO-GLOBAL Áruházak Zrt.",
    "payment:cash": "yes",
    "payment:debit_cards": "yes",
    "ref:vatin:hu": "10307078-2-44",
    "shop": "supermarket",
    "source": "website",
    "source:date": "2018-07-15",
    "website": "https://www.tesco.hu/aruhazak/aruhaz/tesco-debrecen-szupermarket",
    "wheelchair": "yes",
    "youtube": "https://www.youtube.com/user/TescoMagyarorszag",
    "id": "node/3843299091"
  },
  "geometry": {
    "type": "Point",
    "coordinates": [
      21.5781357969963,
      47.5974897949067
    ]
  }
},
{
  "type": "Feature",
  "id": "node/-3",
  "properties": {
    "timestamp": "",
    "version": "99999",
    "changeset": "99999",
    "user": "KAMI",
    "uid": "4579407",
    "addr:city": "Budapest",
    "addr:country": "HU",
    "addr:housenumber": "9-11",
    "addr:postcode": "1087",
    "addr:street": "Kerepesi utca",
    "branch": "Arena Plaza Hipermarket",
    "brand": "Tesco",
    "brand:wikidata": "Q487494",
    "brand:wikipedia": "hu:Tesco",
    "facebook": "https://www.facebook.com/tescoaruhazak",
    "import": "osm_poi_matchmaker",
    "internet_access": "wlan",
    "internet_access:fee": "no",
    "name": "Tesco",
    "opening_hours": "Mo-Sa 06:00-22:00; Su 07:00-20:00",
    "operator": "TESCO-GLOBAL Áruházak Zrt.",
    "payment:cash": "yes",
    "payment:debit_cards": "yes",
    "ref:vatin:hu": "10307078-2-44",
    "shop": "supermarket",
    "source": "website",
    "source:date": "2018-07-15",
    "website": "https://www.tesco.hu/aruhazak/aruhaz/tesco-arena-plaza-hipermarket",
    "wheelchair": "yes",
    "youtube": "https://www.youtube.com/user/TescoMagyarorszag",
    "id": "node/-3"
  },
  "geometry": {
    "type": "Point",
    "coordinates": [
      19.087589,
      47.499511
    ]
  }
},
{
  "type": "Feature",
  "id": "node/4939175440",
  "properties": {
    "timestamp": "2017-08-07T22:04:56Z",
    "version": "2",
    "changeset": "1",
    "user": "KAMI",
    "uid": "4579407",
    "addr:city": "Budaörs",
    "addr:country": "HU",
    "addr:housenumber": "1",
    "addr:postcode": "2040",
    "addr:street": "Kinizsi út",
    "branch": "Budaörs Hipermarket",
    "brand": "Tesco",
    "brand:wikidata": "Q487494",
    "brand:wikipedia": "hu:Tesco",
    "facebook": "https://www.facebook.com/tescoaruhazak",
    "fixme": "verify",
    "import": "osm_poi_matchmaker",
    "internet_access": "wlan",
    "internet_access:fee": "no",
    "name": "Tesco",
    "opening_hours": "Mo-Su 00:00-24:00",
    "operator": "TESCO-GLOBAL Áruházak Zrt.",
    "payment:cash": "yes",
    "payment:debit_cards": "yes",
    "ref:vatin:hu": "10307078-2-44",
    "shop": "supermarket",
    "source": "website",
    "source:date": "2018-07-15",
    "website": "https://www.tesco.hu/aruhazak/aruhaz/tesco-budaors-hipermarket",
    "wheelchair": "yes",
    "youtube": "https://www.youtube.com/user/TescoMagyarorszag",
    "id": "node/4939175440"
  },
  "geometry": {
    "type": "Point",
    "coordinates": [
      18.9649656973601,
      47.4520744949129
    ]
  }
},
{
  "type": "Feature",
  "id": "node/-20",
  "properties": {
    "timestamp": "",
    "version": "99999",
    "changeset": "99999",
    "user": "KAMI",
    "uid": "4579407",
    "addr:city": "Csorna",
    "addr:country": "HU",
    "addr:housenumber": "3/C",
    "addr:postcode": "9300",
    "addr:street": "Bartók Béla utca",
    "branch": "Csorna Hipermarket",
    "brand": "Tesco",
    "brand:wikidata": "Q487494",
    "brand:wikipedia": "hu:Tesco",
    "facebook": "https://www.facebook.com/tescoaruhazak",
    "import": "osm_poi_matchmaker",
    "internet_access": "wlan",
    "internet_access:fee": "no",
    "name": "Tesco",
    "opening_hours": "Mo-Sa 06:00-22:00; Su 08:00-18:00",
    "operator": "TESCO-GLOBAL Áruházak Zrt.",
    "payment:cash": "yes",
    "payment:debit_cards": "yes",
    "ref:vatin:hu": "10307078-2-44",
    "shop": "supermarket",
    "source": "website",
    "source:date": "2018-07-15",
    "website": "https://www.tesco.hu/aruhazak/aruhaz/tesco-csorna-hipermarket",
    "wheelchair": "yes",
    "youtube": "https://www.youtube.com/user/TescoMagyarorszag",
    "id": "node/-20"
  },
  "geometry": {
    "type": "Point",
    "coordinates": [
      17.24369,
      47.60834
    ]
  }
},
{
  "type": "Feature",
  "id": "node/-31",
  "properties": {
    "timestamp": "",
    "version": "99999",
    "changeset": "99999",
    "user": "KAMI",
    "uid": "4579407",
    "addr:city": "Eger",
    "addr:country": "HU",
    "addr:housenumber": "4",
    "addr:postcode": "3300",
    "addr:street": "Törvényház utca",
    "branch": "Eger-Agria Park Szupermarket",
    "brand": "Tesco",
    "brand:wikidata": "Q487494",
    "brand:wikipedia": "hu:Tesco",
    "facebook": "https://www.facebook.com/tescoaruhazak",
    "import": "osm_poi_matchmaker",
    "internet_access": "wlan",
    "internet_access:fee": "no",
    "name": "Tesco",
    "opening_hours": "Mo-Sa 07:00-22:00; Su 08:00-20:00",
    "operator": "TESCO-GLOBAL Áruházak Zrt.",
    "payment:cash": "yes",
    "payment:debit_cards": "yes",
    "ref:vatin:hu": "10307078-2-44",
    "shop": "supermarket",
    "source": "website",
    "source:date": "2018-07-15",
    "website": "https://www.tesco.hu/aruhazak/aruhaz/tesco-eger-agria-park-szupermarket",
    "wheelchair": "yes",
    "youtube": "https://www.youtube.com/user/TescoMagyarorszag",
    "id": "node/-31"
  },
  "geometry": {
    "type": "Point",
    "coordinates": [
      20.368551,
      47.899073
    ]
  }
},
{
  "type": "Feature",
  "id": "node/-60",
  "properties": {
    "timestamp": "",
    "version": "99999",
    "changeset": "99999",
    "user": "KAMI",
    "uid": "4579407",
    "addr:city": "Kőszeg",
    "addr:country": "HU",
    "addr:housenumber": "7",
    "addr:postcode": "9730",
    "addr:street": "Pogányi út",
    "branch": "Kőszeg Hipermarket",
    "brand": "Tesco",
    "brand:wikidata": "Q487494",
    "brand:wikipedia": "hu:Tesco",
    "facebook": "https://www.facebook.com/tescoaruhazak",
    "import": "osm_poi_matchmaker",
    "internet_access": "wlan",
    "internet_access:fee": "no",
    "name": "Tesco",
    "opening_hours": "Mo-Sa 06:00-22:00; Su 08:00-18:00",
    "operator": "TESCO-GLOBAL Áruházak Zrt.",
    "payment:cash": "yes",
    "payment:debit_cards": "yes",
    "ref:vatin:hu": "10307078-2-44",
    "shop": "supermarket",
    "source": "website",
    "source:date": "2018-07-15",
    "website": "https://www.tesco.hu/aruhazak/aruhaz/tesco-koszeg-hipermarket",
    "wheelchair": "yes",
    "youtube": "https://www.youtube.com/user/TescoMagyarorszag",
    "id": "node/-60"
  },
  "geometry": {
    "type": "Point",
    "coordinates": [
      16.554264,
      47.380164
    ]
  }
},
{
  "type": "Feature",
  "id": "node/-97",
  "properties": {
    "timestamp": "",
    "version": "99999",
    "changeset": "99999",
    "user": "KAMI",
    "uid": "4579407",
    "addr:city": "Sárvár",
    "addr:country": "HU",
    "addr:housenumber": "83",
    "addr:postcode": "9600",
    "addr:street": "Rákóczi utca",
    "branch": "Sárvár Hipermarket",
    "brand": "Tesco",
    "brand:wikidata": "Q487494",
    "brand:wikipedia": "hu:Tesco",
    "facebook": "https://www.facebook.com/tescoaruhazak",
    "import": "osm_poi_matchmaker",
    "internet_access": "wlan",
    "internet_access:fee": "no",
    "name": "Tesco",
    "opening_hours": "Mo-Sa 06:00-22:00; Su 07:00-22:00",
    "operator": "TESCO-GLOBAL Áruházak Zrt.",
    "payment:cash": "yes",
    "payment:debit_cards": "yes",
    "ref:vatin:hu": "10307078-2-44",
    "shop": "supermarket",
    "source": "website",
    "source:date": "2018-07-15",
    "website": "https://www.tesco.hu/aruhazak/aruhaz/tesco-sarvar-hipermarket",
    "wheelchair": "yes",
    "youtube": "https://www.youtube.com/user/TescoMagyarorszag",
    "id": "node/-97"
  },
  "geometry": {
    "type": "Point",
    "coordinates": [
      16.950943,
      47.2479
    ]
  }
},
{
  "type": "Feature",
  "id": "node/-107",
  "properties": {
    "timestamp": "",
    "version": "99999",
    "changeset": "99999",
    "user": "KAMI",
    "uid": "4579407",
    "addr:city": "Szeged",
    "addr:country": "HU",
    "addr:housenumber": "7",
    "addr:postcode": "6725",
    "addr:street": "Szabadkai utca",
    "branch": "Szeged - Móraváros Hipermarket",
    "brand": "Tesco",
    "brand:wikidata": "Q487494",
    "brand:wikipedia": "hu:Tesco",
    "facebook": "https://www.facebook.com/tescoaruhazak",
    "import": "osm_poi_matchmaker",
    "internet_access": "wlan",
    "internet_access:fee": "no",
    "name": "Tesco",
    "opening_hours": "Mo-Sa 06:00-22:00; Su 07:00-20:00",
    "operator": "TESCO-GLOBAL Áruházak Zrt.",
    "payment:cash": "yes",
    "payment:debit_cards": "yes",
    "ref:vatin:hu": "10307078-2-44",
    "shop": "supermarket",
    "source": "website",
    "source:date": "2018-07-15",
    "website": "https://www.tesco.hu/aruhazak/aruhaz/tesco-szeged-moravaros-hipermarket",
    "wheelchair": "yes",
    "youtube": "https://www.youtube.com/user/TescoMagyarorszag",
    "id": "node/-107"
  },
  "geometry": {
    "type": "Point",
    "coordinates": [
      20.120195,
      46.24039
    ]
  }
},
{
  "type": "Feature",
  "id": "node/-114",
  "properties": {
    "timestamp": "",
    "version": "99999",
    "changeset": "99999",
    "user": "KAMI",
    "uid": "4579407",
    "addr:city": "Szerencs",
    "addr:country": "HU",
    "addr:housenumber": "40",
    "addr:postcode": "3900",
    "addr:street": "Gyár utca",
    "branch": "Szerencs Hipermarket",
    "brand": "Tesco",
    "brand:wikidata": "Q487494",
    "brand:wikipedia": "hu:Tesco",
    "facebook": "https://www.facebook.com/tescoaruhazak",
    "import": "osm_poi_matchmaker",
    "internet_access": "wlan",
    "internet_access:fee": "no",
    "name": "Tesco",
    "opening_hours": "Mo-Sa 06:00-22:00; Su 08:00-18:00",
    "operator": "TESCO-GLOBAL Áruházak Zrt.",
    "payment:cash": "yes",
    "payment:debit_cards": "yes",
    "ref:vatin:hu": "10307078-2-44",
    "shop": "supermarket",
    "source": "website",
    "source:date": "2018-07-15",
    "website": "https://www.tesco.hu/aruhazak/aruhaz/tesco-szerencs-hipermarket",
    "wheelchair": "yes",
    "youtube": "https://www.youtube.com/user/TescoMagyarorszag",
    "id": "node/-114"
  },
  "geometry": {
    "type": "Point",
    "coordinates": [
      21.199208,
      48.154679
    ]
  }
},
{
  "type": "Feature",
  "id": "node/4933472305",
  "properties": {
    "timestamp": "2017-09-25T11:00:28Z",
    "version": "3",
    "changeset": "1",
    "user": "KAMI",
    "uid": "4579407",
    "addr:city": "Túrkeve",
    "addr:country": "HU",
    "addr:housenumber": "2",
    "addr:postcode": "5420",
    "addr:street": "Kabai út",
    "branch": "Túrkeve Szupermarket",
    "brand": "Tesco",
    "brand:wikidata": "Q487494",
    "brand:wikipedia": "hu:Tesco",
    "facebook": "https://www.facebook.com/tescoaruhazak",
    "fixme": "verify",
    "import": "osm_poi_matchmaker",
    "internet_access": "wlan",
    "internet_access:fee": "no",
    "name": "Tesco",
    "opening_hours": "Mo-Sa 06:00-21:00; Su 08:00-16:00",
    "operator": "TESCO-GLOBAL Áruházak Zrt.",
    "payment:cash": "yes",
    "payment:debit_cards": "yes",
    "ref:vatin:hu": "10307078-2-44",
    "shop": "supermarket",
    "source": "website",
    "source:date": "2018-07-15",
    "toilets:wheelchair": "no",
    "website": "https://www.tesco.hu/aruhazak/aruhaz/tesco-turkeve-szupermarket",
    "wheelchair": "yes",
    "youtube": "https://www.youtube.com/user/TescoMagyarorszag",
    "id": "node/4933472305"
  },
  "geometry": {
    "type": "Point",
    "coordinates": [
      20.7344073971137,
      47.1100347949277
    ]
  }
}
]
}
