{
"type": "FeatureCollection",
"features": [
{
  "type": "Feature",
  "id": "node/600390561",
  "properties": {
    "timestamp": "2017-09-11T13:49:16Z",
    "version": "4",
    "changeset": "1",
    "user": "KAMI",
    "uid": "4579407",
    "addr:city": "Budapest",
    "addr:country": "HU",
    "addr:housenumber": "9-11",
    "addr:postcode": "1039",
    "addr:street": "Madzsar József utca",
    "branch": "Expressz Bp. - Madzsar József utca",
    "brand": "Tesco",
    "brand:wikidata": "Q487494",
    "brand:wikipedia": "hu:Tesco",
    "facebook": "https://www.facebook.com/tescoaruhazak/",
    "import": "osm_poi_matchmaker",
    "internet_access": "wlan",
    "internet_access:fee": "no",
    "name": "Tesco Expressz",
    "opening_hours": "Mo-Sa 06:00-21:00; Su 07:00-18:00",
    "operator": "TESCO-GLOBAL Áruházak Zrt.",
    "payment:cash": "yes",
    "payment:debit_cards": "yes",
    "ref:vatin:hu": "10307078-2-44",
    "shop": "convenience",
    "source": "website",
    "source:date": "2018-07-15",
    "website": "https://www.tesco.hu/aruhazak/aruhaz/tesco-expressz-bp-madzsar-jozsef-utca",
    "wheelchair": "yes",
    "wheelchair:description": "nincs mozgássérültek számára kialakított mellékhelyiség",
    "youtube": "https://www.youtube.com/user/TescoMagyarorszag",
    "id": "node/600390561"
  },
  "geometry": {
    "type": "Point",
    "coordinates": [
      19.058782497347,
      47.6014997949066
    ]
  }
},
{
  "type": "Feature",
  "id": "node/603594037",
  "properties": {
    "timestamp": "2017-12-17T16:58:06Z",
    "version": "8",
    "changeset": "1",
    "user": "KAMI",
    "uid": "4579407",
    "addr:city": "Budapest",
    "addr:country": "HU",
    "addr:housenumber": "70",
    "addr:postcode": "1188",
    "addr:street": "Kisfaludy utca",
    "branch": "Expressz Bp. - Kisfaludy utca",
    "brand": "Tesco",
    "brand:wikidata": "Q487494",
    "brand:wikipedia": "hu:Tesco",
    "facebook": "https://www.facebook.com/tescoaruhazak/",
    "import": "osm_poi_matchmaker",
    "internet_access": "wlan",
    "internet_access:fee": "no",
    "name": "Tesco Expressz",
    "opening_hours": "Mo-Sa 07:00-21:00; Su 00:00-00:00",
    "operator": "TESCO-GLOBAL Áruházak Zrt.",
    "payment:cash": "yes",
    "payment:debit_cards": "yes",
    "ref:vatin:hu": "10307078-2-44",
    "shop": "convenience",
    "source": "website",
    "source:date": "2018-07-15",
    "website": "https://www.tesco.hu/aruhazak/aruhaz/tesco-expressz-bp-kisfaludy-utca",
    "wheelchair": "yes",
    "youtube": "https://www.youtube.com/user/TescoMagyarorszag",
    "id": "node/603594037"
  },
  "geometry": {
    "type": "Point",
    "coordinates": [
      19.1930216973283,
      47.4085499949147
    ]
  }
},
{
  "type": "Feature",
  "id": "node/613359560",
  "properties": {
    "timestamp": "2016-07-28T13:28:20Z",
    "version": "5",
    "changeset": "1",
    "user": "KAMI",
    "uid": "4579407",
    "addr:city": "Budapest",
    "addr:country": "HU",
    "addr:housenumber": "115",
    "addr:postcode": "1213",
    "addr:street": "Szent László út",
    "branch": "Expressz Bp. - Szent László út",
    "brand": "Tesco",
    "brand:wikidata": "Q487494",
    "brand:wikipedia": "hu:Tesco",
    "facebook": "https://www.facebook.com/tescoaruhazak/",
    "import": "osm_poi_matchmaker",
    "internet_access": "wlan",
    "internet_access:fee": "no",
    "name": "Tesco Expressz",
    "opening_hours": "Mo-Sa 07:00-21:00; Su 08:00-16:00",
    "operator": "TESCO-GLOBAL Áruházak Zrt.",
    "payment:cash": "yes",
    "payment:debit_cards": "yes",
    "ref:vatin:hu": "10307078-2-44",
    "shop": "convenience",
    "source": "website",
    "source:date": "2018-07-15",
    "website": "https://www.tesco.hu/aruhazak/aruhaz/tesco-expressz-bp-szent-laszlo-ut",
    "youtube": "https://www.youtube.com/user/TescoMagyarorszag",
    "id": "node/613359560"
  },
  "geometry": {
    "type": "Point",
    "coordinates": [
      19.0794750973441,
      47.4073085949148
    ]
  }
},
{
  "type": "Feature",
  "id": "node/856442310",
  "properties": {
    "timestamp": "2018-05-10T05:29:38Z",
    "version": "9",
    "changeset": "1",
    "user": "KAMI",
    "uid": "4579407",
    "addr:city": "Budapest",
    "addr:country": "HU",
    "addr:housenumber": "20",
    "addr:postcode": "1088",
    "addr:street": "Rákóczi út",
    "branch": "Expressz Bp. - Rákóczi út",
    "brand": "Tesco",
    "brand:wikidata": "Q487494",
    "brand:wikipedia": "hu:Tesco",
    "facebook": "https://www.facebook.com/tescoaruhazak/",
    "import": "osm_poi_matchmaker",
    "internet_access": "wlan",
    "internet_access:fee": "no",
    "name": "Tesco Expressz",
    "name:en": "Tesco Express",
    "opening_hours": "Mo-Sa 07:00-22:00; Su 08:00-16:00",
    "operator": "TESCO-GLOBAL Áruházak Zrt.",
    "payment:cash": "yes",
    "payment:debit_cards": "yes",
    "ref:vatin:hu": "10307078-2-44",
    "shop": "convenience",
    "source": "website",
    "source:date": "2018-07-15",
    "website": "https://www.tesco.hu/aruhazak/aruhaz/tesco-expressz-bp-rakoczi-ut",
    "wheelchair": "yes",
    "youtube": "https://www.youtube.com/user/TescoMagyarorszag",
    "id": "node/856442310"
  },
  "geometry": {
    "type": "Point",
    "coordinates": [
      19.0646239973462,
      47.495659594911
    ]
  }
},
{
  "type": "Feature",
  "id": "node/930054557",
  "properties": {
    "timestamp": "2017-09-24T06:44:46Z",
    "version": "9",
    "changeset": "1",
    "user": "KAMI",
    "uid": "4579407",
    "addr:city": "Budapest",
    "addr:country": "HU",
    "addr:housenumber": "105-113",
    "addr:postcode": "1115",
    "addr:street": "Bartók Béla utca",
    "branch": "Expressz Bp. - Bartók Béla utca",
    "brand": "Tesco",
    "brand:wikidata": "Q487494",
    "brand:wikipedia": "hu:Tesco",
    "facebook": "https://www.facebook.com/tescoaruhazak/",
    "import": "osm_poi_matchmaker",
    "internet_access": "wlan",
    "internet_access:fee": "no",
    "name": "Tesco Expressz",
    "name:pl": "Tesco Express",
    "opening_hours": "Mo-Sa 07:00-22:00; Su 08:00-16:00",
    "operator": "TESCO-GLOBAL Áruházak Zrt.",
    "payment:cash": "yes",
    "payment:debit_cards": "yes",
    "ref:vatin:hu": "10307078-2-44",
    "shop": "convenience",
    "source": "website",
    "source:date": "2018-07-15",
    "website": "https://www.tesco.hu/aruhazak/aruhaz/tesco-expressz-bp-bartok-bela-utca",
    "wheelchair": "limited",
    "wheelchair:description": "nincs mozgássérültek számára kialakított mellékhelyiség",
    "youtube": "https://www.youtube.com/user/TescoMagyarorszag",
    "id": "node/930054557"
  },
  "geometry": {
    "type": "Point",
    "coordinates": [
      19.0320138973507,
      47.472479894912
    ]
  }
},
{
  "type": "Feature",
  "id": "node/974419451",
  "properties": {
    "timestamp": "2016-11-05T20:30:07Z",
    "version": "5",
    "changeset": "1",
    "user": "KAMI",
    "uid": "4579407",
    "addr:city": "Budapest",
    "addr:country": "HU",
    "addr:housenumber": "125",
    "addr:postcode": "1142",
    "addr:street": "Erzsébet királyné útja",
    "branch": "Expressz Bp. - Erzsébet Királyné útja",
    "brand": "Tesco",
    "brand:wikidata": "Q487494",
    "brand:wikipedia": "hu:Tesco",
    "facebook": "https://www.facebook.com/tescoaruhazak/",
    "import": "osm_poi_matchmaker",
    "internet_access": "wlan",
    "internet_access:fee": "no",
    "name": "Tesco Expressz",
    "opening_hours": "Mo-Sa 06:00-22:00; Su 07:00-18:00",
    "operator": "TESCO-GLOBAL Áruházak Zrt.",
    "payment:cash": "yes",
    "payment:debit_cards": "yes",
    "ref:vatin:hu": "10307078-2-44",
    "shop": "convenience",
    "source": "website",
    "source:date": "2018-07-15",
    "website": "https://www.tesco.hu/aruhazak/aruhaz/tesco-expressz-bp-erzsebet-kiralyne-utja",
    "wheelchair": "yes",
    "youtube": "https://www.youtube.com/user/TescoMagyarorszag",
    "id": "node/974419451"
  },
  "geometry": {
    "type": "Point",
    "coordinates": [
      19.1133282973394,
      47.5344607949094
    ]
  }
},
{
  "type": "Feature",
  "id": "node/1202347665",
  "properties": {
    "timestamp": "2017-09-12T11:56:03Z",
    "version": "6",
    "changeset": "1",
    "user": "KAMI",
    "uid": "4579407",
    "addr:city": "Budapest",
    "addr:country": "HU",
    "addr:housenumber": "2",
    "addr:postcode": "1119",
    "addr:street": "Andor utca",
    "branch": "Expressz Bp. - Andor utca",
    "brand": "Tesco",
    "brand:wikidata": "Q487494",
    "brand:wikipedia": "hu:Tesco",
    "facebook": "https://www.facebook.com/tescoaruhazak/",
    "import": "osm_poi_matchmaker",
    "internet_access": "wlan",
    "internet_access:fee": "no",
    "name": "Tesco Expressz",
    "opening_hours": "Mo-Sa 06:00-22:00; Su 07:00-18:00",
    "operator": "TESCO-GLOBAL Áruházak Zrt.",
    "payment:cash": "yes",
    "payment:debit_cards": "yes",
    "ref:vatin:hu": "10307078-2-44",
    "shop": "convenience",
    "source": "website",
    "source:date": "2018-07-15",
    "website": "https://www.tesco.hu/aruhazak/aruhaz/tesco-expressz-bp-andor-utca",
    "wheelchair": "yes",
    "wheelchair:description": "nincs mozgássérültek számára kialakított mellékhelyiség\n",
    "youtube": "https://www.youtube.com/user/TescoMagyarorszag",
    "id": "node/1202347665"
  },
  "geometry": {
    "type": "Point",
    "coordinates": [
      19.0387653973498,
      47.4558212949127
    ]
  }
},
{
  "type": "Feature",
  "id": "node/1232504673",
  "properties": {
    "timestamp": "2015-11-19T10:33:01Z",
    "version": "3",
    "changeset": "1",
    "user": "KAMI",
    "uid": "4579407",
    "addr:city": "Budapest",
    "addr:country": "HU",
    "addr:housenumber": "132",
    "addr:postcode": "1131",
    "addr:street": "Reitter Ferenc utca",
    "branch": "Expressz Bp. - Reitter Ferenc utca",
    "brand": "Tesco",
    "brand:wikidata": "Q487494",
    "brand:wikipedia": "hu:Tesco",
    "facebook": "https://www.facebook.com/tescoaruhazak/",
    "import": "osm_poi_matchmaker",
    "internet_access": "wlan",
    "internet_access:fee": "no",
    "name": "Tesco Expressz",
    "opening_hours": "Mo-Sa 06:00-22:00; Su 08:00-16:00",
    "operator": "TESCO-GLOBAL Áruházak Zrt.",
    "payment:cash": "yes",
    "payment:debit_cards": "yes",
    "ref:vatin:hu": "10307078-2-44",
    "shop": "convenience",
    "source": "website",
    "source:date": "2018-07-15",
    "website": "https://www.tesco.hu/aruhazak/aruhaz/tesco-expressz-bp-reitter-ferenc-utca",
    "wheelchair": "yes",
    "youtube": "https://www.youtube.com/user/TescoMagyarorszag",
    "id": "node/1232504673"
  },
  "geometry": {
    "type": "Point",
    "coordinates": [
      19.0907531973425,
      47.5403182949091
    ]
  }
},
{
  "type": "Feature",
  "id": "node/1243092890",
  "properties": {
    "timestamp": "2015-10-24T10:15:22Z",
    "version": "2",
    "changeset": "1",
    "user": "KAMI",
    "uid": "4579407",
    "addr:city": "Budapest",
    "addr:country": "HU",
    "addr:housenumber": "1-2",
    "addr:postcode": "1039",
    "addr:street": "Pablo Neruda utca",
    "branch": "Expressz Bp. - Pablo Neruda utca",
    "brand": "Tesco",
    "brand:wikidata": "Q487494",
    "brand:wikipedia": "hu:Tesco",
    "facebook": "https://www.facebook.com/tescoaruhazak/",
    "import": "osm_poi_matchmaker",
    "internet_access": "wlan",
    "internet_access:fee": "no",
    "name": "Tesco Expressz",
    "opening_hours": "Mo-Sa 06:00-21:00; Su 07:00-18:00",
    "operator": "TESCO-GLOBAL Áruházak Zrt.",
    "payment:cash": "yes",
    "payment:debit_cards": "yes",
    "ref:vatin:hu": "10307078-2-44",
    "shop": "convenience",
    "source": "website",
    "source:date": "2018-07-15",
    "website": "https://www.tesco.hu/aruhazak/aruhaz/tesco-expressz-bp-pablo-neruda-utca",
    "wheelchair": "yes",
    "youtube": "https://www.youtube.com/user/TescoMagyarorszag",
    "id": "node/1243092890"
  },
  "geometry": {
    "type": "Point",
    "coordinates": [
      19.0496602973483,
      47.5968238949068
    ]
  }
},
{
  "type": "Feature",
  "id": "node/1243306114",
  "properties": {
    "timestamp": "2016-08-27T18:29:23Z",
    "version": "2",
    "changeset": "1",
    "user": "KAMI",
    "uid": "4579407",
    "addr:city": "Balatonföldvár",
    "addr:country": "HU",
    "addr:housenumber": "1",
    "addr:postcode": "8623",
    "addr:street": "Budapesti út",
    "branch": "Expressz Balatonföldvár - Budapesti út",
    "brand": "Tesco",
    "brand:wikidata": "Q487494",
    "brand:wikipedia": "hu:Tesco",
    "facebook": "https://www.facebook.com/tescoaruhazak/",
    "import": "osm_poi_matchmaker",
    "internet_access": "wlan",
    "internet_access:fee": "no",
    "name": "Tesco Expressz",
    "opening_hours": "Mo-Su 06:00-22:00",
    "operator": "TESCO-GLOBAL Áruházak Zrt.",
    "payment:cash": "yes",
    "payment:debit_cards": "yes",
    "ref:vatin:hu": "10307078-2-44",
    "shop": "convenience",
    "source": "website",
    "source:date": "2018-07-15",
    "website": "https://www.tesco.hu/aruhazak/aruhaz/tesco-expressz-balatonfoldvar-budapesti-ut",
    "youtube": "https://www.youtube.com/user/TescoMagyarorszag",
    "id": "node/1243306114"
  },
  "geometry": {
    "type": "Point",
    "coordinates": [
      17.8799189975111,
      46.8492877949392
    ]
  }
},
{
  "type": "Feature",
  "id": "node/1349471996",
  "properties": {
    "timestamp": "2015-11-20T21:40:02Z",
    "version": "3",
    "changeset": "1",
    "user": "KAMI",
    "uid": "4579407",
    "addr:city": "Miskolc",
    "addr:country": "HU",
    "addr:housenumber": "29",
    "addr:postcode": "3525",
    "addr:street": "Széchenyi utca",
    "branch": "Expressz Miskolc - Széchenyi utca",
    "brand": "Tesco",
    "brand:wikidata": "Q487494",
    "brand:wikipedia": "hu:Tesco",
    "facebook": "https://www.facebook.com/tescoaruhazak/",
    "import": "osm_poi_matchmaker",
    "internet_access": "wlan",
    "internet_access:fee": "no",
    "name": "Tesco Expressz",
    "opening_hours": "Mo-Sa 06:00-22:00; Su 08:00-16:00",
    "operator": "TESCO-GLOBAL Áruházak Zrt.",
    "payment:cash": "yes",
    "payment:debit_cards": "yes",
    "ref:vatin:hu": "10307078-2-44",
    "shop": "convenience",
    "source": "website",
    "source:date": "2018-07-15",
    "website": "https://www.tesco.hu/aruhazak/aruhaz/tesco-expressz-miskolc-szechenyi-utca",
    "wheelchair": "yes",
    "youtube": "https://www.youtube.com/user/TescoMagyarorszag",
    "id": "node/1349471996"
  },
  "geometry": {
    "type": "Point",
    "coordinates": [
      20.7848259971067,
      48.1026634948861
    ]
  }
},
{
  "type": "Feature",
  "id": "node/1398794949",
  "properties": {
    "timestamp": "2015-04-23T03:23:03Z",
    "version": "6",
    "changeset": "1",
    "user": "KAMI",
    "uid": "4579407",
    "addr:city": "Budapest",
    "addr:country": "HU",
    "addr:housenumber": "6",
    "addr:postcode": "1153",
    "addr:street": "Hubay Jenő tér",
    "branch": "Expressz Bp. - Hubay Jenő tér",
    "brand": "Tesco",
    "brand:wikidata": "Q487494",
    "brand:wikipedia": "hu:Tesco",
    "facebook": "https://www.facebook.com/tescoaruhazak/",
    "import": "osm_poi_matchmaker",
    "internet_access": "wlan",
    "internet_access:fee": "no",
    "name": "Tesco Expressz",
    "opening_hours": "Mo-Sa 06:00-22:00; Su 00:00-00:00",
    "operator": "TESCO-GLOBAL Áruházak Zrt.",
    "payment:cash": "yes",
    "payment:debit_cards": "yes",
    "ref:vatin:hu": "10307078-2-44",
    "shop": "convenience",
    "source": "website",
    "source:date": "2018-07-15",
    "website": "https://www.tesco.hu/aruhazak/aruhaz/tesco-expressz-bp-hubay-jeno-ter",
    "youtube": "https://www.youtube.com/user/TescoMagyarorszag",
    "id": "node/1398794949"
  },
  "geometry": {
    "type": "Point",
    "coordinates": [
      19.1156616973391,
      47.5627729949082
    ]
  }
},
{
  "type": "Feature",
  "id": "node/1406975311",
  "properties": {
    "timestamp": "2017-09-27T07:26:29Z",
    "version": "5",
    "changeset": "1",
    "user": "KAMI",
    "uid": "4579407",
    "addr:city": "Sopron",
    "addr:country": "HU",
    "addr:housenumber": "9",
    "addr:postcode": "9400",
    "addr:street": "Végfordulat utca",
    "branch": "Expressz Sopron - Végfordulat utca",
    "brand": "Tesco",
    "brand:wikidata": "Q487494",
    "brand:wikipedia": "hu:Tesco",
    "facebook": "https://www.facebook.com/tescoaruhazak/",
    "import": "osm_poi_matchmaker",
    "internet_access": "wlan",
    "internet_access:fee": "no",
    "name": "Tesco Expressz",
    "opening_hours": "Mo-Sa 07:00-21:00; Su 00:00-00:00",
    "operator": "TESCO-GLOBAL Áruházak Zrt.",
    "payment:cash": "yes",
    "payment:debit_cards": "yes",
    "ref:vatin:hu": "10307078-2-44",
    "shop": "convenience",
    "source": "website",
    "source:date": "2018-07-15",
    "website": "https://www.tesco.hu/aruhazak/aruhaz/tesco-expressz-sopron-vegfordulat-utca",
    "wheelchair": "limited",
    "youtube": "https://www.youtube.com/user/TescoMagyarorszag",
    "id": "node/1406975311"
  },
  "geometry": {
    "type": "Point",
    "coordinates": [
      16.5981705976895,
      47.6851303949031
    ]
  }
},
{
  "type": "Feature",
  "id": "node/1442528046",
  "properties": {
    "timestamp": "2017-09-11T12:49:04Z",
    "version": "4",
    "changeset": "1",
    "user": "KAMI",
    "uid": "4579407",
    "addr:city": "Sopron",
    "addr:country": "HU",
    "addr:housenumber": "8",
    "addr:postcode": "9400",
    "addr:street": "Hátsókapu. utca",
    "branch": "Expressz Sopron - Hátsókapu utca",
    "brand": "Tesco",
    "brand:wikidata": "Q487494",
    "brand:wikipedia": "hu:Tesco",
    "facebook": "https://www.facebook.com/tescoaruhazak/",
    "import": "osm_poi_matchmaker",
    "internet_access": "wlan",
    "internet_access:fee": "no",
    "name": "Tesco Expressz",
    "opening_hours": "Mo-Sa 06:00-21:00; Su 08:00-16:00",
    "operator": "TESCO-GLOBAL Áruházak Zrt.",
    "payment:cash": "yes",
    "payment:debit_cards": "yes",
    "ref:vatin:hu": "10307078-2-44",
    "shop": "convenience",
    "source": "website",
    "source:date": "2018-07-15",
    "website": "https://www.tesco.hu/aruhazak/aruhaz/tesco-expressz-sopron-hatsokapu-utca",
    "wheelchair": "yes",
    "youtube": "https://www.youtube.com/user/TescoMagyarorszag",
    "id": "node/1442528046"
  },
  "geometry": {
    "type": "Point",
    "coordinates": [
      16.5914487976905,
      47.6832956949032
    ]
  }
},
{
  "type": "Feature",
  "id": "node/1880546349",
  "properties": {
    "timestamp": "2012-08-24T09:55:38Z",
    "version": "1",
    "changeset": "1",
    "user": "KAMI",
    "uid": "4579407",
    "addr:city": "Siófok",
    "addr:country": "HU",
    "addr:housenumber": "20",
    "addr:postcode": "8600",
    "addr:street": "Dózsa György utca",
    "branch": "Expressz Siófok-Dózsa György utca",
    "brand": "Tesco",
    "brand:wikidata": "Q487494",
    "brand:wikipedia": "hu:Tesco",
    "facebook": "https://www.facebook.com/tescoaruhazak/",
    "import": "osm_poi_matchmaker",
    "internet_access": "wlan",
    "internet_access:fee": "no",
    "name": "Tesco Expressz",
    "opening_hours": "Mo-Su 06:00-22:00",
    "operator": "TESCO-GLOBAL Áruházak Zrt.",
    "payment:cash": "yes",
    "payment:debit_cards": "yes",
    "ref:vatin:hu": "10307078-2-44",
    "shop": "convenience",
    "source": "website",
    "source:date": "2018-07-15",
    "website": "https://www.tesco.hu/aruhazak/aruhaz/tesco-expressz-siofok-dozsa-gyorgy-utca",
    "youtube": "https://www.youtube.com/user/TescoMagyarorszag",
    "id": "node/1880546349"
  },
  "geometry": {
    "type": "Point",
    "coordinates": [
      18.0612310974859,
      46.9076669949366
    ]
  }
},
{
  "type": "Feature",
  "id": "node/1985469546",
  "properties": {
    "timestamp": "2017-09-13T08:47:38Z",
    "version": "6",
    "changeset": "1",
    "user": "KAMI",
    "uid": "4579407",
    "addr:city": "Budapest",
    "addr:country": "HU",
    "addr:housenumber": "70",
    "addr:postcode": "1211",
    "addr:street": "Kossuth Lajos utca",
    "branch": "Expressz Bp. - Kossuth Lajos utca",
    "brand": "Tesco",
    "brand:wikidata": "Q487494",
    "brand:wikipedia": "hu:Tesco",
    "facebook": "https://www.facebook.com/tescoaruhazak/",
    "import": "osm_poi_matchmaker",
    "internet_access": "wlan",
    "internet_access:fee": "no",
    "name": "Tesco Expressz",
    "opening_hours": "Mo-Sa 07:00-22:00; Su 08:00-16:00",
    "operator": "TESCO-GLOBAL Áruházak Zrt.",
    "payment:cash": "yes",
    "payment:debit_cards": "yes",
    "ref:vatin:hu": "10307078-2-44",
    "shop": "convenience",
    "source": "website",
    "source:date": "2018-07-15",
    "toilets:wheelchair": "no",
    "website": "https://www.tesco.hu/aruhazak/aruhaz/tesco-expressz-bp-kossuth-lajos-utca",
    "wheelchair": "yes",
    "youtube": "https://www.youtube.com/user/TescoMagyarorszag",
    "id": "node/1985469546"
  },
  "geometry": {
    "type": "Point",
    "coordinates": [
      19.0704930973454,
      47.4281920949139
    ]
  }
},
{
  "type": "Feature",
  "id": "node/2157559535",
  "properties": {
    "timestamp": "2017-09-20T05:21:27Z",
    "version": "8",
    "changeset": "1",
    "user": "KAMI",
    "uid": "4579407",
    "addr:city": "Budapest",
    "addr:country": "HU",
    "addr:housenumber": "1",
    "addr:postcode": "1071",
    "addr:street": "Bajza utca",
    "branch": "Expressz Bp. - Bajza utca",
    "brand": "Tesco",
    "brand:wikidata": "Q487494",
    "brand:wikipedia": "hu:Tesco",
    "facebook": "https://www.facebook.com/tescoaruhazak/",
    "import": "osm_poi_matchmaker",
    "internet_access": "wlan",
    "internet_access:fee": "no",
    "name": "Tesco Expressz",
    "opening_hours": "Mo-Sa 07:00-21:00; Su 00:00-00:00",
    "operator": "TESCO-GLOBAL Áruházak Zrt.",
    "payment:cash": "yes",
    "payment:debit_cards": "yes",
    "phone": "+36 20 827 0000",
    "ref:vatin:hu": "10307078-2-44",
    "shop": "convenience",
    "source": "website",
    "source:date": "2018-07-15",
    "website": "https://www.tesco.hu/aruhazak/aruhaz/tesco-expressz-bp-bajza-utca",
    "wheelchair": "limited",
    "youtube": "https://www.youtube.com/user/TescoMagyarorszag",
    "id": "node/2157559535"
  },
  "geometry": {
    "type": "Point",
    "coordinates": [
      19.0764105973445,
      47.5075835949105
    ]
  }
},
{
  "type": "Feature",
  "id": "node/2296466496",
  "properties": {
    "timestamp": "2017-09-11T09:23:15Z",
    "version": "8",
    "changeset": "1",
    "user": "KAMI",
    "uid": "4579407",
    "addr:city": "Budapest",
    "addr:country": "HU",
    "addr:housenumber": "7",
    "addr:postcode": "1092",
    "addr:street": "Kálvin tér",
    "branch": "Expressz Bp. - Kálvin tér",
    "brand": "Tesco",
    "brand:wikidata": "Q487494",
    "brand:wikipedia": "hu:Tesco",
    "facebook": "https://www.facebook.com/tescoaruhazak/",
    "import": "osm_poi_matchmaker",
    "internet_access": "wlan",
    "internet_access:fee": "no",
    "name": "Tesco Expressz",
    "opening_hours": "Mo-Su 05:00-23:00",
    "operator": "TESCO-GLOBAL Áruházak Zrt.",
    "payment:cash": "yes",
    "payment:debit_cards": "yes",
    "ref:vatin:hu": "10307078-2-44",
    "shop": "convenience",
    "source": "website",
    "source:date": "2018-07-15",
    "toilets:wheelchair": "no",
    "website": "https://www.tesco.hu/aruhazak/aruhaz/tesco-expressz-bp-kalvin-ter",
    "wheelchair": "yes",
    "youtube": "https://www.youtube.com/user/TescoMagyarorszag",
    "id": "node/2296466496"
  },
  "geometry": {
    "type": "Point",
    "coordinates": [
      19.0608772973467,
      47.4882926949113
    ]
  }
},
{
  "type": "Feature",
  "id": "node/2296479433",
  "properties": {
    "timestamp": "2018-06-17T07:41:56Z",
    "version": "9",
    "changeset": "1",
    "user": "KAMI",
    "uid": "4579407",
    "addr:city": "Budapest",
    "addr:country": "HU",
    "addr:housenumber": "1-3",
    "addr:postcode": "1072",
    "addr:street": "Rákóczi út",
    "branch": "Astoria Expressz",
    "brand": "Tesco",
    "brand:wikidata": "Q487494",
    "brand:wikipedia": "hu:Tesco",
    "facebook": "https://www.facebook.com/tescoaruhazak/",
    "import": "osm_poi_matchmaker",
    "internet_access": "wlan",
    "internet_access:fee": "no",
    "name": "Tesco Expressz",
    "opening_hours": "Mo-Sa 06:00-22:00; Su 08:00-20:00",
    "operator": "TESCO-GLOBAL Áruházak Zrt.",
    "payment:cash": "yes",
    "payment:debit_cards": "yes",
    "ref:vatin:hu": "10307078-2-44",
    "shop": "convenience",
    "source": "website",
    "source:date": "2018-07-15",
    "toilets:wheelchair": "no",
    "website": "https://www.tesco.hu/aruhazak/aruhaz/tesco-astoria-expressz",
    "wheelchair": "yes",
    "youtube": "https://www.youtube.com/user/TescoMagyarorszag",
    "id": "node/2296479433"
  },
  "geometry": {
    "type": "Point",
    "coordinates": [
      19.0611358973467,
      47.4943601949111
    ]
  }
},
{
  "type": "Feature",
  "id": "node/2351067330",
  "properties": {
    "timestamp": "2017-10-03T12:15:01Z",
    "version": "2",
    "changeset": "1",
    "user": "KAMI",
    "uid": "4579407",
    "addr:city": "Budapest",
    "addr:country": "HU",
    "addr:housenumber": "72",
    "addr:postcode": "1028",
    "addr:street": "Máriaremetei út",
    "branch": "Express Bp. - Máriaremetei út",
    "brand": "Tesco",
    "brand:wikidata": "Q487494",
    "brand:wikipedia": "hu:Tesco",
    "facebook": "https://www.facebook.com/tescoaruhazak/",
    "import": "osm_poi_matchmaker",
    "internet_access": "wlan",
    "internet_access:fee": "no",
    "name": "Tesco Expressz",
    "opening_hours": "Mo-Sa 07:00-22:00; Su 07:00-18:00",
    "operator": "TESCO-GLOBAL Áruházak Zrt.",
    "payment:cash": "yes",
    "payment:debit_cards": "yes",
    "ref:vatin:hu": "10307078-2-44",
    "shop": "convenience",
    "source": "website",
    "source:date": "2018-07-15",
    "website": "https://www.tesco.hu/aruhazak/aruhaz/tesco-express-bp-mariaremetei-ut",
    "wheelchair": "limited",
    "youtube": "https://www.youtube.com/user/TescoMagyarorszag",
    "id": "node/2351067330"
  },
  "geometry": {
    "type": "Point",
    "coordinates": [
      18.9538430973616,
      47.5480358949088
    ]
  }
},
{
  "type": "Feature",
  "id": "node/2351067332",
  "properties": {
    "timestamp": "2017-10-02T16:02:49Z",
    "version": "4",
    "changeset": "1",
    "user": "KAMI",
    "uid": "4579407",
    "addr:city": "Budapest",
    "addr:country": "HU",
    "addr:housenumber": "22",
    "addr:postcode": "1028",
    "addr:street": "Galóca utca",
    "branch": "Expressz Bp. - Galóca utca",
    "brand": "Tesco",
    "brand:wikidata": "Q487494",
    "brand:wikipedia": "hu:Tesco",
    "facebook": "https://www.facebook.com/tescoaruhazak/",
    "import": "osm_poi_matchmaker",
    "internet_access": "wlan",
    "internet_access:fee": "no",
    "name": "Tesco Expressz",
    "opening_hours": "Mo-Sa 07:00-22:00; Su 08:00-16:00",
    "operator": "TESCO-GLOBAL Áruházak Zrt.",
    "payment:cash": "yes",
    "payment:debit_cards": "yes",
    "ref:vatin:hu": "10307078-2-44",
    "shop": "convenience",
    "source": "website",
    "source:date": "2018-07-15",
    "website": "https://www.tesco.hu/aruhazak/aruhaz/tesco-expressz-bp-galoca-utca",
    "wheelchair": "yes",
    "youtube": "https://www.youtube.com/user/TescoMagyarorszag",
    "id": "node/2351067332"
  },
  "geometry": {
    "type": "Point",
    "coordinates": [
      18.9643141973601,
      47.5515760949087
    ]
  }
},
{
  "type": "Feature",
  "id": "node/2420796265",
  "properties": {
    "timestamp": "2016-03-20T12:45:41Z",
    "version": "4",
    "changeset": "1",
    "user": "KAMI",
    "uid": "4579407",
    "addr:city": "Budapest",
    "addr:country": "HU",
    "addr:housenumber": "4",
    "addr:postcode": "1036",
    "addr:street": "Kolosy tér",
    "branch": "Expressz Bp. - Kolosy tér",
    "brand": "Tesco",
    "brand:wikidata": "Q487494",
    "brand:wikipedia": "hu:Tesco",
    "facebook": "https://www.facebook.com/tescoaruhazak/",
    "import": "osm_poi_matchmaker",
    "internet_access": "wlan",
    "internet_access:fee": "no",
    "name": "Tesco Expressz",
    "opening_hours": "Mo-Sa 06:00-22:00; Su 08:00-20:00",
    "operator": "TESCO-GLOBAL Áruházak Zrt.",
    "payment:cash": "yes",
    "payment:debit_cards": "yes",
    "ref:vatin:hu": "10307078-2-44",
    "shop": "convenience",
    "source": "website",
    "source:date": "2018-07-15",
    "website": "https://www.tesco.hu/aruhazak/aruhaz/tesco-expressz-bp-kolosy-ter",
    "wheelchair": "limited",
    "youtube": "https://www.youtube.com/user/TescoMagyarorszag",
    "id": "node/2420796265"
  },
  "geometry": {
    "type": "Point",
    "coordinates": [
      19.0380342973499,
      47.5280446949097
    ]
  }
},
{
  "type": "Feature",
  "id": "node/2433857106",
  "properties": {
    "timestamp": "2018-06-19T12:54:44Z",
    "version": "4",
    "changeset": "1",
    "user": "KAMI",
    "uid": "4579407",
    "addr:city": "Szeged",
    "addr:country": "HU",
    "addr:housenumber": "41",
    "addr:postcode": "6722",
    "addr:street": "Tisza Lajos körút",
    "branch": "Expressz Szeged - Tisza Lajos krt. ",
    "brand": "Tesco",
    "brand:wikidata": "Q487494",
    "brand:wikipedia": "hu:Tesco",
    "facebook": "https://www.facebook.com/tescoaruhazak/",
    "import": "osm_poi_matchmaker",
    "internet_access": "wlan",
    "internet_access:fee": "no",
    "name": "Tesco Expressz",
    "opening_hours": "Mo-Su 05:00-23:00",
    "operator": "TESCO-GLOBAL Áruházak Zrt.",
    "payment:cash": "yes",
    "payment:debit_cards": "yes",
    "ref:vatin:hu": "10307078-2-44",
    "shop": "convenience",
    "source": "website",
    "source:date": "2018-07-15",
    "website": "https://www.tesco.hu/aruhazak/aruhaz/tesco-expressz-szeged-tisza-lajos-krt",
    "wheelchair": "no",
    "youtube": "https://www.youtube.com/user/TescoMagyarorszag",
    "id": "node/2433857106"
  },
  "geometry": {
    "type": "Point",
    "coordinates": [
      20.1473916971955,
      46.2561393949666
    ]
  }
},
{
  "type": "Feature",
  "id": "node/2444299064",
  "properties": {
    "timestamp": "2017-09-11T09:43:21Z",
    "version": "5",
    "changeset": "1",
    "user": "KAMI",
    "uid": "4579407",
    "addr:city": "Budapest",
    "addr:country": "HU",
    "addr:housenumber": "46-48",
    "addr:postcode": "1096",
    "addr:street": "Thaly Kálmán út",
    "branch": "Budapest-Thaly Kálmán Expressz",
    "brand": "Tesco",
    "brand:wikidata": "Q487494",
    "brand:wikipedia": "hu:Tesco",
    "facebook": "https://www.facebook.com/tescoaruhazak/",
    "import": "osm_poi_matchmaker",
    "internet_access": "wlan",
    "internet_access:fee": "no",
    "name": "Tesco Expressz",
    "opening_hours": "Mo-Sa 06:00-22:00; Su 08:00-16:00",
    "operator": "TESCO-GLOBAL Áruházak Zrt.",
    "payment:cash": "yes",
    "payment:debit_cards": "yes",
    "ref:vatin:hu": "10307078-2-44",
    "shop": "convenience",
    "source": "website",
    "source:date": "2018-07-15",
    "toilets:wheelchair": "no",
    "website": "https://www.tesco.hu/aruhazak/aruhaz/tesco-budapest-thaly-kalman-expressz",
    "wheelchair": "yes",
    "youtube": "https://www.youtube.com/user/TescoMagyarorszag",
    "id": "node/2444299064"
  },
  "geometry": {
    "type": "Point",
    "coordinates": [
      19.0772008973444,
      47.4812821949116
    ]
  }
},
{
  "type": "Feature",
  "id": "node/2494246958",
  "properties": {
    "timestamp": "2017-09-11T06:42:36Z",
    "version": "7",
    "changeset": "1",
    "user": "KAMI",
    "uid": "4579407",
    "addr:city": "Budapest",
    "addr:country": "HU",
    "addr:housenumber": "142-146",
    "addr:postcode": "1162",
    "addr:street": "Rákosi utca",
    "branch": "Expressz Bp. - Rákosi utca",
    "brand": "Tesco",
    "brand:wikidata": "Q487494",
    "brand:wikipedia": "hu:Tesco",
    "facebook": "https://www.facebook.com/tescoaruhazak/",
    "import": "osm_poi_matchmaker",
    "internet_access": "wlan",
    "internet_access:fee": "no",
    "name": "Tesco Expressz",
    "opening_hours": "Mo-Sa 07:00-22:00; Su 08:00-16:00",
    "operator": "TESCO-GLOBAL Áruházak Zrt.",
    "payment:cash": "yes",
    "payment:debit_cards": "yes",
    "ref:vatin:hu": "10307078-2-44",
    "shop": "convenience",
    "source": "website",
    "source:date": "2018-07-15",
    "website": "https://www.tesco.hu/aruhazak/aruhaz/tesco-expressz-bp-rakosi-utca",
    "wheelchair": "yes",
    "youtube": "https://www.youtube.com/user/TescoMagyarorszag",
    "id": "node/2494246958"
  },
  "geometry": {
    "type": "Point",
    "coordinates": [
      19.1722441973312,
      47.5236535949098
    ]
  }
},
{
  "type": "Feature",
  "id": "node/2515145578",
  "properties": {
    "timestamp": "2017-09-12T10:35:42Z",
    "version": "5",
    "changeset": "1",
    "user": "KAMI",
    "uid": "4579407",
    "addr:city": "Budapest",
    "addr:country": "HU",
    "addr:housenumber": "45-47",
    "addr:postcode": "1119",
    "addr:street": "Fehérvári út",
    "branch": "Expressz Bp. - Fehérvári út",
    "brand": "Tesco",
    "brand:wikidata": "Q487494",
    "brand:wikipedia": "hu:Tesco",
    "facebook": "https://www.facebook.com/tescoaruhazak/",
    "import": "osm_poi_matchmaker",
    "internet_access": "wlan",
    "internet_access:fee": "no",
    "name": "Tesco Expressz",
    "opening_hours": "Mo-Sa 06:00-22:00; Su 07:00-18:00",
    "operator": "TESCO-GLOBAL Áruházak Zrt.",
    "payment:cash": "yes",
    "payment:debit_cards": "yes",
    "ref:vatin:hu": "10307078-2-44",
    "shop": "convenience",
    "source": "website",
    "source:date": "2018-07-15",
    "website": "https://www.tesco.hu/aruhazak/aruhaz/tesco-expressz-bp-fehervari-ut",
    "wheelchair": "yes",
    "wheelchair:description": "nincs mozgássérültek számára kialakított mellékhelyiség",
    "youtube": "https://www.youtube.com/user/TescoMagyarorszag",
    "id": "node/2515145578"
  },
  "geometry": {
    "type": "Point",
    "coordinates": [
      19.044410997349,
      47.4694609949121
    ]
  }
},
{
  "type": "Feature",
  "id": "node/2603639147",
  "properties": {
    "timestamp": "2017-08-02T13:24:48Z",
    "version": "3",
    "changeset": "1",
    "user": "KAMI",
    "uid": "4579407",
    "addr:city": "Debrecen",
    "addr:country": "HU",
    "addr:housenumber": "16",
    "addr:postcode": "4024",
    "addr:street": "Piac utca",
    "branch": "Debrecen Piac Expressz",
    "brand": "Tesco",
    "brand:wikidata": "Q487494",
    "brand:wikipedia": "hu:Tesco",
    "facebook": "https://www.facebook.com/tescoaruhazak/",
    "import": "osm_poi_matchmaker",
    "internet_access": "wlan",
    "internet_access:fee": "no",
    "name": "Tesco Expressz",
    "opening_hours": "Mo-Sa 06:00-22:00; Su 07:00-20:00",
    "operator": "TESCO-GLOBAL Áruházak Zrt.",
    "payment:cash": "yes",
    "payment:debit_cards": "yes",
    "ref:vatin:hu": "10307078-2-44",
    "shop": "convenience",
    "source": "website",
    "source:date": "2018-07-15",
    "website": "https://www.tesco.hu/aruhazak/aruhaz/tesco-debrecen-piac-expressz",
    "wheelchair": "yes",
    "youtube": "https://www.youtube.com/user/TescoMagyarorszag",
    "id": "node/2603639147"
  },
  "geometry": {
    "type": "Point",
    "coordinates": [
      21.6252565969897,
      47.5304982949096
    ]
  }
},
{
  "type": "Feature",
  "id": "node/2764421663",
  "properties": {
    "timestamp": "2015-12-01T08:21:13Z",
    "version": "4",
    "changeset": "1",
    "user": "KAMI",
    "uid": "4579407",
    "addr:city": "Budapest",
    "addr:country": "HU",
    "addr:housenumber": "1",
    "addr:postcode": "1039",
    "addr:street": "Mátyás király út",
    "branch": "Expressz Bp. - Mátyás király út",
    "brand": "Tesco",
    "brand:wikidata": "Q487494",
    "brand:wikipedia": "hu:Tesco",
    "facebook": "https://www.facebook.com/tescoaruhazak/",
    "import": "osm_poi_matchmaker",
    "internet_access": "wlan",
    "internet_access:fee": "no",
    "name": "Tesco Expressz",
    "opening_hours": "Mo-Sa 06:00-22:00; Su 08:00-16:00",
    "operator": "TESCO-GLOBAL Áruházak Zrt.",
    "payment:cash": "yes",
    "payment:debit_cards": "yes",
    "ref:vatin:hu": "10307078-2-44",
    "shop": "convenience",
    "source": "website",
    "source:date": "2018-07-15",
    "website": "https://www.tesco.hu/aruhazak/aruhaz/tesco-expressz-bp-matyas-kiraly-ut",
    "wheelchair": "limited",
    "youtube": "https://www.youtube.com/user/TescoMagyarorszag",
    "id": "node/2764421663"
  },
  "geometry": {
    "type": "Point",
    "coordinates": [
      19.0452507973489,
      47.5859691949072
    ]
  }
},
{
  "type": "Feature",
  "id": "node/2905800795",
  "properties": {
    "timestamp": "2017-09-18T09:54:30Z",
    "version": "4",
    "changeset": "1",
    "user": "KAMI",
    "uid": "4579407",
    "addr:city": "Budapest",
    "addr:country": "HU",
    "addr:housenumber": "13-19",
    "addr:postcode": "1135",
    "addr:street": "Béke út",
    "branch": "Expressz Bp. - Béke út ",
    "brand": "Tesco",
    "brand:wikidata": "Q487494",
    "brand:wikipedia": "hu:Tesco",
    "facebook": "https://www.facebook.com/tescoaruhazak/",
    "import": "osm_poi_matchmaker",
    "internet_access": "wlan",
    "internet_access:fee": "no",
    "name": "Tesco Expressz",
    "opening_hours": "Mo-Sa 06:00-22:00; Su 07:00-18:00",
    "operator": "TESCO-GLOBAL Áruházak Zrt.",
    "payment:cash": "yes",
    "payment:debit_cards": "yes",
    "ref:vatin:hu": "10307078-2-44",
    "shop": "convenience",
    "source": "website",
    "source:date": "2018-07-15",
    "toilets:wheelchair": "no",
    "website": "https://www.tesco.hu/aruhazak/aruhaz/tesco-expressz-bp-beke-ut",
    "wheelchair": "yes",
    "youtube": "https://www.youtube.com/user/TescoMagyarorszag",
    "id": "node/2905800795"
  },
  "geometry": {
    "type": "Point",
    "coordinates": [
      19.0823801973437,
      47.5336187949094
    ]
  }
},
{
  "type": "Feature",
  "id": "node/2926275625",
  "properties": {
    "timestamp": "2015-12-04T14:22:00Z",
    "version": "2",
    "changeset": "1",
    "user": "KAMI",
    "uid": "4579407",
    "addr:city": "Budapest",
    "addr:country": "HU",
    "addr:housenumber": "42-44",
    "addr:postcode": "1191",
    "addr:street": "Ady Endre utca",
    "branch": "Expressz Bp. - Ady Endre utca",
    "brand": "Tesco",
    "brand:wikidata": "Q487494",
    "brand:wikipedia": "hu:Tesco",
    "facebook": "https://www.facebook.com/tescoaruhazak/",
    "import": "osm_poi_matchmaker",
    "internet_access": "wlan",
    "internet_access:fee": "no",
    "name": "Tesco Expressz",
    "opening_hours": "Mo-Sa 07:00-21:00; Su 00:00-00:00",
    "operator": "TESCO-GLOBAL Áruházak Zrt.",
    "payment:cash": "yes",
    "payment:debit_cards": "yes",
    "ref:vatin:hu": "10307078-2-44",
    "shop": "convenience",
    "source": "website",
    "source:date": "2018-07-15",
    "website": "https://www.tesco.hu/aruhazak/aruhaz/tesco-expressz-bp-ady-endre-utca",
    "wheelchair": "yes",
    "youtube": "https://www.youtube.com/user/TescoMagyarorszag",
    "id": "node/2926275625"
  },
  "geometry": {
    "type": "Point",
    "coordinates": [
      19.1325394973367,
      47.4602042949126
    ]
  }
},
{
  "type": "Feature",
  "id": "node/2934194830",
  "properties": {
    "timestamp": "2017-09-11T10:18:31Z",
    "version": "3",
    "changeset": "1",
    "user": "KAMI",
    "uid": "4579407",
    "addr:city": "Budapest",
    "addr:country": "HU",
    "addr:housenumber": "30",
    "addr:postcode": "1081",
    "addr:street": "Népszínház utca",
    "branch": "Expressz Bp. - Népszínház utca",
    "brand": "Tesco",
    "brand:wikidata": "Q487494",
    "brand:wikipedia": "hu:Tesco",
    "facebook": "https://www.facebook.com/tescoaruhazak/",
    "import": "osm_poi_matchmaker",
    "internet_access": "wlan",
    "internet_access:fee": "no",
    "name": "Tesco Expressz",
    "opening_hours": "Mo-Sa 06:00-22:00; Su 07:00-18:00",
    "operator": "TESCO-GLOBAL Áruházak Zrt.",
    "payment:cash": "yes",
    "payment:debit_cards": "yes",
    "ref:vatin:hu": "10307078-2-44",
    "shop": "convenience",
    "source": "website",
    "source:date": "2018-07-15",
    "toilets:wheelchair": "no",
    "website": "https://www.tesco.hu/aruhazak/aruhaz/tesco-expressz-bp-nepszinhaz-utca",
    "wheelchair": "no",
    "youtube": "https://www.youtube.com/user/TescoMagyarorszag",
    "id": "node/2934194830"
  },
  "geometry": {
    "type": "Point",
    "coordinates": [
      19.0773908973444,
      47.4948430949111
    ]
  }
},
{
  "type": "Feature",
  "id": "node/2938508503",
  "properties": {
    "timestamp": "2014-12-28T12:42:29Z",
    "version": "2",
    "changeset": "1",
    "user": "KAMI",
    "uid": "4579407",
    "addr:city": "Páty",
    "addr:country": "HU",
    "addr:housenumber": "11",
    "addr:postcode": "2071",
    "addr:street": "Rákóczi utca",
    "branch": "Expressz Páty - Rákóczi utca",
    "brand": "Tesco",
    "brand:wikidata": "Q487494",
    "brand:wikipedia": "hu:Tesco",
    "facebook": "https://www.facebook.com/tescoaruhazak/",
    "import": "osm_poi_matchmaker",
    "internet_access": "wlan",
    "internet_access:fee": "no",
    "name": "Tesco Expressz",
    "opening_hours": "Mo-Sa 07:00-21:00; Su 08:00-16:00",
    "operator": "TESCO-GLOBAL Áruházak Zrt.",
    "payment:cash": "yes",
    "payment:debit_cards": "yes",
    "ref:vatin:hu": "10307078-2-44",
    "shop": "convenience",
    "source": "website",
    "source:date": "2018-07-15",
    "website": "https://www.tesco.hu/aruhazak/aruhaz/tesco-expressz-paty-rakoczi-utca",
    "wheelchair": "yes",
    "youtube": "https://www.youtube.com/user/TescoMagyarorszag",
    "id": "node/2938508503"
  },
  "geometry": {
    "type": "Point",
    "coordinates": [
      18.8298678973789,
      47.5153380949102
    ]
  }
},
{
  "type": "Feature",
  "id": "node/3057051146",
  "properties": {
    "timestamp": "2014-09-03T13:19:41Z",
    "version": "2",
    "changeset": "1",
    "user": "KAMI",
    "uid": "4579407",
    "addr:city": "Sopron",
    "addr:country": "HU",
    "addr:housenumber": "3",
    "addr:postcode": "9400",
    "addr:street": "Király J. utca",
    "branch": "Expressz Sopron - Király J. utca",
    "brand": "Tesco",
    "brand:wikidata": "Q487494",
    "brand:wikipedia": "hu:Tesco",
    "facebook": "https://www.facebook.com/tescoaruhazak/",
    "import": "osm_poi_matchmaker",
    "internet_access": "wlan",
    "internet_access:fee": "no",
    "name": "Tesco Expressz",
    "opening_hours": "Mo-Sa 06:00-21:00; Su 08:00-16:00",
    "operator": "TESCO-GLOBAL Áruházak Zrt.",
    "payment:cash": "yes",
    "payment:debit_cards": "yes",
    "ref:vatin:hu": "10307078-2-44",
    "shop": "convenience",
    "source": "website",
    "source:date": "2018-07-15",
    "website": "https://www.tesco.hu/aruhazak/aruhaz/tesco-expressz-sopron-kiraly-j-utca",
    "youtube": "https://www.youtube.com/user/TescoMagyarorszag",
    "id": "node/3057051146"
  },
  "geometry": {
    "type": "Point",
    "coordinates": [
      16.5930760976902,
      47.6792774949033
    ]
  }
},
{
  "type": "Feature",
  "id": "node/3057129277",
  "properties": {
    "timestamp": "2017-10-02T13:09:45Z",
    "version": "2",
    "changeset": "1",
    "user": "KAMI",
    "uid": "4579407",
    "addr:city": "Sopron",
    "addr:country": "HU",
    "addr:housenumber": "39",
    "addr:postcode": "9400",
    "addr:street": "IV. László király utca",
    "branch": "Expressz Sopron - IV. László utca",
    "brand": "Tesco",
    "brand:wikidata": "Q487494",
    "brand:wikipedia": "hu:Tesco",
    "facebook": "https://www.facebook.com/tescoaruhazak/",
    "import": "osm_poi_matchmaker",
    "internet_access": "wlan",
    "internet_access:fee": "no",
    "name": "Tesco Expressz",
    "opening_hours": "Mo-Sa 06:00-21:00; Su 08:00-16:00",
    "operator": "TESCO-GLOBAL Áruházak Zrt.",
    "payment:cash": "yes",
    "payment:debit_cards": "yes",
    "ref:vatin:hu": "10307078-2-44",
    "shop": "convenience",
    "source": "website",
    "source:date": "2018-07-15",
    "website": "https://www.tesco.hu/aruhazak/aruhaz/tesco-expressz-sopron-iv-laszlo-utca",
    "wheelchair": "limited",
    "youtube": "https://www.youtube.com/user/TescoMagyarorszag",
    "id": "node/3057129277"
  },
  "geometry": {
    "type": "Point",
    "coordinates": [
      16.573132897693,
      47.6924972949028
    ]
  }
},
{
  "type": "Feature",
  "id": "node/3210031716",
  "properties": {
    "timestamp": "2015-11-15T12:25:38Z",
    "version": "6",
    "changeset": "1",
    "user": "KAMI",
    "uid": "4579407",
    "addr:city": "Győr",
    "addr:country": "HU",
    "addr:housenumber": "20",
    "addr:postcode": "9026",
    "addr:street": "Hédervári utca",
    "branch": "Expressz Győr - Hédervári út",
    "brand": "Tesco",
    "brand:wikidata": "Q487494",
    "brand:wikipedia": "hu:Tesco",
    "facebook": "https://www.facebook.com/tescoaruhazak/",
    "import": "osm_poi_matchmaker",
    "internet_access": "wlan",
    "internet_access:fee": "no",
    "name": "Tesco Expressz",
    "opening_hours": "Mo-Sa 06:00-22:00; Su 08:00-16:00",
    "operator": "TESCO-GLOBAL Áruházak Zrt.",
    "payment:cash": "yes",
    "payment:debit_cards": "yes",
    "ref:vatin:hu": "10307078-2-44",
    "shop": "convenience",
    "source": "website",
    "source:date": "2018-07-15",
    "website": "https://www.tesco.hu/aruhazak/aruhaz/tesco-expressz-gyor-hedervari-ut",
    "wheelchair": "limited",
    "wheelchair:description": "Bejárat szélessége 145cm.Rámpa 12%-os ,1méter széles",
    "youtube": "https://www.youtube.com/user/TescoMagyarorszag",
    "id": "node/3210031716"
  },
  "geometry": {
    "type": "Point",
    "coordinates": [
      17.6303440975458,
      47.6952668949027
    ]
  }
},
{
  "type": "Feature",
  "id": "node/3473673382",
  "properties": {
    "timestamp": "2015-04-23T18:06:42Z",
    "version": "1",
    "changeset": "1",
    "user": "KAMI",
    "uid": "4579407",
    "addr:city": "Győr",
    "addr:country": "HU",
    "addr:housenumber": "13",
    "addr:postcode": "9023",
    "addr:street": "Bartók Béla utca",
    "branch": "Expressz Győr - Bartók Béla utca",
    "brand": "Tesco",
    "brand:wikidata": "Q487494",
    "brand:wikipedia": "hu:Tesco",
    "facebook": "https://www.facebook.com/tescoaruhazak/",
    "import": "osm_poi_matchmaker",
    "internet_access": "wlan",
    "internet_access:fee": "no",
    "name": "Tesco Expressz",
    "opening_hours": "Mo-Sa 06:00-21:00; Su 00:00-00:00",
    "operator": "TESCO-GLOBAL Áruházak Zrt.",
    "payment:cash": "yes",
    "payment:debit_cards": "yes",
    "ref:vatin:hu": "10307078-2-44",
    "shop": "convenience",
    "source": "website",
    "source:date": "2018-07-15",
    "url": "http://turistautak.hu/poi.php?id=37172",
    "website": "https://www.tesco.hu/aruhazak/aruhaz/tesco-expressz-gyor-bartok-bela-utca",
    "youtube": "https://www.youtube.com/user/TescoMagyarorszag",
    "id": "node/3473673382"
  },
  "geometry": {
    "type": "Point",
    "coordinates": [
      17.6381799975447,
      47.6819979949032
    ]
  }
},
{
  "type": "Feature",
  "id": "node/-5",
  "properties": {
    "timestamp": "",
    "version": "99999",
    "changeset": "99999",
    "user": "KAMI",
    "uid": "4579407",
    "addr:city": "Levél",
    "addr:country": "HU",
    "addr:housenumber": "84",
    "addr:postcode": "9221",
    "addr:street": "Szövetkezet utca",
    "branch": "Expressz  Levél - Szövetkezet utca",
    "brand": "Tesco",
    "brand:wikidata": "Q487494",
    "brand:wikipedia": "hu:Tesco",
    "facebook": "https://www.facebook.com/tescoaruhazak/",
    "import": "osm_poi_matchmaker",
    "internet_access": "wlan",
    "internet_access:fee": "no",
    "name": "Tesco Expressz",
    "opening_hours": "Mo-Sa 06:00-21:00; Su 08:00-16:00",
    "operator": "TESCO-GLOBAL Áruházak Zrt.",
    "payment:cash": "yes",
    "payment:debit_cards": "yes",
    "ref:vatin:hu": "10307078-2-44",
    "shop": "convenience",
    "source": "website",
    "source:date": "2018-07-15",
    "website": "https://www.tesco.hu/aruhazak/aruhaz/tesco-expressz-level-szovetkezet-utca",
    "youtube": "https://www.youtube.com/user/TescoMagyarorszag",
    "id": "node/-5"
  },
  "geometry": {
    "type": "Point",
    "coordinates": [
      17.20989,
      47.89598
    ]
  }
},
{
  "type": "Feature",
  "id": "node/4939175128",
  "properties": {
    "timestamp": "2017-09-19T09:25:42Z",
    "version": "4",
    "changeset": "1",
    "user": "KAMI",
    "uid": "4579407",
    "addr:city": "Budapest",
    "addr:country": "HU",
    "addr:housenumber": "18-28",
    "addr:postcode": "1035",
    "addr:street": "Vihar utca",
    "branch": "Expressz Bp. -  Vihar utca",
    "brand": "Tesco",
    "brand:wikidata": "Q487494",
    "brand:wikipedia": "hu:Tesco",
    "facebook": "https://www.facebook.com/tescoaruhazak/",
    "fixme": "verify",
    "import": "osm_poi_matchmaker",
    "internet_access": "wlan",
    "internet_access:fee": "no",
    "name": "Tesco Expressz",
    "opening_hours": "Mo-Sa 07:00-22:00; Su 08:00-16:00",
    "operator": "TESCO-GLOBAL Áruházak Zrt.",
    "payment:cash": "yes",
    "payment:debit_cards": "yes",
    "ref:vatin:hu": "10307078-2-44",
    "shop": "convenience",
    "source": "website",
    "source:date": "2018-07-15",
    "website": "https://www.tesco.hu/aruhazak/aruhaz/tesco-expressz-bp-vihar-utca",
    "wheelchair": "no",
    "youtube": "https://www.youtube.com/user/TescoMagyarorszag",
    "id": "node/4939175128"
  },
  "geometry": {
    "type": "Point",
    "coordinates": [
      19.0377513973499,
      47.5473546949089
    ]
  }
},
{
  "type": "Feature",
  "id": "node/-14",
  "properties": {
    "timestamp": "",
    "version": "99999",
    "changeset": "99999",
    "user": "KAMI",
    "uid": "4579407",
    "addr:city": "Budapest",
    "addr:country": "HU",
    "addr:housenumber": "55-57",
    "addr:postcode": "1062",
    "addr:street": "Teréz körút",
    "branch": "Expressz Bp. - Eiffel tér",
    "brand": "Tesco",
    "brand:wikidata": "Q487494",
    "brand:wikipedia": "hu:Tesco",
    "facebook": "https://www.facebook.com/tescoaruhazak/",
    "import": "osm_poi_matchmaker",
    "internet_access": "wlan",
    "internet_access:fee": "no",
    "name": "Tesco Expressz",
    "opening_hours": "Mo-Sa 06:00-22:00; Su 00:00-00:00",
    "operator": "TESCO-GLOBAL Áruházak Zrt.",
    "payment:cash": "yes",
    "payment:debit_cards": "yes",
    "ref:vatin:hu": "10307078-2-44",
    "shop": "convenience",
    "source": "website",
    "source:date": "2018-07-15",
    "website": "https://www.tesco.hu/aruhazak/aruhaz/tesco-expressz-bp-eiffel-ter",
    "youtube": "https://www.youtube.com/user/TescoMagyarorszag",
    "id": "node/-14"
  },
  "geometry": {
    "type": "Point",
    "coordinates": [
      19.059487,
      47.510954
    ]
  }
},
{
  "type": "Feature",
  "id": "node/4933469047",
  "properties": {
    "timestamp": "2017-10-04T20:05:33Z",
    "version": "4",
    "changeset": "1",
    "user": "KAMI",
    "uid": "4579407",
    "addr:city": "Dunaújváros",
    "addr:country": "HU",
    "addr:housenumber": "4",
    "addr:postcode": "2400",
    "addr:street": "Bercsényi utca",
    "branch": "Expressz Dunaújváros - Bercsényi utca",
    "brand": "Tesco",
    "brand:wikidata": "Q487494",
    "brand:wikipedia": "hu:Tesco",
    "facebook": "https://www.facebook.com/tescoaruhazak/",
    "import": "osm_poi_matchmaker",
    "internet_access": "wlan",
    "internet_access:fee": "no",
    "name": "Tesco Expressz",
    "opening_hours": "Mo-Sa 06:00-22:00; Su 08:00-16:00",
    "operator": "TESCO-GLOBAL Áruházak Zrt.",
    "payment:cash": "yes",
    "payment:debit_cards": "yes",
    "ref:vatin:hu": "10307078-2-44",
    "shop": "convenience",
    "source": "website",
    "source:date": "2018-07-15",
    "website": "https://www.tesco.hu/aruhazak/aruhaz/tesco-expressz-dunaujvaros-bercsenyi-utca",
    "wheelchair": "yes",
    "youtube": "https://www.youtube.com/user/TescoMagyarorszag",
    "id": "node/4933469047"
  },
  "geometry": {
    "type": "Point",
    "coordinates": [
      18.9312977973647,
      46.966962994934
    ]
  }
},
{
  "type": "Feature",
  "id": "node/-35",
  "properties": {
    "timestamp": "",
    "version": "99999",
    "changeset": "99999",
    "user": "KAMI",
    "uid": "4579407",
    "addr:city": "Győr",
    "addr:country": "HU",
    "addr:housenumber": "2",
    "addr:postcode": "9024",
    "addr:street": "Hunyadi utca",
    "branch": "Expressz Győr - Hunyadi utca",
    "brand": "Tesco",
    "brand:wikidata": "Q487494",
    "brand:wikipedia": "hu:Tesco",
    "facebook": "https://www.facebook.com/tescoaruhazak/",
    "import": "osm_poi_matchmaker",
    "internet_access": "wlan",
    "internet_access:fee": "no",
    "name": "Tesco Expressz",
    "opening_hours": "Mo-Sa 06:00-21:00; Su 00:00-00:00",
    "operator": "TESCO-GLOBAL Áruházak Zrt.",
    "payment:cash": "yes",
    "payment:debit_cards": "yes",
    "ref:vatin:hu": "10307078-2-44",
    "shop": "convenience",
    "source": "website",
    "source:date": "2018-07-15",
    "website": "https://www.tesco.hu/aruhazak/aruhaz/tesco-expressz-gyor-hunyadi-utca",
    "youtube": "https://www.youtube.com/user/TescoMagyarorszag",
    "id": "node/-35"
  },
  "geometry": {
    "type": "Point",
    "coordinates": [
      17.63266,
      47.68045
    ]
  }
},
{
  "type": "Feature",
  "id": "node/-36",
  "properties": {
    "timestamp": "",
    "version": "99999",
    "changeset": "99999",
    "user": "KAMI",
    "uid": "4579407",
    "addr:city": "Győr",
    "addr:country": "HU",
    "addr:housenumber": "28",
    "addr:postcode": "9027",
    "addr:street": "Ipar utca",
    "branch": "Expressz Győr - Ipar utca",
    "brand": "Tesco",
    "brand:wikidata": "Q487494",
    "brand:wikipedia": "hu:Tesco",
    "facebook": "https://www.facebook.com/tescoaruhazak/",
    "import": "osm_poi_matchmaker",
    "internet_access": "wlan",
    "internet_access:fee": "no",
    "name": "Tesco Expressz",
    "opening_hours": "Mo-Sa 07:00-21:00; Su 00:00-00:00",
    "operator": "TESCO-GLOBAL Áruházak Zrt.",
    "payment:cash": "yes",
    "payment:debit_cards": "yes",
    "ref:vatin:hu": "10307078-2-44",
    "shop": "convenience",
    "source": "website",
    "source:date": "2018-07-15",
    "website": "https://www.tesco.hu/aruhazak/aruhaz/tesco-expressz-gyor-ipar-utca",
    "youtube": "https://www.youtube.com/user/TescoMagyarorszag",
    "id": "node/-36"
  },
  "geometry": {
    "type": "Point",
    "coordinates": [
      17.66049,
      47.69258
    ]
  }
},
{
  "type": "Feature",
  "id": "node/-37",
  "properties": {
    "timestamp": "",
    "version": "99999",
    "changeset": "99999",
    "user": "KAMI",
    "uid": "4579407",
    "addr:city": "Győr",
    "addr:country": "HU",
    "addr:housenumber": "8",
    "addr:postcode": "9025",
    "addr:street": "Köztelek utca",
    "branch": "Expressz Győr - Köztelek utca",
    "brand": "Tesco",
    "brand:wikidata": "Q487494",
    "brand:wikipedia": "hu:Tesco",
    "facebook": "https://www.facebook.com/tescoaruhazak/",
    "import": "osm_poi_matchmaker",
    "internet_access": "wlan",
    "internet_access:fee": "no",
    "name": "Tesco Expressz",
    "opening_hours": "Mo-Sa 06:00-21:00; Su 08:00-16:00",
    "operator": "TESCO-GLOBAL Áruházak Zrt.",
    "payment:cash": "yes",
    "payment:debit_cards": "yes",
    "ref:vatin:hu": "10307078-2-44",
    "shop": "convenience",
    "source": "website",
    "source:date": "2018-07-15",
    "website": "https://www.tesco.hu/aruhazak/aruhaz/tesco-expressz-gyor-koztelek-utca",
    "youtube": "https://www.youtube.com/user/TescoMagyarorszag",
    "id": "node/-37"
  },
  "geometry": {
    "type": "Point",
    "coordinates": [
      17.61824,
      47.68635
    ]
  }
},
{
  "type": "Feature",
  "id": "node/-39",
  "properties": {
    "timestamp": "",
    "version": "99999",
    "changeset": "99999",
    "user": "KAMI",
    "uid": "4579407",
    "addr:city": "Miskolc",
    "addr:country": "HU",
    "addr:housenumber": "1",
    "addr:postcode": "3526",
    "addr:street": "Arany János tér",
    "branch": "Expressz Miskolc - Arany János tér",
    "brand": "Tesco",
    "brand:wikidata": "Q487494",
    "brand:wikipedia": "hu:Tesco",
    "facebook": "https://www.facebook.com/tescoaruhazak/",
    "import": "osm_poi_matchmaker",
    "internet_access": "wlan",
    "internet_access:fee": "no",
    "name": "Tesco Expressz",
    "opening_hours": "Mo-Sa 06:00-22:00; Su 08:00-16:00",
    "operator": "TESCO-GLOBAL Áruházak Zrt.",
    "payment:cash": "yes",
    "payment:debit_cards": "yes",
    "ref:vatin:hu": "10307078-2-44",
    "shop": "convenience",
    "source": "website",
    "source:date": "2018-07-15",
    "website": "https://www.tesco.hu/aruhazak/aruhaz/tesco-expressz-miskolc-arany-janos-ter",
    "youtube": "https://www.youtube.com/user/TescoMagyarorszag",
    "id": "node/-39"
  },
  "geometry": {
    "type": "Point",
    "coordinates": [
      20.787642,
      48.109297
    ]
  }
},
{
  "type": "Feature",
  "id": "node/-41",
  "properties": {
    "timestamp": "",
    "version": "99999",
    "changeset": "99999",
    "user": "KAMI",
    "uid": "4579407",
    "addr:city": "Mosonmagyaróvár",
    "addr:country": "HU",
    "addr:housenumber": "96",
    "addr:postcode": "9200",
    "addr:street": "Szent I. kir. utca",
    "branch": "Expressz Móvár - Szent I. kir. utca",
    "brand": "Tesco",
    "brand:wikidata": "Q487494",
    "brand:wikipedia": "hu:Tesco",
    "facebook": "https://www.facebook.com/tescoaruhazak/",
    "import": "osm_poi_matchmaker",
    "internet_access": "wlan",
    "internet_access:fee": "no",
    "name": "Tesco Expressz",
    "opening_hours": "Mo-Sa 06:00-21:00; Su 08:00-16:00",
    "operator": "TESCO-GLOBAL Áruházak Zrt.",
    "payment:cash": "yes",
    "payment:debit_cards": "yes",
    "ref:vatin:hu": "10307078-2-44",
    "shop": "convenience",
    "source": "website",
    "source:date": "2018-07-15",
    "website": "https://www.tesco.hu/aruhazak/aruhaz/tesco-expressz-movar-szent-i-kir-utca",
    "youtube": "https://www.youtube.com/user/TescoMagyarorszag",
    "id": "node/-41"
  },
  "geometry": {
    "type": "Point",
    "coordinates": [
      17.27842,
      47.85557
    ]
  }
},
{
  "type": "Feature",
  "id": "node/-42",
  "properties": {
    "timestamp": "",
    "version": "99999",
    "changeset": "99999",
    "user": "KAMI",
    "uid": "4579407",
    "addr:city": "Mosonmagyaróvár",
    "addr:country": "HU",
    "addr:housenumber": "44",
    "addr:postcode": "9200",
    "addr:street": "Szent I. kir. utca",
    "branch": "Expressz Móvár - Szent I. kir. utca",
    "brand": "Tesco",
    "brand:wikidata": "Q487494",
    "brand:wikipedia": "hu:Tesco",
    "facebook": "https://www.facebook.com/tescoaruhazak/",
    "import": "osm_poi_matchmaker",
    "internet_access": "wlan",
    "internet_access:fee": "no",
    "name": "Tesco Expressz",
    "opening_hours": "Mo-Sa 06:00-21:00; Su 08:00-16:00",
    "operator": "TESCO-GLOBAL Áruházak Zrt.",
    "payment:cash": "yes",
    "payment:debit_cards": "yes",
    "ref:vatin:hu": "10307078-2-44",
    "shop": "convenience",
    "source": "website",
    "source:date": "2018-07-15",
    "website": "https://www.tesco.hu/aruhazak/aruhaz/tesco-expressz-movar-szent-i-kir-utca",
    "youtube": "https://www.youtube.com/user/TescoMagyarorszag",
    "id": "node/-42"
  },
  "geometry": {
    "type": "Point",
    "coordinates": [
      17.27494,
      47.86276
    ]
  }
},
{
  "type": "Feature",
  "id": "node/4940559150",
  "properties": {
    "timestamp": "2018-02-24T16:47:50Z",
    "version": "3",
    "changeset": "1",
    "user": "KAMI",
    "uid": "4579407",
    "addr:city": "Sopron",
    "addr:country": "HU",
    "addr:housenumber": "1",
    "addr:postcode": "9400",
    "addr:street": "József A. utca",
    "branch": "Expressz Sopron - József Attila utca",
    "brand": "Tesco",
    "brand:wikidata": "Q487494",
    "brand:wikipedia": "hu:Tesco",
    "facebook": "https://www.facebook.com/tescoaruhazak/",
    "fixme": "verify",
    "import": "osm_poi_matchmaker",
    "internet_access": "wlan",
    "internet_access:fee": "no",
    "name": "Tesco Expressz",
    "opening_hours": "Mo-Sa 06:00-21:00; Su 08:00-16:00",
    "operator": "TESCO-GLOBAL Áruházak Zrt.",
    "payment:cash": "yes",
    "payment:debit_cards": "yes",
    "ref:vatin:hu": "10307078-2-44",
    "shop": "convenience",
    "source": "website",
    "source:date": "2018-07-15",
    "website": "https://www.tesco.hu/aruhazak/aruhaz/tesco-expressz-sopron-jozsef-attila-utca",
    "youtube": "https://www.youtube.com/user/TescoMagyarorszag",
    "id": "node/4940559150"
  },
  "geometry": {
    "type": "Point",
    "coordinates": [
      16.5831148976916,
      47.6746999949035
    ]
  }
},
{
  "type": "Feature",
  "id": "node/-49",
  "properties": {
    "timestamp": "",
    "version": "99999",
    "changeset": "99999",
    "user": "KAMI",
    "uid": "4579407",
    "addr:city": "Sopron",
    "addr:country": "HU",
    "addr:housenumber": "11",
    "addr:postcode": "9400",
    "addr:street": "Lackner K. utca",
    "branch": "Expressz Sopron - Lackner K. utca",
    "brand": "Tesco",
    "brand:wikidata": "Q487494",
    "brand:wikipedia": "hu:Tesco",
    "facebook": "https://www.facebook.com/tescoaruhazak/",
    "import": "osm_poi_matchmaker",
    "internet_access": "wlan",
    "internet_access:fee": "no",
    "name": "Tesco Expressz",
    "opening_hours": "Mo-Sa 06:00-21:00; Su 00:00-00:00",
    "operator": "TESCO-GLOBAL Áruházak Zrt.",
    "payment:cash": "yes",
    "payment:debit_cards": "yes",
    "ref:vatin:hu": "10307078-2-44",
    "shop": "convenience",
    "source": "website",
    "source:date": "2018-07-15",
    "website": "https://www.tesco.hu/aruhazak/aruhaz/tesco-expressz-sopron-lackner-k-utca",
    "youtube": "https://www.youtube.com/user/TescoMagyarorszag",
    "id": "node/-49"
  },
  "geometry": {
    "type": "Point",
    "coordinates": [
      16.58626,
      47.68852
    ]
  }
},
{
  "type": "Feature",
  "id": "node/4747723237",
  "properties": {
    "timestamp": "2017-03-21T21:17:24Z",
    "version": "1",
    "changeset": "1",
    "user": "KAMI",
    "uid": "4579407",
    "addr:city": "Szeged",
    "addr:country": "HU",
    "addr:housenumber": "8-9",
    "addr:postcode": "6722",
    "addr:street": "Dugonics tér",
    "branch": "Expressz Szeged - Dugonics tér",
    "brand": "Tesco",
    "brand:wikidata": "Q487494",
    "brand:wikipedia": "hu:Tesco",
    "facebook": "https://www.facebook.com/tescoaruhazak/",
    "import": "osm_poi_matchmaker",
    "internet_access": "wlan",
    "internet_access:fee": "no",
    "name": "Tesco Expressz",
    "opening_hours": "Mo-Sa 07:00-22:00; Su 07:00-18:00",
    "operator": "TESCO-GLOBAL Áruházak Zrt.",
    "payment:cash": "yes",
    "payment:debit_cards": "yes",
    "ref:vatin:hu": "10307078-2-44",
    "shop": "convenience",
    "source": "website",
    "source:date": "2018-07-15",
    "website": "https://www.tesco.hu/aruhazak/aruhaz/tesco-expressz-szeged-dugonics-ter",
    "wheelchair": "yes",
    "youtube": "https://www.youtube.com/user/TescoMagyarorszag",
    "id": "node/4747723237"
  },
  "geometry": {
    "type": "Point",
    "coordinates": [
      20.143767297196,
      46.2506513949669
    ]
  }
},
{
  "type": "Feature",
  "id": "node/4568001190",
  "properties": {
    "timestamp": "2018-03-08T10:44:59Z",
    "version": "3",
    "changeset": "1",
    "user": "KAMI",
    "uid": "4579407",
    "addr:city": "Törökbálint",
    "addr:country": "HU",
    "addr:housenumber": "67",
    "addr:postcode": "2045",
    "addr:street": "Bajcsy-Zsilinszky utca",
    "branch": "Törökbálint Expressz",
    "brand": "Tesco",
    "brand:wikidata": "Q487494",
    "brand:wikipedia": "hu:Tesco",
    "facebook": "https://www.facebook.com/tescoaruhazak/",
    "import": "osm_poi_matchmaker",
    "internet_access": "wlan",
    "internet_access:fee": "no",
    "name": "Tesco Expressz",
    "opening_hours": "Mo-Sa 06:00-22:00; Su 08:00-16:00",
    "operator": "TESCO-GLOBAL Áruházak Zrt.",
    "payment:cash": "yes",
    "payment:debit_cards": "yes",
    "ref:vatin:hu": "10307078-2-44",
    "shop": "convenience",
    "source": "website",
    "source:date": "2018-07-15",
    "website": "https://www.tesco.hu/aruhazak/aruhaz/tesco-torokbalint-expressz",
    "wheelchair": "yes",
    "youtube": "https://www.youtube.com/user/TescoMagyarorszag",
    "id": "node/4568001190"
  },
  "geometry": {
    "type": "Point",
    "coordinates": [
      18.9134983973672,
      47.4414448949133
    ]
  }
}
]
}
