<?xml version='1.0' encoding='UTF-8'?>
<osm generator="JOSM" version="0.6">
  <!-- OSM link: https://osm.org/way/128070372 -->
  <!-- Original coordinates: POINT (47.66936 17.63962) -->
  <!-- OSM <-> POI distance: 138.97018116 m-->
  <!-- Checker good: {not_in_water,standard_opening_hours}; bad {}-->
  <!-- Original tags: 'addr:city':'Győr'; 'addr:housenumber':'12'; 'addr:postcode':'9024'; 'addr:street':'Lajta utca'; 'alt_name':'Tesco'; 'building':'retail'; 'name':'Tesco'; 'shop':'supermarket'; 'toilets:wheelchair':'no'; 'wheelchair':'yes';  -->
  <!-- JOSM magic link: http://localhost:8111/load_object?new_layer=false&objects=w128070372&addtags=%7Caddr%3Acity%3DGy%C5%91r%7Caddr%3Acountry%3DHU%7Caddr%3Ahousenumber%3D12%7Caddr%3Apostcode%3D9024%7Caddr%3Astreet%3DLajta%20utca%7Cair_conditioning%3Dyes%7Calt_name%3DTesco%20Expressz%7Cbranch%3DGy%C5%91r%20Expressz%20-%20Lajta%20utca%7Cbrand%3DTesco%7Cbrand%3Awikidata%3DQ487494%7Cbrand%3Awikipedia%3Dhu%3ATesco%7Cbuilding%3Dretail%7Cfacebook%3Dhttps%3A//www.facebook.com/tescoaruhazak%7Cimport%3Dosm_poi_matchmaker%7Cinternet_access%3Dwlan%7Cinternet_access%3Afee%3Dno%7Cname%3DS-Market%7Copening_hours%3DMo-Sa%2006%3A00-22%3A00%3B%20Su%2007%3A00-18%3A00%3B%20PH%20off%7Coperator%3DTESCO-GLOBAL%20%C3%81ruh%C3%A1zak%20Zrt.%7Cpayment%3Acash%3Dyes%7Cpayment%3Adebit_cards%3Dyes%7Cref%3Avatin%3Ahu%3D10307078-2-44%7Cshop%3Dconvenience%7Csource%3Awww.tesco.hu%3Adate%3D2018-08-05%7Ctoilets%3Awheelchair%3Dno%7Cwebsite%3Dhttps%3A//www.tesco.huhttps%3A//tesco.hu/aruhazak/aruhaz/tesco-gyor-expressz-lajta-utca/%7Cwheelchair%3Dyes%7Cyoutube%3Dhttps%3A//www.youtube.com/user/TescoMagyarorszag -->
  <way action="modify" changeset="1" id="128070372" timestamp="2017-12-25T16:16:09Z" uid="4579407" user="KAMI" version="6">
    <nd ref="1375621786"/>
    <nd ref="1416081188"/>
    <nd ref="4587721819"/>
    <nd ref="1416081171"/>
    <nd ref="4587721842"/>
    <nd ref="1416081169"/>
    <nd ref="1375621786"/>
    <tag k="addr:city" v="Győr"/>
    <tag k="addr:country" v="HU"/>
    <tag k="addr:housenumber" v="12"/>
    <tag k="addr:postcode" v="9024"/>
    <tag k="addr:street" v="Lajta utca"/>
    <tag k="air_conditioning" v="yes"/>
    <tag k="alt_name" v="Tesco Expressz"/>
    <tag k="branch" v="Győr Expressz - Lajta utca"/>
    <tag k="brand" v="Tesco"/>
    <tag k="brand:wikidata" v="Q487494"/>
    <tag k="brand:wikipedia" v="hu:Tesco"/>
    <tag k="building" v="retail"/>
    <tag k="facebook" v="https://www.facebook.com/tescoaruhazak"/>
    <tag k="import" v="osm_poi_matchmaker"/>
    <tag k="internet_access" v="wlan"/>
    <tag k="internet_access:fee" v="no"/>
    <tag k="name" v="S-Market"/>
    <tag k="opening_hours" v="Mo-Sa 06:00-22:00; Su 07:00-18:00; PH off"/>
    <tag k="operator" v="TESCO-GLOBAL Áruházak Zrt."/>
    <tag k="payment:cash" v="yes"/>
    <tag k="payment:debit_cards" v="yes"/>
    <tag k="ref:vatin:hu" v="10307078-2-44"/>
    <tag k="shop" v="convenience"/>
    <tag k="source:www.tesco.hu:date" v="2018-08-05"/>
    <tag k="toilets:wheelchair" v="no"/>
    <tag k="website" v="https://www.tesco.huhttps://tesco.hu/aruhazak/aruhaz/tesco-gyor-expressz-lajta-utca/"/>
    <tag k="wheelchair" v="yes"/>
    <tag k="youtube" v="https://www.youtube.com/user/TescoMagyarorszag"/>
  </way>
  <!-- OSM link: https://osm.org/way/265217396 -->
  <!-- Original coordinates: POINT (47.68045 17.63266) -->
  <!-- OSM <-> POI distance: 54.11493144 m-->
  <!-- Checker good: {not_in_water,standard_opening_hours}; bad {}-->
  <!-- Original tags: 'addr:city':'Győr'; 'addr:housenumber':'2'; 'addr:postcode':'9024'; 'addr:street':'Hunyadi utca'; 'building':'retail'; 'name':'S Market'; 'shop':'supermarket'; 'toilets:wheelchair':'no'; 'wheelchair':'no';  -->
  <!-- JOSM magic link: http://localhost:8111/load_object?new_layer=false&objects=w265217396&addtags=%7Caddr%3Acity%3DGy%C5%91r%7Caddr%3Acountry%3DHU%7Caddr%3Ahousenumber%3D2%7Caddr%3Apostcode%3D9024%7Caddr%3Astreet%3DHunyadi%20utca%7Cair_conditioning%3Dyes%7Calt_name%3DTesco%20Expressz%7Cbranch%3DExpressz%20Gy%C5%91r%20-%20Hunyadi%20utca%7Cbrand%3DTesco%7Cbrand%3Awikidata%3DQ487494%7Cbrand%3Awikipedia%3Dhu%3ATesco%7Cbuilding%3Dretail%7Cfacebook%3Dhttps%3A//www.facebook.com/tescoaruhazak%7Cimport%3Dosm_poi_matchmaker%7Cinternet_access%3Dwlan%7Cinternet_access%3Afee%3Dno%7Cname%3DS-Market%7Copening_hours%3DMo-Sa%2006%3A00-21%3A00%3B%20Su%2000%3A00-00%3A00%3B%20PH%20off%7Coperator%3DTESCO-GLOBAL%20%C3%81ruh%C3%A1zak%20Zrt.%7Cpayment%3Acash%3Dyes%7Cpayment%3Adebit_cards%3Dyes%7Cref%3Avatin%3Ahu%3D10307078-2-44%7Cshop%3Dconvenience%7Csource%3Awww.tesco.hu%3Adate%3D2018-08-05%7Ctoilets%3Awheelchair%3Dno%7Cwebsite%3Dhttps%3A//www.tesco.huhttps%3A//tesco.hu/aruhazak/aruhaz/tesco-expressz-gyor-hunyadi-utca/%7Cwheelchair%3Dno%7Cyoutube%3Dhttps%3A//www.youtube.com/user/TescoMagyarorszag -->
  <way action="modify" changeset="1" id="265217396" timestamp="2017-12-25T16:17:22Z" uid="4579407" user="KAMI" version="3">
    <nd ref="1751083796"/>
    <nd ref="2708784053"/>
    <nd ref="2708784054"/>
    <nd ref="1751083791"/>
    <nd ref="1751083796"/>
    <tag k="addr:city" v="Győr"/>
    <tag k="addr:country" v="HU"/>
    <tag k="addr:housenumber" v="2"/>
    <tag k="addr:postcode" v="9024"/>
    <tag k="addr:street" v="Hunyadi utca"/>
    <tag k="air_conditioning" v="yes"/>
    <tag k="alt_name" v="Tesco Expressz"/>
    <tag k="branch" v="Expressz Győr - Hunyadi utca"/>
    <tag k="brand" v="Tesco"/>
    <tag k="brand:wikidata" v="Q487494"/>
    <tag k="brand:wikipedia" v="hu:Tesco"/>
    <tag k="building" v="retail"/>
    <tag k="facebook" v="https://www.facebook.com/tescoaruhazak"/>
    <tag k="import" v="osm_poi_matchmaker"/>
    <tag k="internet_access" v="wlan"/>
    <tag k="internet_access:fee" v="no"/>
    <tag k="name" v="S-Market"/>
    <tag k="opening_hours" v="Mo-Sa 06:00-21:00; Su 00:00-00:00; PH off"/>
    <tag k="operator" v="TESCO-GLOBAL Áruházak Zrt."/>
    <tag k="payment:cash" v="yes"/>
    <tag k="payment:debit_cards" v="yes"/>
    <tag k="ref:vatin:hu" v="10307078-2-44"/>
    <tag k="shop" v="convenience"/>
    <tag k="source:www.tesco.hu:date" v="2018-08-05"/>
    <tag k="toilets:wheelchair" v="no"/>
    <tag k="website" v="https://www.tesco.huhttps://tesco.hu/aruhazak/aruhaz/tesco-expressz-gyor-hunyadi-utca/"/>
    <tag k="wheelchair" v="no"/>
    <tag k="youtube" v="https://www.youtube.com/user/TescoMagyarorszag"/>
  </way>
  <!-- OSM link: https://osm.org/way/160491512 -->
  <!-- Original coordinates: POINT (47.68219 17.63823) -->
  <!-- OSM <-> POI distance: 140.01365455 m-->
  <!-- Checker good: {not_in_water,standard_opening_hours}; bad {}-->
  <!-- Original tags: 'addr:city':'Győr'; 'addr:housenumber':'13'; 'addr:postcode':'9023'; 'addr:street':'Bartók Béla út'; 'building':'retail'; 'name':'S-Market'; 'shop':'supermarket';  -->
  <!-- JOSM magic link: http://localhost:8111/load_object?new_layer=false&objects=w160491512&addtags=%7Caddr%3Acity%3DGy%C5%91r%7Caddr%3Acountry%3DHU%7Caddr%3Ahousenumber%3D13%7Caddr%3Apostcode%3D9023%7Caddr%3Astreet%3DBart%C3%B3k%20B%C3%A9la%20utca%7Cair_conditioning%3Dyes%7Calt_name%3DTesco%20Expressz%7Cbranch%3DExpressz%20Gy%C5%91r%20-%20Bart%C3%B3k%20B%C3%A9la%20utca%7Cbrand%3DTesco%7Cbrand%3Awikidata%3DQ487494%7Cbrand%3Awikipedia%3Dhu%3ATesco%7Cbuilding%3Dretail%7Cfacebook%3Dhttps%3A//www.facebook.com/tescoaruhazak%7Cimport%3Dosm_poi_matchmaker%7Cinternet_access%3Dwlan%7Cinternet_access%3Afee%3Dno%7Cname%3DS-Market%7Copening_hours%3DMo-Sa%2006%3A00-21%3A00%3B%20Su%2000%3A00-00%3A00%3B%20PH%20off%7Coperator%3DTESCO-GLOBAL%20%C3%81ruh%C3%A1zak%20Zrt.%7Cpayment%3Acash%3Dyes%7Cpayment%3Adebit_cards%3Dyes%7Cref%3Avatin%3Ahu%3D10307078-2-44%7Cshop%3Dconvenience%7Csource%3Awww.tesco.hu%3Adate%3D2018-08-05%7Cwebsite%3Dhttps%3A//www.tesco.huhttps%3A//tesco.hu/aruhazak/aruhaz/tesco-expressz-gyor-bartok-bela-utca/%7Cyoutube%3Dhttps%3A//www.youtube.com/user/TescoMagyarorszag -->
  <way action="modify" changeset="1" id="160491512" timestamp="2017-12-25T16:16:19Z" uid="4579407" user="KAMI" version="5">
    <nd ref="2710132011"/>
    <nd ref="2710132012"/>
    <nd ref="1725488360"/>
    <nd ref="1725488357"/>
    <nd ref="2710132011"/>
    <tag k="addr:city" v="Győr"/>
    <tag k="addr:country" v="HU"/>
    <tag k="addr:housenumber" v="13"/>
    <tag k="addr:postcode" v="9023"/>
    <tag k="addr:street" v="Bartók Béla utca"/>
    <tag k="air_conditioning" v="yes"/>
    <tag k="alt_name" v="Tesco Expressz"/>
    <tag k="branch" v="Expressz Győr - Bartók Béla utca"/>
    <tag k="brand" v="Tesco"/>
    <tag k="brand:wikidata" v="Q487494"/>
    <tag k="brand:wikipedia" v="hu:Tesco"/>
    <tag k="building" v="retail"/>
    <tag k="facebook" v="https://www.facebook.com/tescoaruhazak"/>
    <tag k="import" v="osm_poi_matchmaker"/>
    <tag k="internet_access" v="wlan"/>
    <tag k="internet_access:fee" v="no"/>
    <tag k="name" v="S-Market"/>
    <tag k="opening_hours" v="Mo-Sa 06:00-21:00; Su 00:00-00:00; PH off"/>
    <tag k="operator" v="TESCO-GLOBAL Áruházak Zrt."/>
    <tag k="payment:cash" v="yes"/>
    <tag k="payment:debit_cards" v="yes"/>
    <tag k="ref:vatin:hu" v="10307078-2-44"/>
    <tag k="shop" v="convenience"/>
    <tag k="source:www.tesco.hu:date" v="2018-08-05"/>
    <tag k="website" v="https://www.tesco.huhttps://tesco.hu/aruhazak/aruhaz/tesco-expressz-gyor-bartok-bela-utca/"/>
    <tag k="youtube" v="https://www.youtube.com/user/TescoMagyarorszag"/>
  </way>
  <!-- OSM link: https://osm.org/way/243314923 -->
  <!-- Original coordinates: POINT (47.69258 17.66049) -->
  <!-- OSM <-> POI distance: 10.19239132 m-->
  <!-- Checker good: {not_in_water,standard_opening_hours}; bad {}-->
  <!-- Original tags: 'addr:city':'Győr'; 'addr:housenumber':'28'; 'addr:postcode':'9027'; 'addr:street':'Ipar utca'; 'name':'Tesco'; 'opening_hours':'Mo-Fr 06:00-21:00, Sa 06:00-16:00'; 'shop':'supermarket'; 'toilets:wheelchair':'no'; 'wheelchair':'no';  -->
  <!-- JOSM magic link: http://localhost:8111/load_object?new_layer=false&objects=w243314923&addtags=%7Caddr%3Acity%3DGy%C5%91r%7Caddr%3Acountry%3DHU%7Caddr%3Ahousenumber%3D28%7Caddr%3Apostcode%3D9027%7Caddr%3Astreet%3DIpar%20utca%7Cair_conditioning%3Dyes%7Calt_name%3DTesco%20Expressz%7Cbranch%3DExpressz%20Gy%C5%91r%20-%20Ipar%20utca%7Cbrand%3DTesco%7Cbrand%3Awikidata%3DQ487494%7Cbrand%3Awikipedia%3Dhu%3ATesco%7Cfacebook%3Dhttps%3A//www.facebook.com/tescoaruhazak%7Cimport%3Dosm_poi_matchmaker%7Cinternet_access%3Dwlan%7Cinternet_access%3Afee%3Dno%7Cname%3DS-Market%7Copening_hours%3DMo-Sa%2007%3A00-21%3A00%3B%20Su%2000%3A00-00%3A00%3B%20PH%20off%7Coperator%3DTESCO-GLOBAL%20%C3%81ruh%C3%A1zak%20Zrt.%7Cpayment%3Acash%3Dyes%7Cpayment%3Adebit_cards%3Dyes%7Cref%3Avatin%3Ahu%3D10307078-2-44%7Cshop%3Dconvenience%7Csource%3Awww.tesco.hu%3Adate%3D2018-08-05%7Ctoilets%3Awheelchair%3Dno%7Cwebsite%3Dhttps%3A//www.tesco.huhttps%3A//tesco.hu/aruhazak/aruhaz/tesco-expressz-gyor-ipar-utca/%7Cwheelchair%3Dno%7Cyoutube%3Dhttps%3A//www.youtube.com/user/TescoMagyarorszag -->
  <way action="modify" changeset="1" id="243314923" timestamp="2018-07-21T12:25:41Z" uid="4579407" user="KAMI" version="6">
    <nd ref="2507407645"/>
    <nd ref="2507407646"/>
    <nd ref="2507407647"/>
    <nd ref="2507407648"/>
    <nd ref="2507407645"/>
    <tag k="addr:city" v="Győr"/>
    <tag k="addr:country" v="HU"/>
    <tag k="addr:housenumber" v="28"/>
    <tag k="addr:postcode" v="9027"/>
    <tag k="addr:street" v="Ipar utca"/>
    <tag k="air_conditioning" v="yes"/>
    <tag k="alt_name" v="Tesco Expressz"/>
    <tag k="branch" v="Expressz Győr - Ipar utca"/>
    <tag k="brand" v="Tesco"/>
    <tag k="brand:wikidata" v="Q487494"/>
    <tag k="brand:wikipedia" v="hu:Tesco"/>
    <tag k="facebook" v="https://www.facebook.com/tescoaruhazak"/>
    <tag k="import" v="osm_poi_matchmaker"/>
    <tag k="internet_access" v="wlan"/>
    <tag k="internet_access:fee" v="no"/>
    <tag k="name" v="S-Market"/>
    <tag k="opening_hours" v="Mo-Sa 07:00-21:00; Su 00:00-00:00; PH off"/>
    <tag k="operator" v="TESCO-GLOBAL Áruházak Zrt."/>
    <tag k="payment:cash" v="yes"/>
    <tag k="payment:debit_cards" v="yes"/>
    <tag k="ref:vatin:hu" v="10307078-2-44"/>
    <tag k="shop" v="convenience"/>
    <tag k="source:www.tesco.hu:date" v="2018-08-05"/>
    <tag k="toilets:wheelchair" v="no"/>
    <tag k="website" v="https://www.tesco.huhttps://tesco.hu/aruhazak/aruhaz/tesco-expressz-gyor-ipar-utca/"/>
    <tag k="wheelchair" v="no"/>
    <tag k="youtube" v="https://www.youtube.com/user/TescoMagyarorszag"/>
  </way>
  <!-- OSM link: https://osm.org/node/3473677615 -->
  <!-- Original coordinates: POINT (47.68635 17.61824) -->
  <!-- OSM <-> POI distance: 79.93609757 m-->
  <!-- Checker good: {not_in_water,standard_opening_hours}; bad {}-->
  <!-- Original tags: 'name':'S-Market'; 'shop':'convenience'; 'toilets:wheelchair':'no'; 'wheelchair':'limited';  -->
  <!-- JOSM magic link: http://localhost:8111/load_object?new_layer=false&objects=n3473677615&addtags=%7Caddr%3Acity%3DGy%C5%91r%7Caddr%3Acountry%3DHU%7Caddr%3Ahousenumber%3D8%7Caddr%3Apostcode%3D9025%7Caddr%3Astreet%3DK%C3%B6ztelek%20utca%7Cair_conditioning%3Dyes%7Calt_name%3DTesco%20Expressz%7Cbranch%3DExpressz%20Gy%C5%91r%20-%20K%C3%B6ztelek%20utca%7Cbrand%3DTesco%7Cbrand%3Awikidata%3DQ487494%7Cbrand%3Awikipedia%3Dhu%3ATesco%7Cfacebook%3Dhttps%3A//www.facebook.com/tescoaruhazak%7Cimport%3Dosm_poi_matchmaker%7Cinternet_access%3Dwlan%7Cinternet_access%3Afee%3Dno%7Cname%3DS-Market%7Copening_hours%3DMo-Sa%2006%3A00-21%3A00%3B%20Su%2008%3A00-16%3A00%3B%20PH%20off%7Coperator%3DTESCO-GLOBAL%20%C3%81ruh%C3%A1zak%20Zrt.%7Cpayment%3Acash%3Dyes%7Cpayment%3Adebit_cards%3Dyes%7Cref%3Avatin%3Ahu%3D10307078-2-44%7Cshop%3Dconvenience%7Csource%3Awww.tesco.hu%3Adate%3D2018-08-05%7Ctoilets%3Awheelchair%3Dno%7Cwebsite%3Dhttps%3A//www.tesco.huhttps%3A//tesco.hu/aruhazak/aruhaz/tesco-expressz-gyor-koztelek-utca/%7Cwheelchair%3Dlimited%7Cyoutube%3Dhttps%3A//www.youtube.com/user/TescoMagyarorszag -->
  <node action="modify" changeset="1" id="3473677615" lat="47.686704394903" lon="17.6191690975474" timestamp="2017-10-03T06:24:50Z" uid="4579407" user="KAMI" version="3">
    <tag k="addr:city" v="Győr"/>
    <tag k="addr:country" v="HU"/>
    <tag k="addr:housenumber" v="8"/>
    <tag k="addr:postcode" v="9025"/>
    <tag k="addr:street" v="Köztelek utca"/>
    <tag k="air_conditioning" v="yes"/>
    <tag k="alt_name" v="Tesco Expressz"/>
    <tag k="branch" v="Expressz Győr - Köztelek utca"/>
    <tag k="brand" v="Tesco"/>
    <tag k="brand:wikidata" v="Q487494"/>
    <tag k="brand:wikipedia" v="hu:Tesco"/>
    <tag k="facebook" v="https://www.facebook.com/tescoaruhazak"/>
    <tag k="import" v="osm_poi_matchmaker"/>
    <tag k="internet_access" v="wlan"/>
    <tag k="internet_access:fee" v="no"/>
    <tag k="name" v="S-Market"/>
    <tag k="opening_hours" v="Mo-Sa 06:00-21:00; Su 08:00-16:00; PH off"/>
    <tag k="operator" v="TESCO-GLOBAL Áruházak Zrt."/>
    <tag k="payment:cash" v="yes"/>
    <tag k="payment:debit_cards" v="yes"/>
    <tag k="ref:vatin:hu" v="10307078-2-44"/>
    <tag k="shop" v="convenience"/>
    <tag k="source:www.tesco.hu:date" v="2018-08-05"/>
    <tag k="toilets:wheelchair" v="no"/>
    <tag k="website" v="https://www.tesco.huhttps://tesco.hu/aruhazak/aruhaz/tesco-expressz-gyor-koztelek-utca/"/>
    <tag k="wheelchair" v="limited"/>
    <tag k="youtube" v="https://www.youtube.com/user/TescoMagyarorszag"/>
  </node>
  <!-- OSM link: https://osm.org/node/3210031716 -->
  <!-- Original coordinates: POINT (47.69457 17.63028) -->
  <!-- OSM <-> POI distance: 77.63963392 m-->
  <!-- Checker good: {not_in_water,standard_opening_hours}; bad {}-->
  <!-- Original tags: 'addr:city':'Győr'; 'addr:housenumber':'21'; 'addr:postcode':'9026'; 'addr:street':'Hédervári út'; 'name':'Tesco Express'; 'opening_hours':'Mo-Sa 06:00-22:00'; 'operator':'Tesco-Global Áruházak Zrt'; 'shop':'supermarket'; 'wheelchair':'limited'; 'wheelchair:description':'Bejárat szélessége 145cm.Rámpa 12%-os ,1méter széles';  -->
  <!-- JOSM magic link: http://localhost:8111/load_object?new_layer=false&objects=n3210031716&addtags=%7Caddr%3Acity%3DGy%C5%91r%7Caddr%3Acountry%3DHU%7Caddr%3Ahousenumber%3D20%7Caddr%3Apostcode%3D9026%7Caddr%3Astreet%3DH%C3%A9derv%C3%A1ri%20utca%7Cair_conditioning%3Dyes%7Calt_name%3DTesco%20Expressz%7Cbranch%3DExpressz%20Gy%C5%91r%20-%20H%C3%A9derv%C3%A1ri%20%C3%BAt%7Cbrand%3DTesco%7Cbrand%3Awikidata%3DQ487494%7Cbrand%3Awikipedia%3Dhu%3ATesco%7Cfacebook%3Dhttps%3A//www.facebook.com/tescoaruhazak%7Cimport%3Dosm_poi_matchmaker%7Cinternet_access%3Dwlan%7Cinternet_access%3Afee%3Dno%7Cname%3DS-Market%7Copening_hours%3DMo-Sa%2006%3A00-22%3A00%3B%20Su%2008%3A00-16%3A00%3B%20PH%20off%7Coperator%3DTESCO-GLOBAL%20%C3%81ruh%C3%A1zak%20Zrt.%7Cpayment%3Acash%3Dyes%7Cpayment%3Adebit_cards%3Dyes%7Cref%3Avatin%3Ahu%3D10307078-2-44%7Cshop%3Dconvenience%7Csource%3Awww.tesco.hu%3Adate%3D2018-08-05%7Cwebsite%3Dhttps%3A//www.tesco.huhttps%3A//tesco.hu/aruhazak/aruhaz/tesco-expressz-gyor-hedervari-ut/%7Cwheelchair%3Dlimited%7Cwheelchair%3Adescription%3DBej%C3%A1rat%20sz%C3%A9less%C3%A9ge%20145cm.R%C3%A1mpa%2012%25-os%20%2C1m%C3%A9ter%20sz%C3%A9les%7Cyoutube%3Dhttps%3A//www.youtube.com/user/TescoMagyarorszag -->
  <node action="modify" changeset="1" id="3210031716" lat="47.6952668949027" lon="17.6303440975458" timestamp="2015-11-15T12:25:38Z" uid="4579407" user="KAMI" version="6">
    <tag k="addr:city" v="Győr"/>
    <tag k="addr:country" v="HU"/>
    <tag k="addr:housenumber" v="20"/>
    <tag k="addr:postcode" v="9026"/>
    <tag k="addr:street" v="Hédervári utca"/>
    <tag k="air_conditioning" v="yes"/>
    <tag k="alt_name" v="Tesco Expressz"/>
    <tag k="branch" v="Expressz Győr - Hédervári út"/>
    <tag k="brand" v="Tesco"/>
    <tag k="brand:wikidata" v="Q487494"/>
    <tag k="brand:wikipedia" v="hu:Tesco"/>
    <tag k="facebook" v="https://www.facebook.com/tescoaruhazak"/>
    <tag k="import" v="osm_poi_matchmaker"/>
    <tag k="internet_access" v="wlan"/>
    <tag k="internet_access:fee" v="no"/>
    <tag k="name" v="S-Market"/>
    <tag k="opening_hours" v="Mo-Sa 06:00-22:00; Su 08:00-16:00; PH off"/>
    <tag k="operator" v="TESCO-GLOBAL Áruházak Zrt."/>
    <tag k="payment:cash" v="yes"/>
    <tag k="payment:debit_cards" v="yes"/>
    <tag k="ref:vatin:hu" v="10307078-2-44"/>
    <tag k="shop" v="convenience"/>
    <tag k="source:www.tesco.hu:date" v="2018-08-05"/>
    <tag k="website" v="https://www.tesco.huhttps://tesco.hu/aruhazak/aruhaz/tesco-expressz-gyor-hedervari-ut/"/>
    <tag k="wheelchair" v="limited"/>
    <tag k="wheelchair:description" v="Bejárat szélessége 145cm.Rámpa 12%-os ,1méter széles"/>
    <tag k="youtube" v="https://www.youtube.com/user/TescoMagyarorszag"/>
  </node>
  <!-- OSM link: https://osm.org/node/2425935283 -->
  <!-- Original coordinates: POINT (47.85557 17.27842) -->
  <!-- OSM <-> POI distance: 180.10926376 m-->
  <!-- Checker good: {not_in_water,standard_opening_hours}; bad {}-->
  <!-- Original tags: 'addr:city':'Mosonmagyaróvár'; 'addr:housenumber':'96'; 'addr:postcode':'9200'; 'addr:street':'Szent István király út'; 'name':'Tesco Market'; 'shop':'supermarket'; 'toilets:wheelchair':'no'; 'wheelchair':'yes';  -->
  <!-- JOSM magic link: http://localhost:8111/load_object?new_layer=false&objects=n2425935283&addtags=%7Caddr%3Acity%3DMosonmagyar%C3%B3v%C3%A1r%7Caddr%3Acountry%3DHU%7Caddr%3Ahousenumber%3D96%7Caddr%3Apostcode%3D9200%7Caddr%3Astreet%3DSzent%20I.%20kir.%20utca%7Cair_conditioning%3Dyes%7Calt_name%3DTesco%20Expressz%7Cbranch%3DExpressz%20M%C3%B3v%C3%A1r%20-%20Szent%20I.%20kir.%20utca%7Cbrand%3DTesco%7Cbrand%3Awikidata%3DQ487494%7Cbrand%3Awikipedia%3Dhu%3ATesco%7Cfacebook%3Dhttps%3A//www.facebook.com/tescoaruhazak%7Cimport%3Dosm_poi_matchmaker%7Cinternet_access%3Dwlan%7Cinternet_access%3Afee%3Dno%7Cname%3DS-Market%7Copening_hours%3DMo-Sa%2006%3A00-21%3A00%3B%20Su%2008%3A00-16%3A00%3B%20PH%20off%7Coperator%3DTESCO-GLOBAL%20%C3%81ruh%C3%A1zak%20Zrt.%7Cpayment%3Acash%3Dyes%7Cpayment%3Adebit_cards%3Dyes%7Cref%3Avatin%3Ahu%3D10307078-2-44%7Cshop%3Dconvenience%7Csource%3Awww.tesco.hu%3Adate%3D2018-08-05%7Ctoilets%3Awheelchair%3Dno%7Cwebsite%3Dhttps%3A//www.tesco.huhttps%3A//tesco.hu/aruhazak/aruhaz/tesco-expressz-movar-szent-i-kir-utca/%7Cwheelchair%3Dyes%7Cyoutube%3Dhttps%3A//www.youtube.com/user/TescoMagyarorszag -->
  <node action="modify" changeset="1" id="2425935283" lat="47.8568060948961" lon="17.276859997595" timestamp="2018-05-14T10:14:08Z" uid="4579407" user="KAMI" version="4">
    <tag k="addr:city" v="Mosonmagyaróvár"/>
    <tag k="addr:country" v="HU"/>
    <tag k="addr:housenumber" v="96"/>
    <tag k="addr:postcode" v="9200"/>
    <tag k="addr:street" v="Szent I. kir. utca"/>
    <tag k="air_conditioning" v="yes"/>
    <tag k="alt_name" v="Tesco Expressz"/>
    <tag k="branch" v="Expressz Móvár - Szent I. kir. utca"/>
    <tag k="brand" v="Tesco"/>
    <tag k="brand:wikidata" v="Q487494"/>
    <tag k="brand:wikipedia" v="hu:Tesco"/>
    <tag k="facebook" v="https://www.facebook.com/tescoaruhazak"/>
    <tag k="import" v="osm_poi_matchmaker"/>
    <tag k="internet_access" v="wlan"/>
    <tag k="internet_access:fee" v="no"/>
    <tag k="name" v="S-Market"/>
    <tag k="opening_hours" v="Mo-Sa 06:00-21:00; Su 08:00-16:00; PH off"/>
    <tag k="operator" v="TESCO-GLOBAL Áruházak Zrt."/>
    <tag k="payment:cash" v="yes"/>
    <tag k="payment:debit_cards" v="yes"/>
    <tag k="ref:vatin:hu" v="10307078-2-44"/>
    <tag k="shop" v="convenience"/>
    <tag k="source:www.tesco.hu:date" v="2018-08-05"/>
    <tag k="toilets:wheelchair" v="no"/>
    <tag k="website" v="https://www.tesco.huhttps://tesco.hu/aruhazak/aruhaz/tesco-expressz-movar-szent-i-kir-utca/"/>
    <tag k="wheelchair" v="yes"/>
    <tag k="youtube" v="https://www.youtube.com/user/TescoMagyarorszag"/>
  </node>
  <!-- OSM link: https://osm.org/node/971131151 -->
  <!-- Original coordinates: POINT (47.86276 17.27494) -->
  <!-- OSM <-> POI distance: 49.99331906 m-->
  <!-- Checker good: {not_in_water,standard_opening_hours}; bad {}-->
  <!-- Original tags: 'name':'S-Market'; 'shop':'convenience';  -->
  <!-- JOSM magic link: http://localhost:8111/load_object?new_layer=false&objects=n971131151&addtags=%7Caddr%3Acity%3DMosonmagyar%C3%B3v%C3%A1r%7Caddr%3Acountry%3DHU%7Caddr%3Ahousenumber%3D44%7Caddr%3Apostcode%3D9200%7Caddr%3Astreet%3DSzent%20I.%20kir.%20utca%7Cair_conditioning%3Dyes%7Calt_name%3DTesco%20Expressz%7Cbranch%3DExpressz%20M%C3%B3v%C3%A1r%20-%20Szent%20I.%20kir.%20utca%7Cbrand%3DTesco%7Cbrand%3Awikidata%3DQ487494%7Cbrand%3Awikipedia%3Dhu%3ATesco%7Cfacebook%3Dhttps%3A//www.facebook.com/tescoaruhazak%7Cimport%3Dosm_poi_matchmaker%7Cinternet_access%3Dwlan%7Cinternet_access%3Afee%3Dno%7Cname%3DS-Market%7Copening_hours%3DMo-Sa%2006%3A00-21%3A00%3B%20Su%2008%3A00-16%3A00%3B%20PH%20off%7Coperator%3DTESCO-GLOBAL%20%C3%81ruh%C3%A1zak%20Zrt.%7Cpayment%3Acash%3Dyes%7Cpayment%3Adebit_cards%3Dyes%7Cref%3Avatin%3Ahu%3D10307078-2-44%7Cshop%3Dconvenience%7Csource%3Awww.tesco.hu%3Adate%3D2018-08-05%7Cwebsite%3Dhttps%3A//www.tesco.huhttps%3A//tesco.hu/aruhazak/aruhaz/tesco-expressz-movar-szent-i-kir-utca/%7Cyoutube%3Dhttps%3A//www.youtube.com/user/TescoMagyarorszag -->
  <node action="modify" changeset="1" id="971131151" lat="47.8630733948958" lon="17.2744594975954" timestamp="2018-07-21T12:40:01Z" uid="4579407" user="KAMI" version="2">
    <tag k="addr:city" v="Mosonmagyaróvár"/>
    <tag k="addr:country" v="HU"/>
    <tag k="addr:housenumber" v="44"/>
    <tag k="addr:postcode" v="9200"/>
    <tag k="addr:street" v="Szent I. kir. utca"/>
    <tag k="air_conditioning" v="yes"/>
    <tag k="alt_name" v="Tesco Expressz"/>
    <tag k="branch" v="Expressz Móvár - Szent I. kir. utca"/>
    <tag k="brand" v="Tesco"/>
    <tag k="brand:wikidata" v="Q487494"/>
    <tag k="brand:wikipedia" v="hu:Tesco"/>
    <tag k="facebook" v="https://www.facebook.com/tescoaruhazak"/>
    <tag k="import" v="osm_poi_matchmaker"/>
    <tag k="internet_access" v="wlan"/>
    <tag k="internet_access:fee" v="no"/>
    <tag k="name" v="S-Market"/>
    <tag k="opening_hours" v="Mo-Sa 06:00-21:00; Su 08:00-16:00; PH off"/>
    <tag k="operator" v="TESCO-GLOBAL Áruházak Zrt."/>
    <tag k="payment:cash" v="yes"/>
    <tag k="payment:debit_cards" v="yes"/>
    <tag k="ref:vatin:hu" v="10307078-2-44"/>
    <tag k="shop" v="convenience"/>
    <tag k="source:www.tesco.hu:date" v="2018-08-05"/>
    <tag k="website" v="https://www.tesco.huhttps://tesco.hu/aruhazak/aruhaz/tesco-expressz-movar-szent-i-kir-utca/"/>
    <tag k="youtube" v="https://www.youtube.com/user/TescoMagyarorszag"/>
  </node>
  <!-- OSM link: https://osm.org/way/301419137 -->
  <!-- Original coordinates: POINT (47.67471 16.58269) -->
  <!-- OSM <-> POI distance: 25.73132224 m-->
  <!-- Checker good: {not_in_water,standard_opening_hours}; bad {}-->
  <!-- Original tags: 'addr:city':'Sopron'; 'addr:housenumber':'1'; 'addr:postcode':'9400'; 'addr:street':'József Attila utca'; 'building':'retail'; 'name':'S-Market'; 'opening_hours':'Mo-Fr 06:00-21:00;Sa-Su 06:00-18:00'; 'shop':'supermarket';  -->
  <!-- JOSM magic link: http://localhost:8111/load_object?new_layer=false&objects=w301419137&addtags=%7Caddr%3Acity%3DSopron%7Caddr%3Acountry%3DHU%7Caddr%3Ahousenumber%3D1%7Caddr%3Apostcode%3D9400%7Caddr%3Astreet%3DJ%C3%B3zsef%20A.%20utca%7Cair_conditioning%3Dyes%7Calt_name%3DTesco%20Expressz%7Cbranch%3DExpressz%20Sopron%20-%20J%C3%B3zsef%20Attila%20utca%7Cbrand%3DTesco%7Cbrand%3Awikidata%3DQ487494%7Cbrand%3Awikipedia%3Dhu%3ATesco%7Cbuilding%3Dretail%7Cfacebook%3Dhttps%3A//www.facebook.com/tescoaruhazak%7Cimport%3Dosm_poi_matchmaker%7Cinternet_access%3Dwlan%7Cinternet_access%3Afee%3Dno%7Cname%3DS-Market%7Copening_hours%3DMo-Sa%2006%3A00-21%3A00%3B%20Su%2008%3A00-16%3A00%3B%20PH%20off%7Coperator%3DTESCO-GLOBAL%20%C3%81ruh%C3%A1zak%20Zrt.%7Cpayment%3Acash%3Dyes%7Cpayment%3Adebit_cards%3Dyes%7Cref%3Avatin%3Ahu%3D10307078-2-44%7Cshop%3Dconvenience%7Csource%3Awww.tesco.hu%3Adate%3D2018-08-05%7Cwebsite%3Dhttps%3A//www.tesco.huhttps%3A//tesco.hu/aruhazak/aruhaz/tesco-expressz-sopron-jozsef-attila-utca/%7Cyoutube%3Dhttps%3A//www.youtube.com/user/TescoMagyarorszag -->
  <way action="modify" changeset="1" id="301419137" timestamp="2014-09-02T01:46:58Z" uid="4579407" user="KAMI" version="2">
    <nd ref="3054666797"/>
    <nd ref="3054666780"/>
    <nd ref="3054666789"/>
    <nd ref="3054666790"/>
    <nd ref="3054666797"/>
    <tag k="addr:city" v="Sopron"/>
    <tag k="addr:country" v="HU"/>
    <tag k="addr:housenumber" v="1"/>
    <tag k="addr:postcode" v="9400"/>
    <tag k="addr:street" v="József A. utca"/>
    <tag k="air_conditioning" v="yes"/>
    <tag k="alt_name" v="Tesco Expressz"/>
    <tag k="branch" v="Expressz Sopron - József Attila utca"/>
    <tag k="brand" v="Tesco"/>
    <tag k="brand:wikidata" v="Q487494"/>
    <tag k="brand:wikipedia" v="hu:Tesco"/>
    <tag k="building" v="retail"/>
    <tag k="facebook" v="https://www.facebook.com/tescoaruhazak"/>
    <tag k="import" v="osm_poi_matchmaker"/>
    <tag k="internet_access" v="wlan"/>
    <tag k="internet_access:fee" v="no"/>
    <tag k="name" v="S-Market"/>
    <tag k="opening_hours" v="Mo-Sa 06:00-21:00; Su 08:00-16:00; PH off"/>
    <tag k="operator" v="TESCO-GLOBAL Áruházak Zrt."/>
    <tag k="payment:cash" v="yes"/>
    <tag k="payment:debit_cards" v="yes"/>
    <tag k="ref:vatin:hu" v="10307078-2-44"/>
    <tag k="shop" v="convenience"/>
    <tag k="source:www.tesco.hu:date" v="2018-08-05"/>
    <tag k="website" v="https://www.tesco.huhttps://tesco.hu/aruhazak/aruhaz/tesco-expressz-sopron-jozsef-attila-utca/"/>
    <tag k="youtube" v="https://www.youtube.com/user/TescoMagyarorszag"/>
  </way>
  <!-- OSM link: https://osm.org/way/301373576 -->
  <!-- Original coordinates: POINT (47.67949 16.59297) -->
  <!-- OSM <-> POI distance: 33.37566616 m-->
  <!-- Checker good: {not_in_water,standard_opening_hours}; bad {}-->
  <!-- Original tags: 'addr:city':'Sopron'; 'addr:housenumber':'3'; 'addr:postcode':'9400'; 'addr:street':'Király Jenő utca'; 'building':'retail'; 'name':'S-Market'; 'opening_hours':'Mo-Fr 06:00-21:00;Sa-Su 06:00-18:00'; 'shop':'supermarket';  -->
  <!-- JOSM magic link: http://localhost:8111/load_object?new_layer=false&objects=w301373576&addtags=%7Caddr%3Acity%3DSopron%7Caddr%3Acountry%3DHU%7Caddr%3Ahousenumber%3D3%7Caddr%3Apostcode%3D9400%7Caddr%3Astreet%3DKir%C3%A1ly%20J.%20utca%7Cair_conditioning%3Dyes%7Calt_name%3DTesco%20Expressz%7Cbranch%3DExpressz%20Sopron%20-%20Kir%C3%A1ly%20J.%20utca%7Cbrand%3DTesco%7Cbrand%3Awikidata%3DQ487494%7Cbrand%3Awikipedia%3Dhu%3ATesco%7Cbuilding%3Dretail%7Cfacebook%3Dhttps%3A//www.facebook.com/tescoaruhazak%7Cimport%3Dosm_poi_matchmaker%7Cinternet_access%3Dwlan%7Cinternet_access%3Afee%3Dno%7Cname%3DS-Market%7Copening_hours%3DMo-Sa%2006%3A00-21%3A00%3B%20Su%2008%3A00-16%3A00%3B%20PH%20off%7Coperator%3DTESCO-GLOBAL%20%C3%81ruh%C3%A1zak%20Zrt.%7Cpayment%3Acash%3Dyes%7Cpayment%3Adebit_cards%3Dyes%7Cref%3Avatin%3Ahu%3D10307078-2-44%7Cshop%3Dconvenience%7Csource%3Awww.tesco.hu%3Adate%3D2018-08-05%7Cwebsite%3Dhttps%3A//www.tesco.huhttps%3A//tesco.hu/aruhazak/aruhaz/tesco-expressz-sopron-kiraly-j-utca/%7Cyoutube%3Dhttps%3A//www.youtube.com/user/TescoMagyarorszag -->
  <way action="modify" changeset="1" id="301373576" timestamp="2014-09-02T01:44:45Z" uid="4579407" user="KAMI" version="2">
    <nd ref="3054308763"/>
    <nd ref="3054308764"/>
    <nd ref="3054308765"/>
    <nd ref="3054308766"/>
    <nd ref="3054308763"/>
    <tag k="addr:city" v="Sopron"/>
    <tag k="addr:country" v="HU"/>
    <tag k="addr:housenumber" v="3"/>
    <tag k="addr:postcode" v="9400"/>
    <tag k="addr:street" v="Király J. utca"/>
    <tag k="air_conditioning" v="yes"/>
    <tag k="alt_name" v="Tesco Expressz"/>
    <tag k="branch" v="Expressz Sopron - Király J. utca"/>
    <tag k="brand" v="Tesco"/>
    <tag k="brand:wikidata" v="Q487494"/>
    <tag k="brand:wikipedia" v="hu:Tesco"/>
    <tag k="building" v="retail"/>
    <tag k="facebook" v="https://www.facebook.com/tescoaruhazak"/>
    <tag k="import" v="osm_poi_matchmaker"/>
    <tag k="internet_access" v="wlan"/>
    <tag k="internet_access:fee" v="no"/>
    <tag k="name" v="S-Market"/>
    <tag k="opening_hours" v="Mo-Sa 06:00-21:00; Su 08:00-16:00; PH off"/>
    <tag k="operator" v="TESCO-GLOBAL Áruházak Zrt."/>
    <tag k="payment:cash" v="yes"/>
    <tag k="payment:debit_cards" v="yes"/>
    <tag k="ref:vatin:hu" v="10307078-2-44"/>
    <tag k="shop" v="convenience"/>
    <tag k="source:www.tesco.hu:date" v="2018-08-05"/>
    <tag k="website" v="https://www.tesco.huhttps://tesco.hu/aruhazak/aruhaz/tesco-expressz-sopron-kiraly-j-utca/"/>
    <tag k="youtube" v="https://www.youtube.com/user/TescoMagyarorszag"/>
  </way>
  <!-- OSM link: https://osm.org/way/301373576 -->
  <!-- Original coordinates: POINT (47.68508 16.5979) -->
  <!-- OSM <-> POI distance: 751.92216135 m-->
  <!-- Checker good: {not_in_water,standard_opening_hours}; bad {}-->
  <!-- Original tags: 'addr:city':'Sopron'; 'addr:housenumber':'3'; 'addr:postcode':'9400'; 'addr:street':'Király Jenő utca'; 'building':'retail'; 'name':'S-Market'; 'opening_hours':'Mo-Fr 06:00-21:00;Sa-Su 06:00-18:00'; 'shop':'supermarket';  -->
  <!-- JOSM magic link: http://localhost:8111/load_object?new_layer=false&objects=w301373576&addtags=%7Caddr%3Acity%3DSopron%7Caddr%3Acountry%3DHU%7Caddr%3Ahousenumber%3D9%7Caddr%3Apostcode%3D9400%7Caddr%3Astreet%3DV%C3%A9gfordulat%20utca%7Cair_conditioning%3Dyes%7Calt_name%3DTesco%20Expressz%7Cbranch%3DExpressz%20Sopron%20-%20V%C3%A9gfordulat%20utca%7Cbrand%3DTesco%7Cbrand%3Awikidata%3DQ487494%7Cbrand%3Awikipedia%3Dhu%3ATesco%7Cbuilding%3Dretail%7Cfacebook%3Dhttps%3A//www.facebook.com/tescoaruhazak%7Cimport%3Dosm_poi_matchmaker%7Cinternet_access%3Dwlan%7Cinternet_access%3Afee%3Dno%7Cname%3DS-Market%7Copening_hours%3DMo-Sa%2007%3A00-21%3A00%3B%20Su%2000%3A00-00%3A00%3B%20PH%20off%7Coperator%3DTESCO-GLOBAL%20%C3%81ruh%C3%A1zak%20Zrt.%7Cpayment%3Acash%3Dyes%7Cpayment%3Adebit_cards%3Dyes%7Cref%3Avatin%3Ahu%3D10307078-2-44%7Cshop%3Dconvenience%7Csource%3Awww.tesco.hu%3Adate%3D2018-08-05%7Cwebsite%3Dhttps%3A//www.tesco.huhttps%3A//tesco.hu/aruhazak/aruhaz/tesco-expressz-sopron-vegfordulat-utca/%7Cyoutube%3Dhttps%3A//www.youtube.com/user/TescoMagyarorszag -->
  <way action="modify" changeset="1" id="301373576" timestamp="2014-09-02T01:44:45Z" uid="4579407" user="KAMI" version="2">
    <nd ref="3054308763"/>
    <nd ref="3054308764"/>
    <nd ref="3054308765"/>
    <nd ref="3054308766"/>
    <nd ref="3054308763"/>
    <tag k="addr:city" v="Sopron"/>
    <tag k="addr:country" v="HU"/>
    <tag k="addr:housenumber" v="9"/>
    <tag k="addr:postcode" v="9400"/>
    <tag k="addr:street" v="Végfordulat utca"/>
    <tag k="air_conditioning" v="yes"/>
    <tag k="alt_name" v="Tesco Expressz"/>
    <tag k="branch" v="Expressz Sopron - Végfordulat utca"/>
    <tag k="brand" v="Tesco"/>
    <tag k="brand:wikidata" v="Q487494"/>
    <tag k="brand:wikipedia" v="hu:Tesco"/>
    <tag k="building" v="retail"/>
    <tag k="facebook" v="https://www.facebook.com/tescoaruhazak"/>
    <tag k="import" v="osm_poi_matchmaker"/>
    <tag k="internet_access" v="wlan"/>
    <tag k="internet_access:fee" v="no"/>
    <tag k="name" v="S-Market"/>
    <tag k="opening_hours" v="Mo-Sa 07:00-21:00; Su 00:00-00:00; PH off"/>
    <tag k="operator" v="TESCO-GLOBAL Áruházak Zrt."/>
    <tag k="payment:cash" v="yes"/>
    <tag k="payment:debit_cards" v="yes"/>
    <tag k="ref:vatin:hu" v="10307078-2-44"/>
    <tag k="shop" v="convenience"/>
    <tag k="source:www.tesco.hu:date" v="2018-08-05"/>
    <tag k="website" v="https://www.tesco.huhttps://tesco.hu/aruhazak/aruhaz/tesco-expressz-sopron-vegfordulat-utca/"/>
    <tag k="youtube" v="https://www.youtube.com/user/TescoMagyarorszag"/>
  </way>
  <!-- OSM link: https://osm.org/way/301373576 -->
  <!-- Original coordinates: POINT (47.68343 16.59169) -->
  <!-- OSM <-> POI distance: 480.62045239 m-->
  <!-- Checker good: {not_in_water,standard_opening_hours}; bad {}-->
  <!-- Original tags: 'addr:city':'Sopron'; 'addr:housenumber':'3'; 'addr:postcode':'9400'; 'addr:street':'Király Jenő utca'; 'building':'retail'; 'name':'S-Market'; 'opening_hours':'Mo-Fr 06:00-21:00;Sa-Su 06:00-18:00'; 'shop':'supermarket';  -->
  <!-- JOSM magic link: http://localhost:8111/load_object?new_layer=false&objects=w301373576&addtags=%7Caddr%3Acity%3DSopron%7Caddr%3Acountry%3DHU%7Caddr%3Ahousenumber%3D8%7Caddr%3Apostcode%3D9400%7Caddr%3Astreet%3DH%C3%A1ts%C3%B3kapu.%20utca%7Cair_conditioning%3Dyes%7Calt_name%3DTesco%20Expressz%7Cbranch%3DExpressz%20Sopron%20-%20H%C3%A1ts%C3%B3kapu%20utca%7Cbrand%3DTesco%7Cbrand%3Awikidata%3DQ487494%7Cbrand%3Awikipedia%3Dhu%3ATesco%7Cbuilding%3Dretail%7Cfacebook%3Dhttps%3A//www.facebook.com/tescoaruhazak%7Cimport%3Dosm_poi_matchmaker%7Cinternet_access%3Dwlan%7Cinternet_access%3Afee%3Dno%7Cname%3DS-Market%7Copening_hours%3DMo-Sa%2006%3A00-21%3A00%3B%20Su%2008%3A00-16%3A00%3B%20PH%20off%7Coperator%3DTESCO-GLOBAL%20%C3%81ruh%C3%A1zak%20Zrt.%7Cpayment%3Acash%3Dyes%7Cpayment%3Adebit_cards%3Dyes%7Cref%3Avatin%3Ahu%3D10307078-2-44%7Cshop%3Dconvenience%7Csource%3Awww.tesco.hu%3Adate%3D2018-08-05%7Cwebsite%3Dhttps%3A//www.tesco.huhttps%3A//tesco.hu/aruhazak/aruhaz/tesco-expressz-sopron-hatsokapu-utca/%7Cyoutube%3Dhttps%3A//www.youtube.com/user/TescoMagyarorszag -->
  <way action="modify" changeset="1" id="301373576" timestamp="2014-09-02T01:44:45Z" uid="4579407" user="KAMI" version="2">
    <nd ref="3054308763"/>
    <nd ref="3054308764"/>
    <nd ref="3054308765"/>
    <nd ref="3054308766"/>
    <nd ref="3054308763"/>
    <tag k="addr:city" v="Sopron"/>
    <tag k="addr:country" v="HU"/>
    <tag k="addr:housenumber" v="8"/>
    <tag k="addr:postcode" v="9400"/>
    <tag k="addr:street" v="Hátsókapu. utca"/>
    <tag k="air_conditioning" v="yes"/>
    <tag k="alt_name" v="Tesco Expressz"/>
    <tag k="branch" v="Expressz Sopron - Hátsókapu utca"/>
    <tag k="brand" v="Tesco"/>
    <tag k="brand:wikidata" v="Q487494"/>
    <tag k="brand:wikipedia" v="hu:Tesco"/>
    <tag k="building" v="retail"/>
    <tag k="facebook" v="https://www.facebook.com/tescoaruhazak"/>
    <tag k="import" v="osm_poi_matchmaker"/>
    <tag k="internet_access" v="wlan"/>
    <tag k="internet_access:fee" v="no"/>
    <tag k="name" v="S-Market"/>
    <tag k="opening_hours" v="Mo-Sa 06:00-21:00; Su 08:00-16:00; PH off"/>
    <tag k="operator" v="TESCO-GLOBAL Áruházak Zrt."/>
    <tag k="payment:cash" v="yes"/>
    <tag k="payment:debit_cards" v="yes"/>
    <tag k="ref:vatin:hu" v="10307078-2-44"/>
    <tag k="shop" v="convenience"/>
    <tag k="source:www.tesco.hu:date" v="2018-08-05"/>
    <tag k="website" v="https://www.tesco.huhttps://tesco.hu/aruhazak/aruhaz/tesco-expressz-sopron-hatsokapu-utca/"/>
    <tag k="youtube" v="https://www.youtube.com/user/TescoMagyarorszag"/>
  </way>
  <!-- OSM link: https://osm.org/way/138442332 -->
  <!-- Original coordinates: POINT (47.68852 16.58626) -->
  <!-- OSM <-> POI distance: 65.2745754 m-->
  <!-- Checker good: {not_in_water,standard_opening_hours}; bad {}-->
  <!-- Original tags: 'addr:city':'Sopron'; 'addr:housenumber':'11'; 'addr:postcode':'9400'; 'addr:street':'Lackner Kristóf utca'; 'building':'retail'; 'name':'S-Market'; 'opening_hours':'Mo-Fr 06:00-21:00;Sa-Su 06:00-18:00'; 'shop':'supermarket'; 'wheelchair':'yes';  -->
  <!-- JOSM magic link: http://localhost:8111/load_object?new_layer=false&objects=w138442332&addtags=%7Caddr%3Acity%3DSopron%7Caddr%3Acountry%3DHU%7Caddr%3Ahousenumber%3D11%7Caddr%3Apostcode%3D9400%7Caddr%3Astreet%3DLackner%20K.%20utca%7Cair_conditioning%3Dyes%7Calt_name%3DTesco%20Expressz%7Cbranch%3DExpressz%20Sopron%20-%20Lackner%20K.%20utca%7Cbrand%3DTesco%7Cbrand%3Awikidata%3DQ487494%7Cbrand%3Awikipedia%3Dhu%3ATesco%7Cbuilding%3Dretail%7Cfacebook%3Dhttps%3A//www.facebook.com/tescoaruhazak%7Cimport%3Dosm_poi_matchmaker%7Cinternet_access%3Dwlan%7Cinternet_access%3Afee%3Dno%7Cname%3DS-Market%7Copening_hours%3DMo-Sa%2006%3A00-21%3A00%3B%20Su%2000%3A00-00%3A00%3B%20PH%20off%7Coperator%3DTESCO-GLOBAL%20%C3%81ruh%C3%A1zak%20Zrt.%7Cpayment%3Acash%3Dyes%7Cpayment%3Adebit_cards%3Dyes%7Cref%3Avatin%3Ahu%3D10307078-2-44%7Cshop%3Dconvenience%7Csource%3Awww.tesco.hu%3Adate%3D2018-08-05%7Cwebsite%3Dhttps%3A//www.tesco.huhttps%3A//tesco.hu/aruhazak/aruhaz/tesco-expressz-sopron-lackner-k-utca/%7Cwheelchair%3Dyes%7Cyoutube%3Dhttps%3A//www.youtube.com/user/TescoMagyarorszag -->
  <way action="modify" changeset="1" id="138442332" timestamp="2017-09-11T06:07:31Z" uid="4579407" user="KAMI" version="3">
    <nd ref="1517944945"/>
    <nd ref="1517944887"/>
    <nd ref="1517944905"/>
    <nd ref="1517944892"/>
    <nd ref="1517944945"/>
    <tag k="addr:city" v="Sopron"/>
    <tag k="addr:country" v="HU"/>
    <tag k="addr:housenumber" v="11"/>
    <tag k="addr:postcode" v="9400"/>
    <tag k="addr:street" v="Lackner K. utca"/>
    <tag k="air_conditioning" v="yes"/>
    <tag k="alt_name" v="Tesco Expressz"/>
    <tag k="branch" v="Expressz Sopron - Lackner K. utca"/>
    <tag k="brand" v="Tesco"/>
    <tag k="brand:wikidata" v="Q487494"/>
    <tag k="brand:wikipedia" v="hu:Tesco"/>
    <tag k="building" v="retail"/>
    <tag k="facebook" v="https://www.facebook.com/tescoaruhazak"/>
    <tag k="import" v="osm_poi_matchmaker"/>
    <tag k="internet_access" v="wlan"/>
    <tag k="internet_access:fee" v="no"/>
    <tag k="name" v="S-Market"/>
    <tag k="opening_hours" v="Mo-Sa 06:00-21:00; Su 00:00-00:00; PH off"/>
    <tag k="operator" v="TESCO-GLOBAL Áruházak Zrt."/>
    <tag k="payment:cash" v="yes"/>
    <tag k="payment:debit_cards" v="yes"/>
    <tag k="ref:vatin:hu" v="10307078-2-44"/>
    <tag k="shop" v="convenience"/>
    <tag k="source:www.tesco.hu:date" v="2018-08-05"/>
    <tag k="website" v="https://www.tesco.huhttps://tesco.hu/aruhazak/aruhaz/tesco-expressz-sopron-lackner-k-utca/"/>
    <tag k="wheelchair" v="yes"/>
    <tag k="youtube" v="https://www.youtube.com/user/TescoMagyarorszag"/>
  </way>
  <!-- OSM link: https://osm.org/node/3456417480 -->
  <!-- Original coordinates: POINT (47.89598 17.20989) -->
  <!-- OSM <-> POI distance: 200.63334614 m-->
  <!-- Checker good: {not_in_water,standard_opening_hours}; bad {}-->
  <!-- Original tags: 'fixme':'verify'; 'name':'S-Market'; 'shop':'convenience'; 'source':'route4u'; 'source:date':'2011-02-20'; 'toilets:wheelchair':'limited'; 'url':'http://turistautak.hu/poi.php?id=47577'; 'wheelchair':'yes';  -->
  <!-- JOSM magic link: http://localhost:8111/load_object?new_layer=false&objects=n3456417480&addtags=%7Caddr%3Acity%3DLev%C3%A9l%7Caddr%3Acountry%3DHU%7Caddr%3Ahousenumber%3D84%7Caddr%3Apostcode%3D9221%7Caddr%3Astreet%3DSz%C3%B6vetkezet%20utca%7Cair_conditioning%3Dyes%7Calt_name%3DTesco%20Expressz%7Cbranch%3DExpressz%20Lev%C3%A9l%20-%20Sz%C3%B6vetkezet%20utca%7Cbrand%3DTesco%7Cbrand%3Awikidata%3DQ487494%7Cbrand%3Awikipedia%3Dhu%3ATesco%7Cfacebook%3Dhttps%3A//www.facebook.com/tescoaruhazak%7Cfixme%3Dverify%7Cimport%3Dosm_poi_matchmaker%7Cinternet_access%3Dwlan%7Cinternet_access%3Afee%3Dno%7Cname%3DS-Market%7Copening_hours%3DMo-Sa%2006%3A00-21%3A00%3B%20Su%2008%3A00-16%3A00%3B%20PH%20off%7Coperator%3DTESCO-GLOBAL%20%C3%81ruh%C3%A1zak%20Zrt.%7Cpayment%3Acash%3Dyes%7Cpayment%3Adebit_cards%3Dyes%7Cref%3Avatin%3Ahu%3D10307078-2-44%7Cshop%3Dconvenience%7Csource%3Droute4u%7Csource%3Adate%3D2011-02-20%7Csource%3Awww.tesco.hu%3Adate%3D2018-08-05%7Ctoilets%3Awheelchair%3Dlimited%7Curl%3Dhttp%3A//turistautak.hu/poi.php%3Fid%3D47577%7Cwebsite%3Dhttps%3A//www.tesco.huhttps%3A//tesco.hu/aruhazak/aruhaz/tesco-expressz-level-szovetkezet-utca/%7Cwheelchair%3Dyes%7Cyoutube%3Dhttps%3A//www.youtube.com/user/TescoMagyarorszag -->
  <node action="modify" changeset="1" id="3456417480" lat="47.8959279948944" lon="17.212579997604" timestamp="2018-07-21T13:02:24Z" uid="4579407" user="KAMI" version="3">
    <tag k="addr:city" v="Levél"/>
    <tag k="addr:country" v="HU"/>
    <tag k="addr:housenumber" v="84"/>
    <tag k="addr:postcode" v="9221"/>
    <tag k="addr:street" v="Szövetkezet utca"/>
    <tag k="air_conditioning" v="yes"/>
    <tag k="alt_name" v="Tesco Expressz"/>
    <tag k="branch" v="Expressz Levél - Szövetkezet utca"/>
    <tag k="brand" v="Tesco"/>
    <tag k="brand:wikidata" v="Q487494"/>
    <tag k="brand:wikipedia" v="hu:Tesco"/>
    <tag k="facebook" v="https://www.facebook.com/tescoaruhazak"/>
    <tag k="fixme" v="verify"/>
    <tag k="import" v="osm_poi_matchmaker"/>
    <tag k="internet_access" v="wlan"/>
    <tag k="internet_access:fee" v="no"/>
    <tag k="name" v="S-Market"/>
    <tag k="opening_hours" v="Mo-Sa 06:00-21:00; Su 08:00-16:00; PH off"/>
    <tag k="operator" v="TESCO-GLOBAL Áruházak Zrt."/>
    <tag k="payment:cash" v="yes"/>
    <tag k="payment:debit_cards" v="yes"/>
    <tag k="ref:vatin:hu" v="10307078-2-44"/>
    <tag k="shop" v="convenience"/>
    <tag k="source" v="route4u"/>
    <tag k="source:date" v="2011-02-20"/>
    <tag k="source:www.tesco.hu:date" v="2018-08-05"/>
    <tag k="toilets:wheelchair" v="limited"/>
    <tag k="url" v="http://turistautak.hu/poi.php?id=47577"/>
    <tag k="website" v="https://www.tesco.huhttps://tesco.hu/aruhazak/aruhaz/tesco-expressz-level-szovetkezet-utca/"/>
    <tag k="wheelchair" v="yes"/>
    <tag k="youtube" v="https://www.youtube.com/user/TescoMagyarorszag"/>
  </node>
  <!-- OSM link: https://osm.org/way/301419136 -->
  <!-- Original coordinates: POINT (47.69224 16.5732) -->
  <!-- OSM <-> POI distance: 52.00658757 m-->
  <!-- Checker good: {not_in_water,standard_opening_hours}; bad {}-->
  <!-- Original tags: 'addr:city':'Sopron'; 'addr:housenumber':'39'; 'addr:postcode':'9400'; 'addr:street':'IV. László király utca'; 'building':'retail'; 'name':'Tesco'; 'opening_hours':'Mo-Fr 06:00-21:00; Sa-Su 06:00-18:00'; 'shop':'supermarket'; 'wheelchair':'limited';  -->
  <!-- JOSM magic link: http://localhost:8111/load_object?new_layer=false&objects=w301419136&addtags=%7Caddr%3Acity%3DSopron%7Caddr%3Acountry%3DHU%7Caddr%3Ahousenumber%3D39%7Caddr%3Apostcode%3D9400%7Caddr%3Astreet%3DIV.%20L%C3%A1szl%C3%B3%20kir%C3%A1ly%20utca%7Cair_conditioning%3Dyes%7Calt_name%3DTesco%20Expressz%7Cbranch%3DExpressz%20Sopron%20-%20IV.%20L%C3%A1szl%C3%B3%20utca%7Cbrand%3DTesco%7Cbrand%3Awikidata%3DQ487494%7Cbrand%3Awikipedia%3Dhu%3ATesco%7Cbuilding%3Dretail%7Cfacebook%3Dhttps%3A//www.facebook.com/tescoaruhazak%7Cimport%3Dosm_poi_matchmaker%7Cinternet_access%3Dwlan%7Cinternet_access%3Afee%3Dno%7Cname%3DS-Market%7Copening_hours%3DMo-Sa%2006%3A00-21%3A00%3B%20Su%2008%3A00-16%3A00%3B%20PH%20off%7Coperator%3DTESCO-GLOBAL%20%C3%81ruh%C3%A1zak%20Zrt.%7Cpayment%3Acash%3Dyes%7Cpayment%3Adebit_cards%3Dyes%7Cref%3Avatin%3Ahu%3D10307078-2-44%7Cshop%3Dconvenience%7Csource%3Awww.tesco.hu%3Adate%3D2018-08-05%7Cwebsite%3Dhttps%3A//www.tesco.huhttps%3A//tesco.hu/aruhazak/aruhaz/tesco-expressz-sopron-iv-laszlo-utca/%7Cwheelchair%3Dlimited%7Cyoutube%3Dhttps%3A//www.youtube.com/user/TescoMagyarorszag -->
  <way action="modify" changeset="1" id="301419136" timestamp="2018-07-15T07:37:24Z" uid="4579407" user="KAMI" version="3">
    <nd ref="3054666776"/>
    <nd ref="3054666777"/>
    <nd ref="3054666778"/>
    <nd ref="3054666779"/>
    <nd ref="3054666776"/>
    <tag k="addr:city" v="Sopron"/>
    <tag k="addr:country" v="HU"/>
    <tag k="addr:housenumber" v="39"/>
    <tag k="addr:postcode" v="9400"/>
    <tag k="addr:street" v="IV. László király utca"/>
    <tag k="air_conditioning" v="yes"/>
    <tag k="alt_name" v="Tesco Expressz"/>
    <tag k="branch" v="Expressz Sopron - IV. László utca"/>
    <tag k="brand" v="Tesco"/>
    <tag k="brand:wikidata" v="Q487494"/>
    <tag k="brand:wikipedia" v="hu:Tesco"/>
    <tag k="building" v="retail"/>
    <tag k="facebook" v="https://www.facebook.com/tescoaruhazak"/>
    <tag k="import" v="osm_poi_matchmaker"/>
    <tag k="internet_access" v="wlan"/>
    <tag k="internet_access:fee" v="no"/>
    <tag k="name" v="S-Market"/>
    <tag k="opening_hours" v="Mo-Sa 06:00-21:00; Su 08:00-16:00; PH off"/>
    <tag k="operator" v="TESCO-GLOBAL Áruházak Zrt."/>
    <tag k="payment:cash" v="yes"/>
    <tag k="payment:debit_cards" v="yes"/>
    <tag k="ref:vatin:hu" v="10307078-2-44"/>
    <tag k="shop" v="convenience"/>
    <tag k="source:www.tesco.hu:date" v="2018-08-05"/>
    <tag k="website" v="https://www.tesco.huhttps://tesco.hu/aruhazak/aruhaz/tesco-expressz-sopron-iv-laszlo-utca/"/>
    <tag k="wheelchair" v="limited"/>
    <tag k="youtube" v="https://www.youtube.com/user/TescoMagyarorszag"/>
  </way>
</osm>
