<?xml version='1.0' encoding='UTF-8'?>
<osm generator="JOSM" version="0.6">
  <!-- OSM link: https://osm.org/way/186360758 -->
  <!-- Original coordinates: POINT (47.503887 21.630595) -->
  <!-- OSM <-> POI distance: 72.06820518 m-->
  <!-- Original tags: 'addr:city':'Debrecen'; 'addr:housenumber':'43/a'; 'addr:postcode':'4030'; 'addr:street':'Mikepércsi út'; 'building':'retail'; 'designation':'Hipermarket'; 'name':'Tesco Extra'; 'shop':'supermarket'; 'toilets:wheelchair':'yes'; 'website':'http://www.tesco.hu'; 'wheelchair':'yes';  -->
  <way action="modify" changeset="1" id="186360758" timestamp="2017-12-25T16:16:30Z" uid="4579407" user="KAMI" version="7">
    <nd ref="2518544299"/>
    <nd ref="2518544292"/>
    <nd ref="2518544294"/>
    <nd ref="2518544283"/>
    <nd ref="2518544280"/>
    <nd ref="2518544296"/>
    <nd ref="1970374838"/>
    <nd ref="2518544306"/>
    <nd ref="1970374835"/>
    <nd ref="1970374837"/>
    <nd ref="1970374839"/>
    <nd ref="2518544299"/>
    <tag k="addr:city" v="Debrecen"/>
    <tag k="addr:country" v="HU"/>
    <tag k="addr:housenumber" v="73/A"/>
    <tag k="addr:postcode" v="4030"/>
    <tag k="addr:street" v="Mikepércsi út"/>
    <tag k="branch" v="Debrecen Repülőtér Extra"/>
    <tag k="brand" v="Tesco"/>
    <tag k="brand:wikidata" v="Q487494"/>
    <tag k="brand:wikipedia" v="hu:Tesco"/>
    <tag k="building" v="retail"/>
    <tag k="designation" v="Hipermarket"/>
    <tag k="facebook" v="https://www.facebook.com/tescoaruhazak"/>
    <tag k="import" v="osm_poi_matchmaker"/>
    <tag k="internet_access" v="wlan"/>
    <tag k="internet_access:fee" v="no"/>
    <tag k="name" v="Tesco Extra"/>
    <tag k="opening_hours" v="Mo-Sa 06:00-22:00; Su 07:00-20:00"/>
    <tag k="operator" v="TESCO-GLOBAL Áruházak Zrt."/>
    <tag k="payment:cash" v="yes"/>
    <tag k="payment:debit_cards" v="yes"/>
    <tag k="ref:vatin:hu" v="10307078-2-44"/>
    <tag k="shop" v="supermarket"/>
    <tag k="source" v="website"/>
    <tag k="source:date" v="2018-07-17"/>
    <tag k="toilets:wheelchair" v="yes"/>
    <tag k="website" v="https://www.tesco.hu/aruhazak/aruhaz/tesco-debrecen-repuloter-extra"/>
    <tag k="wheelchair" v="yes"/>
    <tag k="youtube" v="https://www.youtube.com/user/TescoMagyarorszag"/>
  </way>
  <!-- OSM link: https://osm.org/way/120212084 -->
  <!-- Original coordinates: POINT (47.53037 21.61049) -->
  <!-- OSM <-> POI distance: 79.6467369 m-->
  <!-- Original tags: 'addr:city':'Debrecen'; 'addr:housenumber':'1-11'; 'addr:postcode':'4031'; 'addr:street':'Kishegyesi út'; 'alt_name':'TESCO Extra 0-24'; 'building':'retail'; 'internet_access':'wlan'; 'name':'Tesco Extra'; 'shoes':'supermarket'; 'shop':'supermarket'; 'toilets:wheelchair':'yes'; 'website':'http://tesco.hu/aruhazak/aruhaz/22'; 'wheelchair':'yes';  -->
  <way action="modify" changeset="1" id="120212084" timestamp="2017-12-25T16:16:04Z" uid="4579407" user="KAMI" version="8">
    <nd ref="1348431235"/>
    <nd ref="1348431237"/>
    <nd ref="1348431247"/>
    <nd ref="1348431262"/>
    <nd ref="1348431251"/>
    <nd ref="1348431248"/>
    <nd ref="1348431255"/>
    <nd ref="1348431256"/>
    <nd ref="1348431257"/>
    <nd ref="1348431260"/>
    <nd ref="4810423277"/>
    <nd ref="1348431267"/>
    <nd ref="4810423278"/>
    <nd ref="1348431235"/>
    <tag k="addr:city" v="Debrecen"/>
    <tag k="addr:country" v="HU"/>
    <tag k="addr:housenumber" v="1-11"/>
    <tag k="addr:postcode" v="4031"/>
    <tag k="addr:street" v="Kishegyesi út"/>
    <tag k="alt_name" v="TESCO Extra 0-24"/>
    <tag k="branch" v="Extra Debrecen - Kishegyesi út"/>
    <tag k="brand" v="Tesco"/>
    <tag k="brand:wikidata" v="Q487494"/>
    <tag k="brand:wikipedia" v="hu:Tesco"/>
    <tag k="building" v="retail"/>
    <tag k="facebook" v="https://www.facebook.com/tescoaruhazak"/>
    <tag k="import" v="osm_poi_matchmaker"/>
    <tag k="internet_access" v="wlan"/>
    <tag k="internet_access:fee" v="no"/>
    <tag k="name" v="Tesco Extra"/>
    <tag k="opening_hours" v="Mo-Su 00:00-24:00"/>
    <tag k="operator" v="TESCO-GLOBAL Áruházak Zrt."/>
    <tag k="payment:cash" v="yes"/>
    <tag k="payment:debit_cards" v="yes"/>
    <tag k="ref:vatin:hu" v="10307078-2-44"/>
    <tag k="shoes" v="supermarket"/>
    <tag k="shop" v="supermarket"/>
    <tag k="source" v="website"/>
    <tag k="source:date" v="2018-07-17"/>
    <tag k="toilets:wheelchair" v="yes"/>
    <tag k="website" v="https://www.tesco.hu/aruhazak/aruhaz/tesco-extra-debrecen-kishegyesi-ut"/>
    <tag k="wheelchair" v="yes"/>
    <tag k="youtube" v="https://www.youtube.com/user/TescoMagyarorszag"/>
  </way>
  <!-- OSM link: https://osm.org/way/191492777 -->
  <!-- Original coordinates: POINT (47.50504 19.11738) -->
  <!-- OSM <-> POI distance: 0.0 m-->
  <!-- Original tags: 'building':'retail'; 'name':'Tesco'; 'shop':'supermarket'; 'toilets':'customers'; 'toilets:wheelchair':'yes'; 'wheelchair':'yes';  -->
  <way action="modify" changeset="1" id="191492777" timestamp="2017-12-25T16:16:32Z" uid="4579407" user="KAMI" version="5">
    <nd ref="2020631534"/>
    <nd ref="2020631539"/>
    <nd ref="2020631417"/>
    <nd ref="2020631309"/>
    <nd ref="2020631579"/>
    <nd ref="2020631347"/>
    <nd ref="2020631475"/>
    <nd ref="2020631512"/>
    <nd ref="2020631367"/>
    <nd ref="2020631542"/>
    <nd ref="2020631353"/>
    <nd ref="2020631428"/>
    <nd ref="2020631426"/>
    <nd ref="2020631379"/>
    <nd ref="2020631534"/>
    <tag k="addr:city" v="Budapest"/>
    <tag k="addr:country" v="HU"/>
    <tag k="addr:housenumber" v="15"/>
    <tag k="addr:postcode" v="1149"/>
    <tag k="addr:street" v="Pillangó utca"/>
    <tag k="branch" v="Extra Fogarasi út"/>
    <tag k="brand" v="Tesco"/>
    <tag k="brand:wikidata" v="Q487494"/>
    <tag k="brand:wikipedia" v="hu:Tesco"/>
    <tag k="building" v="retail"/>
    <tag k="facebook" v="https://www.facebook.com/tescoaruhazak"/>
    <tag k="import" v="osm_poi_matchmaker"/>
    <tag k="internet_access" v="wlan"/>
    <tag k="internet_access:fee" v="no"/>
    <tag k="name" v="Tesco Extra"/>
    <tag k="opening_hours" v="Mo-Su 00:00-24:00"/>
    <tag k="operator" v="TESCO-GLOBAL Áruházak Zrt."/>
    <tag k="payment:cash" v="yes"/>
    <tag k="payment:debit_cards" v="yes"/>
    <tag k="ref:vatin:hu" v="10307078-2-44"/>
    <tag k="shop" v="supermarket"/>
    <tag k="source" v="website"/>
    <tag k="source:date" v="2018-07-17"/>
    <tag k="toilets" v="customers"/>
    <tag k="toilets:wheelchair" v="yes"/>
    <tag k="website" v="https://www.tesco.hu/aruhazak/aruhaz/tesco-extra-fogarasi-ut"/>
    <tag k="wheelchair" v="yes"/>
    <tag k="youtube" v="https://www.youtube.com/user/TescoMagyarorszag"/>
  </way>
  <!-- OSM link: https://osm.org/way/118967839 -->
  <!-- Original coordinates: POINT (48.12795 20.78274) -->
  <!-- OSM <-> POI distance: 69.61811726 m-->
  <!-- Original tags: 'addr:city':'Miskolc'; 'addr:postcode':'3527'; 'addr:street':'Szentpéteri kapu'; 'building':'retail'; 'name':'Tesco Extra'; 'shop':'supermarket'; 'wheelchair':'yes';  -->
  <way action="modify" changeset="1" id="118967839" timestamp="2017-12-25T16:16:03Z" uid="4579407" user="KAMI" version="6">
    <nd ref="1337352074"/>
    <nd ref="1337352145"/>
    <nd ref="1337352059"/>
    <nd ref="1337352083"/>
    <nd ref="1337352074"/>
    <tag k="addr:city" v="Miskolc"/>
    <tag k="addr:country" v="HU"/>
    <tag k="addr:housenumber" v="103"/>
    <tag k="addr:postcode" v="3526"/>
    <tag k="addr:street" v="Szentpéteri kapu"/>
    <tag k="branch" v="Extra Miskolc - Szentpéteri kapu"/>
    <tag k="brand" v="Tesco"/>
    <tag k="brand:wikidata" v="Q487494"/>
    <tag k="brand:wikipedia" v="hu:Tesco"/>
    <tag k="building" v="retail"/>
    <tag k="facebook" v="https://www.facebook.com/tescoaruhazak"/>
    <tag k="import" v="osm_poi_matchmaker"/>
    <tag k="internet_access" v="wlan"/>
    <tag k="internet_access:fee" v="no"/>
    <tag k="name" v="Tesco Extra"/>
    <tag k="opening_hours" v="Mo-Sa 06:00-22:00; Su 07:00-20:00"/>
    <tag k="operator" v="TESCO-GLOBAL Áruházak Zrt."/>
    <tag k="payment:cash" v="yes"/>
    <tag k="payment:debit_cards" v="yes"/>
    <tag k="ref:vatin:hu" v="10307078-2-44"/>
    <tag k="shop" v="supermarket"/>
    <tag k="source" v="website"/>
    <tag k="source:date" v="2018-07-17"/>
    <tag k="website" v="https://www.tesco.hu/aruhazak/aruhaz/tesco-extra-miskolc-szentpeteri-kapu"/>
    <tag k="wheelchair" v="yes"/>
    <tag k="youtube" v="https://www.youtube.com/user/TescoMagyarorszag"/>
  </way>
  <!-- OSM link: https://osm.org/way/260815159 -->
  <!-- Original coordinates: POINT (47.17615 20.16658) -->
  <!-- OSM <-> POI distance: 112.01709926 m-->
  <!-- Original tags: 'addr:city':'Szolnok'; 'addr:housenumber':'30'; 'addr:postcode':'5000'; 'addr:street':'Téglagyári út'; 'building':'retail'; 'name':'TESCO Extra'; 'operator':'TESCO'; 'shop':'supermarket'; 'website':'http://www.tesco.hu'; 'wheelchair':'yes';  -->
  <way action="modify" changeset="1" id="260815159" timestamp="2017-12-25T16:17:17Z" uid="4579407" user="KAMI" version="4">
    <nd ref="2663750357"/>
    <nd ref="2663750358"/>
    <nd ref="2663750359"/>
    <nd ref="2663750360"/>
    <nd ref="2663750361"/>
    <nd ref="2663750362"/>
    <nd ref="2663750363"/>
    <nd ref="2663750364"/>
    <nd ref="2663750365"/>
    <nd ref="2663755793"/>
    <nd ref="2663750357"/>
    <tag k="addr:city" v="Szolnok"/>
    <tag k="addr:country" v="HU"/>
    <tag k="addr:housenumber" v="30"/>
    <tag k="addr:postcode" v="5000"/>
    <tag k="addr:street" v="Téglagyári út"/>
    <tag k="branch" v="Extra Szolnok "/>
    <tag k="brand" v="Tesco"/>
    <tag k="brand:wikidata" v="Q487494"/>
    <tag k="brand:wikipedia" v="hu:Tesco"/>
    <tag k="building" v="retail"/>
    <tag k="facebook" v="https://www.facebook.com/tescoaruhazak"/>
    <tag k="import" v="osm_poi_matchmaker"/>
    <tag k="internet_access" v="wlan"/>
    <tag k="internet_access:fee" v="no"/>
    <tag k="name" v="Tesco Extra"/>
    <tag k="opening_hours" v="Mo-Sa 06:00-22:00; Su 07:00-20:00"/>
    <tag k="operator" v="TESCO-GLOBAL Áruházak Zrt."/>
    <tag k="payment:cash" v="yes"/>
    <tag k="payment:debit_cards" v="yes"/>
    <tag k="ref:vatin:hu" v="10307078-2-44"/>
    <tag k="shop" v="supermarket"/>
    <tag k="source" v="website"/>
    <tag k="source:date" v="2018-07-17"/>
    <tag k="website" v="https://www.tesco.hu/aruhazak/aruhaz/tesco-extra-szolnok"/>
    <tag k="wheelchair" v="yes"/>
    <tag k="youtube" v="https://www.youtube.com/user/TescoMagyarorszag"/>
  </way>
  <!-- OSM link: https://osm.org/way/78342617 -->
  <!-- Original coordinates: POINT (47.55583 19.07974) -->
  <!-- OSM <-> POI distance: 0.0 m-->
  <!-- Original tags: 'addr:city':'Budapest'; 'addr:housenumber':'3'; 'addr:postcode':'1138'; 'addr:street':'Gács utca'; 'building':'retail'; 'building:levels':'2'; 'name':'Tesco Extra'; 'name:en':'Tesco extra'; 'name:fr':'Tesco extra'; 'opening_hours':'Mo-Su 00:00-24:00'; 'shop':'supermarket'; 'website':'http://tesco.hu/aruhazak/aruhaz/147'; 'wheelchair':'yes';  -->
  <way action="modify" changeset="1" id="78342617" timestamp="2018-03-08T20:46:33Z" uid="4579407" user="KAMI" version="12">
    <nd ref="919682524"/>
    <nd ref="4443877094"/>
    <nd ref="4443832093"/>
    <nd ref="919682525"/>
    <nd ref="4443837703"/>
    <nd ref="4443877091"/>
    <nd ref="919682526"/>
    <nd ref="4443879792"/>
    <nd ref="4443837699"/>
    <nd ref="919682527"/>
    <nd ref="4443916290"/>
    <nd ref="919682524"/>
    <tag k="addr:city" v="Budapest"/>
    <tag k="addr:country" v="HU"/>
    <tag k="addr:housenumber" v="3"/>
    <tag k="addr:postcode" v="1138"/>
    <tag k="addr:street" v="Gács utca"/>
    <tag k="branch" v="Extra Váci út "/>
    <tag k="brand" v="Tesco"/>
    <tag k="brand:wikidata" v="Q487494"/>
    <tag k="brand:wikipedia" v="hu:Tesco"/>
    <tag k="building" v="retail"/>
    <tag k="building:levels" v="2"/>
    <tag k="facebook" v="https://www.facebook.com/tescoaruhazak"/>
    <tag k="import" v="osm_poi_matchmaker"/>
    <tag k="internet_access" v="wlan"/>
    <tag k="internet_access:fee" v="no"/>
    <tag k="name" v="Tesco Extra"/>
    <tag k="name:en" v="Tesco extra"/>
    <tag k="name:fr" v="Tesco extra"/>
    <tag k="opening_hours" v="Mo-Su 00:00-24:00"/>
    <tag k="operator" v="TESCO-GLOBAL Áruházak Zrt."/>
    <tag k="payment:cash" v="yes"/>
    <tag k="payment:debit_cards" v="yes"/>
    <tag k="phone" v="+36208274599"/>
    <tag k="ref:vatin:hu" v="10307078-2-44"/>
    <tag k="shop" v="supermarket"/>
    <tag k="source" v="website"/>
    <tag k="source:date" v="2018-07-17"/>
    <tag k="website" v="https://www.tesco.hu/aruhazak/aruhaz/tesco-extra-vaci-ut"/>
    <tag k="wheelchair" v="yes"/>
    <tag k="youtube" v="https://www.youtube.com/user/TescoMagyarorszag"/>
  </way>
  <!-- OSM link: https://osm.org/node/4781258096 -->
  <!-- Original coordinates: POINT (46.26835 20.13889) -->
  <!-- OSM <-> POI distance: 43.32778292 m-->
  <!-- Original tags: 'name':'Tesco'; 'opening_hours':'24/7'; 'shop':'supermarket'; 'toilets:wheelchair':'limited'; 'wheelchair':'yes';  -->
  <node action="modify" changeset="1" id="4781258096" lat="46.2680189949661" lon="20.1385925971967" timestamp="2017-09-05T04:39:26Z" uid="4579407" user="KAMI" version="3">
    <tag k="addr:city" v="Szeged"/>
    <tag k="addr:country" v="HU"/>
    <tag k="addr:housenumber" v="42-64"/>
    <tag k="addr:postcode" v="6724"/>
    <tag k="addr:street" v="Rókusi körút"/>
    <tag k="branch" v="Szeged Extra - Rókusi krt."/>
    <tag k="brand" v="Tesco"/>
    <tag k="brand:wikidata" v="Q487494"/>
    <tag k="brand:wikipedia" v="hu:Tesco"/>
    <tag k="facebook" v="https://www.facebook.com/tescoaruhazak"/>
    <tag k="import" v="osm_poi_matchmaker"/>
    <tag k="internet_access" v="wlan"/>
    <tag k="internet_access:fee" v="no"/>
    <tag k="name" v="Tesco Extra"/>
    <tag k="opening_hours" v="Mo-Su 00:00-24:00"/>
    <tag k="operator" v="TESCO-GLOBAL Áruházak Zrt."/>
    <tag k="payment:cash" v="yes"/>
    <tag k="payment:debit_cards" v="yes"/>
    <tag k="phone" v="+36208273999"/>
    <tag k="ref:vatin:hu" v="10307078-2-44"/>
    <tag k="shop" v="supermarket"/>
    <tag k="source" v="website"/>
    <tag k="source:date" v="2018-07-17"/>
    <tag k="toilets:wheelchair" v="limited"/>
    <tag k="website" v="https://www.tesco.hu/aruhazak/aruhaz/tesco-szeged-extra-rokusi-krt"/>
    <tag k="wheelchair" v="yes"/>
    <tag k="youtube" v="https://www.youtube.com/user/TescoMagyarorszag"/>
  </node>
</osm>
