<?xml version='1.0' encoding='UTF-8'?>
<osm generator="JOSM" version="0.6">
  <!-- OSM link: https://osm.org/node/2296479433 -->
  <!-- Original coordinates: POINT (47.495165 19.062358) -->
  <!-- OSM <-> POI distance: 128.21374273 m-->
  <!-- Checker good: {not_in_water}; bad {}-->
  <!-- Original tags: 'addr:city':'Budapest'; 'addr:housenumber':'1-3'; 'addr:postcode':'1088'; 'addr:street':'Rákóczi út'; 'name':'Tesco'; 'opening_hours':'Mo-Sa 06:00-22:00; Su 08:00-20:00'; 'shop':'supermarket'; 'toilets:wheelchair':'no'; 'website':'http://tesco.hu/'; 'wheelchair':'yes';  -->
  <node action="modify" changeset="1" id="2296479433" lat="47.4943601949111" lon="19.0611358973467" timestamp="2018-06-17T07:41:56Z" uid="4579407" user="KAMI" version="9">
    <tag k="addr:city" v="Budapest"/>
    <tag k="addr:country" v="HU"/>
    <tag k="addr:housenumber" v="1-3"/>
    <tag k="addr:postcode" v="1072"/>
    <tag k="addr:street" v="Rákóczi út"/>
    <tag k="branch" v="Astoria Expressz"/>
    <tag k="brand" v="Tesco"/>
    <tag k="brand:wikidata" v="Q487494"/>
    <tag k="brand:wikipedia" v="hu:Tesco"/>
    <tag k="facebook" v="https://www.facebook.com/tescoaruhazak"/>
    <tag k="import" v="osm_poi_matchmaker"/>
    <tag k="internet_access" v="wlan"/>
    <tag k="internet_access:fee" v="no"/>
    <tag k="name" v="Tesco Expressz"/>
    <tag k="opening_hours" v="Mo-Sa 06:00-22:00; Su 08:00-20:00; PH off"/>
    <tag k="operator" v="TESCO-GLOBAL Áruházak Zrt."/>
    <tag k="payment:cash" v="yes"/>
    <tag k="payment:debit_cards" v="yes"/>
    <tag k="ref:vatin:hu" v="10307078-2-44"/>
    <tag k="shop" v="convenience"/>
    <tag k="source" v="website"/>
    <tag k="source:date" v="2018-07-30"/>
    <tag k="toilets:wheelchair" v="no"/>
    <tag k="website" v="https://www.tesco.hu/aruhazak/aruhaz/tesco-astoria-expressz/"/>
    <tag k="wheelchair" v="yes"/>
    <tag k="youtube" v="https://www.youtube.com/user/TescoMagyarorszag"/>
  </node>
  <!-- OSM link: https://osm.org/node/2444299064 -->
  <!-- Original coordinates: POINT (47.481326 19.077352) -->
  <!-- OSM <-> POI distance: 12.35584175 m-->
  <!-- Checker good: {not_in_water}; bad {}-->
  <!-- Original tags: 'addr:city':'Budapest'; 'addr:housenumber':'46-48'; 'addr:postcode':'1096'; 'addr:street':'Thaly Kálmán utca'; 'name':'Tesco'; 'opening_hours':'Mo-Sa 06:00-22:00'; 'shop':'supermarket'; 'source':'http://tesco.hu/aruhazak/aruhaz/198'; 'toilets:wheelchair':'no'; 'website':'http://tesco.hu'; 'wheelchair':'yes';  -->
  <node action="modify" changeset="1" id="2444299064" lat="47.4812821949116" lon="19.0772008973444" timestamp="2017-09-11T09:43:21Z" uid="4579407" user="KAMI" version="5">
    <tag k="addr:city" v="Budapest"/>
    <tag k="addr:country" v="HU"/>
    <tag k="addr:housenumber" v="46-48"/>
    <tag k="addr:postcode" v="1096"/>
    <tag k="addr:street" v="Thaly Kálmán út"/>
    <tag k="branch" v="Budapest-Thaly Kálmán Expressz"/>
    <tag k="brand" v="Tesco"/>
    <tag k="brand:wikidata" v="Q487494"/>
    <tag k="brand:wikipedia" v="hu:Tesco"/>
    <tag k="facebook" v="https://www.facebook.com/tescoaruhazak"/>
    <tag k="import" v="osm_poi_matchmaker"/>
    <tag k="internet_access" v="wlan"/>
    <tag k="internet_access:fee" v="no"/>
    <tag k="name" v="Tesco Expressz"/>
    <tag k="opening_hours" v="Mo-Sa 06:00-22:00; Su 08:00-16:00; PH off"/>
    <tag k="operator" v="TESCO-GLOBAL Áruházak Zrt."/>
    <tag k="payment:cash" v="yes"/>
    <tag k="payment:debit_cards" v="yes"/>
    <tag k="ref:vatin:hu" v="10307078-2-44"/>
    <tag k="shop" v="convenience"/>
    <tag k="source" v="website"/>
    <tag k="source:date" v="2018-07-30"/>
    <tag k="toilets:wheelchair" v="no"/>
    <tag k="website" v="https://www.tesco.hu/aruhazak/aruhaz/tesco-budapest-thaly-kalman-expressz/"/>
    <tag k="wheelchair" v="yes"/>
    <tag k="youtube" v="https://www.youtube.com/user/TescoMagyarorszag"/>
  </node>
  <!-- OSM link: https://osm.org/node/2603639147 -->
  <!-- Original coordinates: POINT (47.530466 21.624902) -->
  <!-- OSM <-> POI distance: 26.86377335 m-->
  <!-- Checker good: {not_in_water}; bad {}-->
  <!-- Original tags: 'addr:street':'Piac utca'; 'internet_access':'wlan'; 'name':'Tesco Express'; 'opening_hours':'Mo-Su 06:00-22:00'; 'shop':'supermarket'; 'website':'http://tesco.hu'; 'wheelchair':'yes';  -->
  <node action="modify" changeset="1" id="2603639147" lat="47.5304982949096" lon="21.6252565969897" timestamp="2017-08-02T13:24:48Z" uid="4579407" user="KAMI" version="3">
    <tag k="addr:city" v="Debrecen"/>
    <tag k="addr:country" v="HU"/>
    <tag k="addr:housenumber" v="16"/>
    <tag k="addr:postcode" v="4024"/>
    <tag k="addr:street" v="Piac utca"/>
    <tag k="branch" v="Debrecen Piac Expressz"/>
    <tag k="brand" v="Tesco"/>
    <tag k="brand:wikidata" v="Q487494"/>
    <tag k="brand:wikipedia" v="hu:Tesco"/>
    <tag k="facebook" v="https://www.facebook.com/tescoaruhazak"/>
    <tag k="import" v="osm_poi_matchmaker"/>
    <tag k="internet_access" v="wlan"/>
    <tag k="internet_access:fee" v="no"/>
    <tag k="name" v="Tesco Expressz"/>
    <tag k="opening_hours" v="Mo-Sa 06:00-22:00; Su 07:00-20:00; PH off"/>
    <tag k="operator" v="TESCO-GLOBAL Áruházak Zrt."/>
    <tag k="payment:cash" v="yes"/>
    <tag k="payment:debit_cards" v="yes"/>
    <tag k="ref:vatin:hu" v="10307078-2-44"/>
    <tag k="shop" v="convenience"/>
    <tag k="source" v="website"/>
    <tag k="source:date" v="2018-07-30"/>
    <tag k="website" v="https://www.tesco.hu/aruhazak/aruhaz/tesco-debrecen-piac-expressz/"/>
    <tag k="wheelchair" v="yes"/>
    <tag k="youtube" v="https://www.youtube.com/user/TescoMagyarorszag"/>
  </node>
  <!-- OSM link: https://osm.org/node/2351067330 -->
  <!-- Original coordinates: POINT (47.547841 18.953952) -->
  <!-- OSM <-> POI distance: 23.16148649 m-->
  <!-- Checker good: {not_in_water}; bad {}-->
  <!-- Original tags: 'name':'Tesco Express'; 'shop':'convenience'; 'wheelchair':'limited';  -->
  <node action="modify" changeset="1" id="2351067330" lat="47.5480358949088" lon="18.9538430973616" timestamp="2017-10-03T12:15:01Z" uid="4579407" user="KAMI" version="2">
    <tag k="addr:city" v="Budapest"/>
    <tag k="addr:country" v="HU"/>
    <tag k="addr:housenumber" v="72"/>
    <tag k="addr:postcode" v="1028"/>
    <tag k="addr:street" v="Máriaremetei út"/>
    <tag k="branch" v="Express Bp. - Máriaremetei út"/>
    <tag k="brand" v="Tesco"/>
    <tag k="brand:wikidata" v="Q487494"/>
    <tag k="brand:wikipedia" v="hu:Tesco"/>
    <tag k="facebook" v="https://www.facebook.com/tescoaruhazak"/>
    <tag k="import" v="osm_poi_matchmaker"/>
    <tag k="internet_access" v="wlan"/>
    <tag k="internet_access:fee" v="no"/>
    <tag k="name" v="Tesco Expressz"/>
    <tag k="opening_hours" v="Mo-Sa 07:00-22:00; Su 07:00-18:00; PH off"/>
    <tag k="operator" v="TESCO-GLOBAL Áruházak Zrt."/>
    <tag k="payment:cash" v="yes"/>
    <tag k="payment:debit_cards" v="yes"/>
    <tag k="ref:vatin:hu" v="10307078-2-44"/>
    <tag k="shop" v="convenience"/>
    <tag k="source" v="website"/>
    <tag k="source:date" v="2018-07-30"/>
    <tag k="website" v="https://www.tesco.hu/aruhazak/aruhaz/tesco-express-bp-mariaremetei-ut/"/>
    <tag k="wheelchair" v="limited"/>
    <tag k="youtube" v="https://www.youtube.com/user/TescoMagyarorszag"/>
  </node>
  <!-- OSM link: https://osm.org/node/1243306114 -->
  <!-- Original coordinates: POINT (46.849821 17.880166) -->
  <!-- OSM <-> POI distance: 62.19420825 m-->
  <!-- Checker good: {not_in_water}; bad {}-->
  <!-- Original tags: 'name':'Tesco Express'; 'opening_hours':'Mo-Su 06:30-22:00'; 'shop':'supermarket';  -->
  <node action="modify" changeset="1" id="1243306114" lat="46.8492877949392" lon="17.8799189975111" timestamp="2016-08-27T18:29:23Z" uid="4579407" user="KAMI" version="2">
    <tag k="addr:city" v="Balatonföldvár"/>
    <tag k="addr:country" v="HU"/>
    <tag k="addr:housenumber" v="1"/>
    <tag k="addr:postcode" v="8623"/>
    <tag k="addr:street" v="Budapesti út"/>
    <tag k="branch" v="Expressz Balatonföldvár - Budapesti út"/>
    <tag k="brand" v="Tesco"/>
    <tag k="brand:wikidata" v="Q487494"/>
    <tag k="brand:wikipedia" v="hu:Tesco"/>
    <tag k="facebook" v="https://www.facebook.com/tescoaruhazak"/>
    <tag k="import" v="osm_poi_matchmaker"/>
    <tag k="internet_access" v="wlan"/>
    <tag k="internet_access:fee" v="no"/>
    <tag k="name" v="Tesco Expressz"/>
    <tag k="opening_hours" v="Mo-Su 06:00-22:00; PH off"/>
    <tag k="operator" v="TESCO-GLOBAL Áruházak Zrt."/>
    <tag k="payment:cash" v="yes"/>
    <tag k="payment:debit_cards" v="yes"/>
    <tag k="ref:vatin:hu" v="10307078-2-44"/>
    <tag k="shop" v="convenience"/>
    <tag k="source" v="website"/>
    <tag k="source:date" v="2018-07-30"/>
    <tag k="website" v="https://www.tesco.hu/aruhazak/aruhaz/tesco-expressz-balatonfoldvar-budapesti-ut/"/>
    <tag k="youtube" v="https://www.youtube.com/user/TescoMagyarorszag"/>
  </node>
  <!-- OSM link: https://osm.org/node/4939175128 -->
  <!-- Original coordinates: POINT (47.547407 19.037997) -->
  <!-- OSM <-> POI distance: 19.32934444 m-->
  <!-- Checker good: {not_in_water}; bad {}-->
  <!-- Original tags: 'fixme':'verify'; 'name':'44065 Bp Vihar Exp'; 'shop':'supermarket'; 'source':'route4u'; 'wheelchair':'no';  -->
  <node action="modify" changeset="1" id="4939175128" lat="47.5473546949089" lon="19.0377513973499" timestamp="2017-09-19T09:25:42Z" uid="4579407" user="KAMI" version="4">
    <tag k="addr:city" v="Budapest"/>
    <tag k="addr:country" v="HU"/>
    <tag k="addr:housenumber" v="18-28"/>
    <tag k="addr:postcode" v="1035"/>
    <tag k="addr:street" v="Vihar utca"/>
    <tag k="branch" v="Expressz Bp. - Vihar utca"/>
    <tag k="brand" v="Tesco"/>
    <tag k="brand:wikidata" v="Q487494"/>
    <tag k="brand:wikipedia" v="hu:Tesco"/>
    <tag k="facebook" v="https://www.facebook.com/tescoaruhazak"/>
    <tag k="fixme" v="verify"/>
    <tag k="import" v="osm_poi_matchmaker"/>
    <tag k="internet_access" v="wlan"/>
    <tag k="internet_access:fee" v="no"/>
    <tag k="name" v="Tesco Expressz"/>
    <tag k="opening_hours" v="Mo-Sa 07:00-22:00; Su 08:00-16:00; PH off"/>
    <tag k="operator" v="TESCO-GLOBAL Áruházak Zrt."/>
    <tag k="payment:cash" v="yes"/>
    <tag k="payment:debit_cards" v="yes"/>
    <tag k="ref:vatin:hu" v="10307078-2-44"/>
    <tag k="shop" v="convenience"/>
    <tag k="source" v="website"/>
    <tag k="source:date" v="2018-07-30"/>
    <tag k="website" v="https://www.tesco.hu/aruhazak/aruhaz/tesco-expressz-bp-vihar-utca/"/>
    <tag k="wheelchair" v="no"/>
    <tag k="youtube" v="https://www.youtube.com/user/TescoMagyarorszag"/>
  </node>
  <!-- OSM link: https://osm.org/node/2926275625 -->
  <!-- Original coordinates: POINT (47.460196 19.132587) -->
  <!-- OSM <-> POI distance: 3.68840142 m-->
  <!-- Checker good: {not_in_water}; bad {}-->
  <!-- Original tags: 'name':'Tesco Express'; 'shop':'convenience'; 'wheelchair':'yes';  -->
  <node action="modify" changeset="1" id="2926275625" lat="47.4602042949126" lon="19.1325394973367" timestamp="2015-12-04T14:22:00Z" uid="4579407" user="KAMI" version="2">
    <tag k="addr:city" v="Budapest"/>
    <tag k="addr:country" v="HU"/>
    <tag k="addr:housenumber" v="42-44"/>
    <tag k="addr:postcode" v="1191"/>
    <tag k="addr:street" v="Ady Endre utca"/>
    <tag k="branch" v="Expressz Bp. - Ady Endre utca"/>
    <tag k="brand" v="Tesco"/>
    <tag k="brand:wikidata" v="Q487494"/>
    <tag k="brand:wikipedia" v="hu:Tesco"/>
    <tag k="facebook" v="https://www.facebook.com/tescoaruhazak"/>
    <tag k="import" v="osm_poi_matchmaker"/>
    <tag k="internet_access" v="wlan"/>
    <tag k="internet_access:fee" v="no"/>
    <tag k="name" v="Tesco Expressz"/>
    <tag k="opening_hours" v="Mo-Sa 07:00-21:00; Su 00:00-00:00; PH off"/>
    <tag k="operator" v="TESCO-GLOBAL Áruházak Zrt."/>
    <tag k="payment:cash" v="yes"/>
    <tag k="payment:debit_cards" v="yes"/>
    <tag k="ref:vatin:hu" v="10307078-2-44"/>
    <tag k="shop" v="convenience"/>
    <tag k="source" v="website"/>
    <tag k="source:date" v="2018-07-30"/>
    <tag k="website" v="https://www.tesco.hu/aruhazak/aruhaz/tesco-expressz-bp-ady-endre-utca/"/>
    <tag k="wheelchair" v="yes"/>
    <tag k="youtube" v="https://www.youtube.com/user/TescoMagyarorszag"/>
  </node>
  <!-- OSM link: https://osm.org/node/1202347665 -->
  <!-- Original coordinates: POINT (47.456064 19.038883) -->
  <!-- OSM <-> POI distance: 28.39915533 m-->
  <!-- Checker good: {not_in_water}; bad {}-->
  <!-- Original tags: 'name':'Tesco Express'; 'opening_hours':'Mo-Su 06:30-22:00'; 'shop':'supermarket'; 'wheelchair':'yes'; 'wheelchair:description':'nincs mozgássérültek számára kialakított mellékhelyiség';  -->
  <node action="modify" changeset="1" id="1202347665" lat="47.4558212949127" lon="19.0387653973498" timestamp="2017-09-12T11:56:03Z" uid="4579407" user="KAMI" version="6">
    <tag k="addr:city" v="Budapest"/>
    <tag k="addr:country" v="HU"/>
    <tag k="addr:housenumber" v="2"/>
    <tag k="addr:postcode" v="1119"/>
    <tag k="addr:street" v="Andor utca"/>
    <tag k="branch" v="Expressz Bp. - Andor utca"/>
    <tag k="brand" v="Tesco"/>
    <tag k="brand:wikidata" v="Q487494"/>
    <tag k="brand:wikipedia" v="hu:Tesco"/>
    <tag k="facebook" v="https://www.facebook.com/tescoaruhazak"/>
    <tag k="import" v="osm_poi_matchmaker"/>
    <tag k="internet_access" v="wlan"/>
    <tag k="internet_access:fee" v="no"/>
    <tag k="name" v="Tesco Expressz"/>
    <tag k="opening_hours" v="Mo-Sa 06:00-22:00; Su 07:00-18:00; PH off"/>
    <tag k="operator" v="TESCO-GLOBAL Áruházak Zrt."/>
    <tag k="payment:cash" v="yes"/>
    <tag k="payment:debit_cards" v="yes"/>
    <tag k="ref:vatin:hu" v="10307078-2-44"/>
    <tag k="shop" v="convenience"/>
    <tag k="source" v="website"/>
    <tag k="source:date" v="2018-07-30"/>
    <tag k="website" v="https://www.tesco.hu/aruhazak/aruhaz/tesco-expressz-bp-andor-utca/"/>
    <tag k="wheelchair" v="yes"/>
    <tag k="wheelchair:description" v="nincs mozgássérültek számára kialakított mellékhelyiség&#10;"/>
    <tag k="youtube" v="https://www.youtube.com/user/TescoMagyarorszag"/>
  </node>
  <!-- OSM link: https://osm.org/node/2157559535 -->
  <!-- Original coordinates: POINT (47.507174 19.07668) -->
  <!-- OSM <-> POI distance: 49.83782692 m-->
  <!-- Checker good: {not_in_water}; bad {}-->
  <!-- Original tags: 'addr:city':'Budapest'; 'addr:housenumber':'1'; 'addr:postcode':'1071'; 'addr:street':'Bajza utca'; 'name':'Tesco Expressz'; 'opening_hours':'Mo-Sa 07:00-22:00'; 'phone':'+36 20 827 0000'; 'shop':'supermarket'; 'website':'http://tesco.hu/aruhazak/aruhaz/tesco-expressz-bp-bajza-utca'; 'wheelchair':'limited';  -->
  <node action="modify" changeset="1" id="2157559535" lat="47.5075835949105" lon="19.0764105973445" timestamp="2017-09-20T05:21:27Z" uid="4579407" user="KAMI" version="8">
    <tag k="addr:city" v="Budapest"/>
    <tag k="addr:country" v="HU"/>
    <tag k="addr:housenumber" v="1"/>
    <tag k="addr:postcode" v="1071"/>
    <tag k="addr:street" v="Bajza utca"/>
    <tag k="branch" v="Expressz Bp. - Bajza utca"/>
    <tag k="brand" v="Tesco"/>
    <tag k="brand:wikidata" v="Q487494"/>
    <tag k="brand:wikipedia" v="hu:Tesco"/>
    <tag k="facebook" v="https://www.facebook.com/tescoaruhazak"/>
    <tag k="import" v="osm_poi_matchmaker"/>
    <tag k="internet_access" v="wlan"/>
    <tag k="internet_access:fee" v="no"/>
    <tag k="name" v="Tesco Expressz"/>
    <tag k="opening_hours" v="Mo-Sa 07:00-21:00; Su 00:00-00:00; PH off"/>
    <tag k="operator" v="TESCO-GLOBAL Áruházak Zrt."/>
    <tag k="payment:cash" v="yes"/>
    <tag k="payment:debit_cards" v="yes"/>
    <tag k="phone" v="+36 20 827 0000"/>
    <tag k="ref:vatin:hu" v="10307078-2-44"/>
    <tag k="shop" v="convenience"/>
    <tag k="source" v="website"/>
    <tag k="source:date" v="2018-07-30"/>
    <tag k="website" v="https://www.tesco.hu/aruhazak/aruhaz/tesco-expressz-bp-bajza-utca/"/>
    <tag k="wheelchair" v="limited"/>
    <tag k="youtube" v="https://www.youtube.com/user/TescoMagyarorszag"/>
  </node>
  <!-- OSM link: https://osm.org/node/930054557 -->
  <!-- Original coordinates: POINT (47.472404 19.032417) -->
  <!-- OSM <-> POI distance: 31.45125403 m-->
  <!-- Checker good: {not_in_water}; bad {}-->
  <!-- Original tags: 'name':'Tesco Expressz'; 'name:pl':'Tesco Express'; 'opening_hours':'Mo-Sa 07:00-22:00; Su 08:00-16:00'; 'shop':'supermarket'; 'website':'http://tesco.hu/aruhazak/aruhaz/tesco-expressz-bp-bartok-bela-utca'; 'wheelchair':'limited'; 'wheelchair:description':'nincs mozgássérültek számára kialakított mellékhelyiség';  -->
  <node action="modify" changeset="1" id="930054557" lat="47.472479894912" lon="19.0320138973507" timestamp="2017-09-24T06:44:46Z" uid="4579407" user="KAMI" version="9">
    <tag k="addr:city" v="Budapest"/>
    <tag k="addr:country" v="HU"/>
    <tag k="addr:housenumber" v="105-113"/>
    <tag k="addr:postcode" v="1115"/>
    <tag k="addr:street" v="Bartók Béla utca"/>
    <tag k="branch" v="Expressz Bp. - Bartók Béla utca"/>
    <tag k="brand" v="Tesco"/>
    <tag k="brand:wikidata" v="Q487494"/>
    <tag k="brand:wikipedia" v="hu:Tesco"/>
    <tag k="facebook" v="https://www.facebook.com/tescoaruhazak"/>
    <tag k="import" v="osm_poi_matchmaker"/>
    <tag k="internet_access" v="wlan"/>
    <tag k="internet_access:fee" v="no"/>
    <tag k="name" v="Tesco Expressz"/>
    <tag k="name:pl" v="Tesco Express"/>
    <tag k="opening_hours" v="Mo-Sa 07:00-22:00; Su 08:00-16:00; PH off"/>
    <tag k="operator" v="TESCO-GLOBAL Áruházak Zrt."/>
    <tag k="payment:cash" v="yes"/>
    <tag k="payment:debit_cards" v="yes"/>
    <tag k="ref:vatin:hu" v="10307078-2-44"/>
    <tag k="shop" v="convenience"/>
    <tag k="source" v="website"/>
    <tag k="source:date" v="2018-07-30"/>
    <tag k="website" v="https://www.tesco.hu/aruhazak/aruhaz/tesco-expressz-bp-bartok-bela-utca/"/>
    <tag k="wheelchair" v="limited"/>
    <tag k="wheelchair:description" v="nincs mozgássérültek számára kialakított mellékhelyiség"/>
    <tag k="youtube" v="https://www.youtube.com/user/TescoMagyarorszag"/>
  </node>
  <!-- OSM link: https://osm.org/node/2905800795 -->
  <!-- Original coordinates: POINT (47.533789 19.082166) -->
  <!-- OSM <-> POI distance: 24.8350581 m-->
  <!-- Checker good: {not_in_water}; bad {}-->
  <!-- Original tags: 'name':'Tesco Express'; 'opening_hours':'Mo-Sa 06:00-22:00; Su 07:00-18:00'; 'operator':'Tesco'; 'shop':'supermarket'; 'toilets:wheelchair':'no'; 'wheelchair':'yes';  -->
  <node action="modify" changeset="1" id="2905800795" lat="47.5336187949094" lon="19.0823801973437" timestamp="2017-09-18T09:54:30Z" uid="4579407" user="KAMI" version="4">
    <tag k="addr:city" v="Budapest"/>
    <tag k="addr:country" v="HU"/>
    <tag k="addr:housenumber" v="13-19"/>
    <tag k="addr:postcode" v="1135"/>
    <tag k="addr:street" v="Béke út"/>
    <tag k="branch" v="Expressz Bp. - Béke út"/>
    <tag k="brand" v="Tesco"/>
    <tag k="brand:wikidata" v="Q487494"/>
    <tag k="brand:wikipedia" v="hu:Tesco"/>
    <tag k="facebook" v="https://www.facebook.com/tescoaruhazak"/>
    <tag k="import" v="osm_poi_matchmaker"/>
    <tag k="internet_access" v="wlan"/>
    <tag k="internet_access:fee" v="no"/>
    <tag k="name" v="Tesco Expressz"/>
    <tag k="opening_hours" v="Mo-Sa 06:00-22:00; Su 07:00-18:00; PH off"/>
    <tag k="operator" v="TESCO-GLOBAL Áruházak Zrt."/>
    <tag k="payment:cash" v="yes"/>
    <tag k="payment:debit_cards" v="yes"/>
    <tag k="ref:vatin:hu" v="10307078-2-44"/>
    <tag k="shop" v="convenience"/>
    <tag k="source" v="website"/>
    <tag k="source:date" v="2018-07-30"/>
    <tag k="toilets:wheelchair" v="no"/>
    <tag k="website" v="https://www.tesco.hu/aruhazak/aruhaz/tesco-expressz-bp-beke-ut/"/>
    <tag k="wheelchair" v="yes"/>
    <tag k="youtube" v="https://www.youtube.com/user/TescoMagyarorszag"/>
  </node>
  <!-- OSM link: https://osm.org/way/353281883 -->
  <!-- Original coordinates: POINT (47.521018 19.00635) -->
  <!-- OSM <-> POI distance: 11.37048189 m-->
  <!-- Checker good: {not_in_water}; bad {}-->
  <!-- Original tags: 'addr:city':'Budapest'; 'addr:housenumber':'133'; 'addr:postcode':'1026'; 'addr:street':'Bimbó út'; 'building':'retail'; 'name':'Tesco Express'; 'opening_hours':'06:00-22:00; PH closed'; 'shop':'supermarket';  -->
  <way action="modify" changeset="1" id="353281883" timestamp="2017-12-25T16:18:03Z" uid="4579407" user="KAMI" version="3">
    <nd ref="3590662686"/>
    <nd ref="3590662687"/>
    <nd ref="3590662688"/>
    <nd ref="3590662689"/>
    <nd ref="3590662686"/>
    <tag k="addr:city" v="Budapest"/>
    <tag k="addr:country" v="HU"/>
    <tag k="addr:housenumber" v="133"/>
    <tag k="addr:postcode" v="1026"/>
    <tag k="addr:street" v="Bimbó út"/>
    <tag k="branch" v="Expressz Bp. - Bimbó út"/>
    <tag k="brand" v="Tesco"/>
    <tag k="brand:wikidata" v="Q487494"/>
    <tag k="brand:wikipedia" v="hu:Tesco"/>
    <tag k="building" v="retail"/>
    <tag k="facebook" v="https://www.facebook.com/tescoaruhazak"/>
    <tag k="import" v="osm_poi_matchmaker"/>
    <tag k="internet_access" v="wlan"/>
    <tag k="internet_access:fee" v="no"/>
    <tag k="name" v="Tesco Expressz"/>
    <tag k="opening_hours" v="Mo-Sa 07:00-22:00; Su 07:00-18:00; PH off"/>
    <tag k="operator" v="TESCO-GLOBAL Áruházak Zrt."/>
    <tag k="payment:cash" v="yes"/>
    <tag k="payment:debit_cards" v="yes"/>
    <tag k="ref:vatin:hu" v="10307078-2-44"/>
    <tag k="shop" v="convenience"/>
    <tag k="source" v="website"/>
    <tag k="source:date" v="2018-07-30"/>
    <tag k="website" v="https://www.tesco.hu/aruhazak/aruhaz/tesco-expressz-bp-bimbo-ut/"/>
    <tag k="youtube" v="https://www.youtube.com/user/TescoMagyarorszag"/>
  </way>
  <!-- OSM link: https://osm.org/node/1704395738 -->
  <!-- Original coordinates: POINT (47.510954 19.059487) -->
  <!-- OSM <-> POI distance: 183.50217935 m-->
  <!-- Checker good: {not_in_water}; bad {}-->
  <!-- Original tags: 'name':'Tesco Express'; 'shop':'supermarket'; 'toilets:wheelchair':'no'; 'wheelchair':'limited';  -->
  <node action="modify" changeset="1" id="1704395738" lat="47.5096497949104" lon="19.0579899973471" timestamp="2017-09-11T11:23:45Z" uid="4579407" user="KAMI" version="2">
    <tag k="addr:city" v="Budapest"/>
    <tag k="addr:country" v="HU"/>
    <tag k="addr:housenumber" v="55-57"/>
    <tag k="addr:postcode" v="1062"/>
    <tag k="addr:street" v="Teréz körút"/>
    <tag k="branch" v="Expressz Bp. - Eiffel tér"/>
    <tag k="brand" v="Tesco"/>
    <tag k="brand:wikidata" v="Q487494"/>
    <tag k="brand:wikipedia" v="hu:Tesco"/>
    <tag k="facebook" v="https://www.facebook.com/tescoaruhazak"/>
    <tag k="import" v="osm_poi_matchmaker"/>
    <tag k="internet_access" v="wlan"/>
    <tag k="internet_access:fee" v="no"/>
    <tag k="name" v="Tesco Expressz"/>
    <tag k="opening_hours" v="Mo-Sa 06:00-22:00; Su 00:00-00:00; PH off"/>
    <tag k="operator" v="TESCO-GLOBAL Áruházak Zrt."/>
    <tag k="payment:cash" v="yes"/>
    <tag k="payment:debit_cards" v="yes"/>
    <tag k="ref:vatin:hu" v="10307078-2-44"/>
    <tag k="shop" v="convenience"/>
    <tag k="source" v="website"/>
    <tag k="source:date" v="2018-07-30"/>
    <tag k="toilets:wheelchair" v="no"/>
    <tag k="website" v="https://www.tesco.hu/aruhazak/aruhaz/tesco-expressz-bp-eiffel-ter/"/>
    <tag k="wheelchair" v="limited"/>
    <tag k="youtube" v="https://www.youtube.com/user/TescoMagyarorszag"/>
  </node>
  <!-- OSM link: https://osm.org/node/974419451 -->
  <!-- Original coordinates: POINT (47.535106 19.113143) -->
  <!-- OSM <-> POI distance: 73.07980101 m-->
  <!-- Checker good: {not_in_water}; bad {}-->
  <!-- Original tags: 'name':'Tesco Express'; 'opening_hours':'Mo-Sa 06:00-22:00; Su 07:00-18:00'; 'shop':'convenience'; 'wheelchair':'yes';  -->
  <node action="modify" changeset="1" id="974419451" lat="47.5344607949094" lon="19.1133282973394" timestamp="2016-11-05T20:30:07Z" uid="4579407" user="KAMI" version="5">
    <tag k="addr:city" v="Budapest"/>
    <tag k="addr:country" v="HU"/>
    <tag k="addr:housenumber" v="125"/>
    <tag k="addr:postcode" v="1142"/>
    <tag k="addr:street" v="Erzsébet királyné útja"/>
    <tag k="branch" v="Expressz Bp. - Erzsébet Királyné útja"/>
    <tag k="brand" v="Tesco"/>
    <tag k="brand:wikidata" v="Q487494"/>
    <tag k="brand:wikipedia" v="hu:Tesco"/>
    <tag k="facebook" v="https://www.facebook.com/tescoaruhazak"/>
    <tag k="import" v="osm_poi_matchmaker"/>
    <tag k="internet_access" v="wlan"/>
    <tag k="internet_access:fee" v="no"/>
    <tag k="name" v="Tesco Expressz"/>
    <tag k="opening_hours" v="Mo-Sa 06:00-22:00; Su 07:00-18:00; PH off"/>
    <tag k="operator" v="TESCO-GLOBAL Áruházak Zrt."/>
    <tag k="payment:cash" v="yes"/>
    <tag k="payment:debit_cards" v="yes"/>
    <tag k="ref:vatin:hu" v="10307078-2-44"/>
    <tag k="shop" v="convenience"/>
    <tag k="source" v="website"/>
    <tag k="source:date" v="2018-07-30"/>
    <tag k="website" v="https://www.tesco.hu/aruhazak/aruhaz/tesco-expressz-bp-erzsebet-kiralyne-utja/"/>
    <tag k="wheelchair" v="yes"/>
    <tag k="youtube" v="https://www.youtube.com/user/TescoMagyarorszag"/>
  </node>
  <!-- OSM link: https://osm.org/node/2515145578 -->
  <!-- Original coordinates: POINT (47.469967 19.044831) -->
  <!-- OSM <-> POI distance: 64.51690721 m-->
  <!-- Checker good: {not_in_water}; bad {}-->
  <!-- Original tags: 'brand':'TESCO'; 'name':'TESCO Expressz'; 'opening_hours':'Mo-Sa 06:30-22:00; Su 7:00-18:00'; 'shop':'supermarket'; 'wheelchair':'yes'; 'wheelchair:description':'nincs mozgássérültek számára kialakított mellékhelyiség';  -->
  <node action="modify" changeset="1" id="2515145578" lat="47.4694609949121" lon="19.044410997349" timestamp="2017-09-12T10:35:42Z" uid="4579407" user="KAMI" version="5">
    <tag k="addr:city" v="Budapest"/>
    <tag k="addr:country" v="HU"/>
    <tag k="addr:housenumber" v="45-47"/>
    <tag k="addr:postcode" v="1119"/>
    <tag k="addr:street" v="Fehérvári út"/>
    <tag k="branch" v="Expressz Bp. - Fehérvári út"/>
    <tag k="brand" v="Tesco"/>
    <tag k="brand:wikidata" v="Q487494"/>
    <tag k="brand:wikipedia" v="hu:Tesco"/>
    <tag k="facebook" v="https://www.facebook.com/tescoaruhazak"/>
    <tag k="import" v="osm_poi_matchmaker"/>
    <tag k="internet_access" v="wlan"/>
    <tag k="internet_access:fee" v="no"/>
    <tag k="name" v="Tesco Expressz"/>
    <tag k="opening_hours" v="Mo-Sa 06:00-22:00; Su 07:00-18:00; PH off"/>
    <tag k="operator" v="TESCO-GLOBAL Áruházak Zrt."/>
    <tag k="payment:cash" v="yes"/>
    <tag k="payment:debit_cards" v="yes"/>
    <tag k="ref:vatin:hu" v="10307078-2-44"/>
    <tag k="shop" v="convenience"/>
    <tag k="source" v="website"/>
    <tag k="source:date" v="2018-07-30"/>
    <tag k="website" v="https://www.tesco.hu/aruhazak/aruhaz/tesco-expressz-bp-fehervari-ut/"/>
    <tag k="wheelchair" v="yes"/>
    <tag k="wheelchair:description" v="nincs mozgássérültek számára kialakított mellékhelyiség"/>
    <tag k="youtube" v="https://www.youtube.com/user/TescoMagyarorszag"/>
  </node>
  <!-- OSM link: https://osm.org/node/2351067332 -->
  <!-- Original coordinates: POINT (47.55168 18.964269) -->
  <!-- OSM <-> POI distance: 12.04136143 m-->
  <!-- Checker good: {not_in_water}; bad {}-->
  <!-- Original tags: 'name':'Tesco Express'; 'opening_hours':'Mo-Sa 07:00-22:00, Su 08:00-16:00'; 'shop':'convenience'; 'wheelchair':'yes';  -->
  <node action="modify" changeset="1" id="2351067332" lat="47.5515760949087" lon="18.9643141973601" timestamp="2017-10-02T16:02:49Z" uid="4579407" user="KAMI" version="4">
    <tag k="addr:city" v="Budapest"/>
    <tag k="addr:country" v="HU"/>
    <tag k="addr:housenumber" v="22"/>
    <tag k="addr:postcode" v="1028"/>
    <tag k="addr:street" v="Galóca utca"/>
    <tag k="branch" v="Expressz Bp. - Galóca utca"/>
    <tag k="brand" v="Tesco"/>
    <tag k="brand:wikidata" v="Q487494"/>
    <tag k="brand:wikipedia" v="hu:Tesco"/>
    <tag k="facebook" v="https://www.facebook.com/tescoaruhazak"/>
    <tag k="import" v="osm_poi_matchmaker"/>
    <tag k="internet_access" v="wlan"/>
    <tag k="internet_access:fee" v="no"/>
    <tag k="name" v="Tesco Expressz"/>
    <tag k="opening_hours" v="Mo-Sa 07:00-22:00; Su 08:00-16:00; PH off"/>
    <tag k="operator" v="TESCO-GLOBAL Áruházak Zrt."/>
    <tag k="payment:cash" v="yes"/>
    <tag k="payment:debit_cards" v="yes"/>
    <tag k="ref:vatin:hu" v="10307078-2-44"/>
    <tag k="shop" v="convenience"/>
    <tag k="source" v="website"/>
    <tag k="source:date" v="2018-07-30"/>
    <tag k="website" v="https://www.tesco.hu/aruhazak/aruhaz/tesco-expressz-bp-galoca-utca/"/>
    <tag k="wheelchair" v="yes"/>
    <tag k="youtube" v="https://www.youtube.com/user/TescoMagyarorszag"/>
  </node>
  <!-- OSM link: https://osm.org/node/1398794949 -->
  <!-- Original coordinates: POINT (47.562743 19.115663) -->
  <!-- OSM <-> POI distance: 3.33671808 m-->
  <!-- Checker good: {not_in_water}; bad {}-->
  <!-- Original tags: 'addr:city':'Budapest'; 'addr:housenumber':'6'; 'addr:postcode':'1153'; 'addr:street':'Hubay Jenő tér'; 'name':'TESCO Expressz'; 'opening_hours':'Mo-Sa 06:00-22:00'; 'shop':'convenience'; 'website':'http://tesco.hu/aruhazak/202';  -->
  <node action="modify" changeset="1" id="1398794949" lat="47.5627729949082" lon="19.1156616973391" timestamp="2015-04-23T03:23:03Z" uid="4579407" user="KAMI" version="6">
    <tag k="addr:city" v="Budapest"/>
    <tag k="addr:country" v="HU"/>
    <tag k="addr:housenumber" v="6"/>
    <tag k="addr:postcode" v="1153"/>
    <tag k="addr:street" v="Hubay Jenő tér"/>
    <tag k="branch" v="Expressz Bp. - Hubay Jenő tér"/>
    <tag k="brand" v="Tesco"/>
    <tag k="brand:wikidata" v="Q487494"/>
    <tag k="brand:wikipedia" v="hu:Tesco"/>
    <tag k="facebook" v="https://www.facebook.com/tescoaruhazak"/>
    <tag k="import" v="osm_poi_matchmaker"/>
    <tag k="internet_access" v="wlan"/>
    <tag k="internet_access:fee" v="no"/>
    <tag k="name" v="Tesco Expressz"/>
    <tag k="opening_hours" v="Mo-Sa 06:00-22:00; Su 00:00-00:00; PH off"/>
    <tag k="operator" v="TESCO-GLOBAL Áruházak Zrt."/>
    <tag k="payment:cash" v="yes"/>
    <tag k="payment:debit_cards" v="yes"/>
    <tag k="ref:vatin:hu" v="10307078-2-44"/>
    <tag k="shop" v="convenience"/>
    <tag k="source" v="website"/>
    <tag k="source:date" v="2018-07-30"/>
    <tag k="website" v="https://www.tesco.hu/aruhazak/aruhaz/tesco-expressz-bp-hubay-jeno-ter/"/>
    <tag k="youtube" v="https://www.youtube.com/user/TescoMagyarorszag"/>
  </node>
  <!-- OSM link: https://osm.org/node/2296466496 -->
  <!-- Original coordinates: POINT (47.488512 19.060489) -->
  <!-- OSM <-> POI distance: 38.02515599 m-->
  <!-- Checker good: {not_in_water}; bad {}-->
  <!-- Original tags: 'addr:city':'Budapest'; 'addr:housenumber':'7'; 'addr:postcode':'1091'; 'addr:street':'Kálvin tér'; 'name':'Tesco Express'; 'opening_hours':'Mo-Su 05:00-23:00'; 'shop':'convenience'; 'toilets:wheelchair':'no'; 'wheelchair':'yes';  -->
  <node action="modify" changeset="1" id="2296466496" lat="47.4882926949113" lon="19.0608772973467" timestamp="2017-09-11T09:23:15Z" uid="4579407" user="KAMI" version="8">
    <tag k="addr:city" v="Budapest"/>
    <tag k="addr:country" v="HU"/>
    <tag k="addr:housenumber" v="7"/>
    <tag k="addr:postcode" v="1092"/>
    <tag k="addr:street" v="Kálvin tér"/>
    <tag k="branch" v="Expressz Bp. - Kálvin tér"/>
    <tag k="brand" v="Tesco"/>
    <tag k="brand:wikidata" v="Q487494"/>
    <tag k="brand:wikipedia" v="hu:Tesco"/>
    <tag k="facebook" v="https://www.facebook.com/tescoaruhazak"/>
    <tag k="import" v="osm_poi_matchmaker"/>
    <tag k="internet_access" v="wlan"/>
    <tag k="internet_access:fee" v="no"/>
    <tag k="name" v="Tesco Expressz"/>
    <tag k="opening_hours" v="Mo-Su 05:00-23:00; PH off"/>
    <tag k="operator" v="TESCO-GLOBAL Áruházak Zrt."/>
    <tag k="payment:cash" v="yes"/>
    <tag k="payment:debit_cards" v="yes"/>
    <tag k="ref:vatin:hu" v="10307078-2-44"/>
    <tag k="shop" v="convenience"/>
    <tag k="source" v="website"/>
    <tag k="source:date" v="2018-07-30"/>
    <tag k="toilets:wheelchair" v="no"/>
    <tag k="website" v="https://www.tesco.hu/aruhazak/aruhaz/tesco-expressz-bp-kalvin-ter/"/>
    <tag k="wheelchair" v="yes"/>
    <tag k="youtube" v="https://www.youtube.com/user/TescoMagyarorszag"/>
  </node>
  <!-- OSM link: https://osm.org/node/2420796265 -->
  <!-- Original coordinates: POINT (47.527793 19.038244) -->
  <!-- OSM <-> POI distance: 32.11213737 m-->
  <!-- Checker good: {not_in_water}; bad {}-->
  <!-- Original tags: 'name':'Tesco Express'; 'shop':'supermarket'; 'wheelchair':'limited';  -->
  <node action="modify" changeset="1" id="2420796265" lat="47.5280446949097" lon="19.0380342973499" timestamp="2016-03-20T12:45:41Z" uid="4579407" user="KAMI" version="4">
    <tag k="addr:city" v="Budapest"/>
    <tag k="addr:country" v="HU"/>
    <tag k="addr:housenumber" v="4"/>
    <tag k="addr:postcode" v="1036"/>
    <tag k="addr:street" v="Kolosy tér"/>
    <tag k="branch" v="Expressz Bp. - Kolosy tér"/>
    <tag k="brand" v="Tesco"/>
    <tag k="brand:wikidata" v="Q487494"/>
    <tag k="brand:wikipedia" v="hu:Tesco"/>
    <tag k="facebook" v="https://www.facebook.com/tescoaruhazak"/>
    <tag k="import" v="osm_poi_matchmaker"/>
    <tag k="internet_access" v="wlan"/>
    <tag k="internet_access:fee" v="no"/>
    <tag k="name" v="Tesco Expressz"/>
    <tag k="opening_hours" v="Mo-Sa 06:00-22:00; Su 08:00-20:00; PH off"/>
    <tag k="operator" v="TESCO-GLOBAL Áruházak Zrt."/>
    <tag k="payment:cash" v="yes"/>
    <tag k="payment:debit_cards" v="yes"/>
    <tag k="ref:vatin:hu" v="10307078-2-44"/>
    <tag k="shop" v="convenience"/>
    <tag k="source" v="website"/>
    <tag k="source:date" v="2018-07-30"/>
    <tag k="website" v="https://www.tesco.hu/aruhazak/aruhaz/tesco-expressz-bp-kolosy-ter/"/>
    <tag k="wheelchair" v="limited"/>
    <tag k="youtube" v="https://www.youtube.com/user/TescoMagyarorszag"/>
  </node>
  <!-- OSM link: https://osm.org/node/1985469546 -->
  <!-- Original coordinates: POINT (47.42817 19.070211) -->
  <!-- OSM <-> POI distance: 21.36252348 m-->
  <!-- Checker good: {not_in_water}; bad {}-->
  <!-- Original tags: 'addr:city':'Budapest'; 'addr:country':'HU'; 'addr:housenumber':'70'; 'addr:postcode':'1211'; 'addr:street':'Kossuth Lajos utca'; 'name':'TESCO Expressz'; 'opening_hours':'Mo-Sa 06:00-22:00'; 'operator':'TESCO-GLOBAL Áruházak Zrt.'; 'shop':'convenience'; 'toilets:wheelchair':'no'; 'website':'http://tesco.hu/'; 'wheelchair':'yes';  -->
  <node action="modify" changeset="1" id="1985469546" lat="47.4281920949139" lon="19.0704930973454" timestamp="2017-09-13T08:47:38Z" uid="4579407" user="KAMI" version="6">
    <tag k="addr:city" v="Budapest"/>
    <tag k="addr:country" v="HU"/>
    <tag k="addr:housenumber" v="70"/>
    <tag k="addr:postcode" v="1211"/>
    <tag k="addr:street" v="Kossuth Lajos utca"/>
    <tag k="branch" v="Expressz Bp. - Kossuth Lajos utca"/>
    <tag k="brand" v="Tesco"/>
    <tag k="brand:wikidata" v="Q487494"/>
    <tag k="brand:wikipedia" v="hu:Tesco"/>
    <tag k="facebook" v="https://www.facebook.com/tescoaruhazak"/>
    <tag k="import" v="osm_poi_matchmaker"/>
    <tag k="internet_access" v="wlan"/>
    <tag k="internet_access:fee" v="no"/>
    <tag k="name" v="Tesco Expressz"/>
    <tag k="opening_hours" v="Mo-Sa 07:00-22:00; Su 08:00-16:00; PH off"/>
    <tag k="operator" v="TESCO-GLOBAL Áruházak Zrt."/>
    <tag k="payment:cash" v="yes"/>
    <tag k="payment:debit_cards" v="yes"/>
    <tag k="ref:vatin:hu" v="10307078-2-44"/>
    <tag k="shop" v="convenience"/>
    <tag k="source" v="website"/>
    <tag k="source:date" v="2018-07-30"/>
    <tag k="toilets:wheelchair" v="no"/>
    <tag k="website" v="https://www.tesco.hu/aruhazak/aruhaz/tesco-expressz-bp-kossuth-lajos-utca/"/>
    <tag k="wheelchair" v="yes"/>
    <tag k="youtube" v="https://www.youtube.com/user/TescoMagyarorszag"/>
  </node>
  <!-- OSM link: https://osm.org/node/600390561 -->
  <!-- Original coordinates: POINT (47.601144 19.058229) -->
  <!-- OSM <-> POI distance: 57.33608705 m-->
  <!-- Checker good: {not_in_water}; bad {}-->
  <!-- Original tags: 'name':'Tesco Express'; 'shop':'convenience'; 'wheelchair':'yes'; 'wheelchair:description':'nincs mozgássérültek számára kialakított mellékhelyiség';  -->
  <node action="modify" changeset="1" id="600390561" lat="47.6014997949066" lon="19.058782497347" timestamp="2017-09-11T13:49:16Z" uid="4579407" user="KAMI" version="4">
    <tag k="addr:city" v="Budapest"/>
    <tag k="addr:country" v="HU"/>
    <tag k="addr:housenumber" v="9-11"/>
    <tag k="addr:postcode" v="1039"/>
    <tag k="addr:street" v="Madzsar József utca"/>
    <tag k="branch" v="Expressz Bp. - Madzsar József utca"/>
    <tag k="brand" v="Tesco"/>
    <tag k="brand:wikidata" v="Q487494"/>
    <tag k="brand:wikipedia" v="hu:Tesco"/>
    <tag k="facebook" v="https://www.facebook.com/tescoaruhazak"/>
    <tag k="import" v="osm_poi_matchmaker"/>
    <tag k="internet_access" v="wlan"/>
    <tag k="internet_access:fee" v="no"/>
    <tag k="name" v="Tesco Expressz"/>
    <tag k="opening_hours" v="Mo-Sa 06:00-21:00; Su 07:00-18:00; PH off"/>
    <tag k="operator" v="TESCO-GLOBAL Áruházak Zrt."/>
    <tag k="payment:cash" v="yes"/>
    <tag k="payment:debit_cards" v="yes"/>
    <tag k="ref:vatin:hu" v="10307078-2-44"/>
    <tag k="shop" v="convenience"/>
    <tag k="source" v="website"/>
    <tag k="source:date" v="2018-07-30"/>
    <tag k="website" v="https://www.tesco.hu/aruhazak/aruhaz/tesco-expressz-bp-madzsar-jozsef-utca/"/>
    <tag k="wheelchair" v="yes"/>
    <tag k="wheelchair:description" v="nincs mozgássérültek számára kialakított mellékhelyiség"/>
    <tag k="youtube" v="https://www.youtube.com/user/TescoMagyarorszag"/>
  </node>
  <!-- OSM link: https://osm.org/node/2764421663 -->
  <!-- Original coordinates: POINT (47.58605 19.045257) -->
  <!-- OSM <-> POI distance: 8.99716308 m-->
  <!-- Checker good: {not_in_water}; bad {}-->
  <!-- Original tags: 'addr:city':'Budapest'; 'addr:housenumber':'1'; 'addr:postcode':'1039'; 'addr:street':'Mátyás király út'; 'name':'Tesco Express'; 'opening_hours':'Mo-Su 06:30-22:00'; 'operator':'Tesco'; 'shop':'supermarket'; 'wheelchair':'limited';  -->
  <node action="modify" changeset="1" id="2764421663" lat="47.5859691949072" lon="19.0452507973489" timestamp="2015-12-01T08:21:13Z" uid="4579407" user="KAMI" version="4">
    <tag k="addr:city" v="Budapest"/>
    <tag k="addr:country" v="HU"/>
    <tag k="addr:housenumber" v="1"/>
    <tag k="addr:postcode" v="1039"/>
    <tag k="addr:street" v="Mátyás király út"/>
    <tag k="branch" v="Expressz Bp. - Mátyás király út"/>
    <tag k="brand" v="Tesco"/>
    <tag k="brand:wikidata" v="Q487494"/>
    <tag k="brand:wikipedia" v="hu:Tesco"/>
    <tag k="facebook" v="https://www.facebook.com/tescoaruhazak"/>
    <tag k="import" v="osm_poi_matchmaker"/>
    <tag k="internet_access" v="wlan"/>
    <tag k="internet_access:fee" v="no"/>
    <tag k="name" v="Tesco Expressz"/>
    <tag k="opening_hours" v="Mo-Sa 06:00-22:00; Su 08:00-16:00; PH off"/>
    <tag k="operator" v="TESCO-GLOBAL Áruházak Zrt."/>
    <tag k="payment:cash" v="yes"/>
    <tag k="payment:debit_cards" v="yes"/>
    <tag k="ref:vatin:hu" v="10307078-2-44"/>
    <tag k="shop" v="convenience"/>
    <tag k="source" v="website"/>
    <tag k="source:date" v="2018-07-30"/>
    <tag k="website" v="https://www.tesco.hu/aruhazak/aruhaz/tesco-expressz-bp-matyas-kiraly-ut/"/>
    <tag k="wheelchair" v="limited"/>
    <tag k="youtube" v="https://www.youtube.com/user/TescoMagyarorszag"/>
  </node>
  <!-- OSM link: https://osm.org/node/2934194830 -->
  <!-- Original coordinates: POINT (47.494665 19.077448) -->
  <!-- OSM <-> POI distance: 20.26264722 m-->
  <!-- Checker good: {not_in_water}; bad {}-->
  <!-- Original tags: 'name':'Tesco Expressz'; 'shop':'supermarket'; 'toilets:wheelchair':'no'; 'wheelchair':'no';  -->
  <node action="modify" changeset="1" id="2934194830" lat="47.4948430949111" lon="19.0773908973444" timestamp="2017-09-11T10:18:31Z" uid="4579407" user="KAMI" version="3">
    <tag k="addr:city" v="Budapest"/>
    <tag k="addr:country" v="HU"/>
    <tag k="addr:housenumber" v="30"/>
    <tag k="addr:postcode" v="1081"/>
    <tag k="addr:street" v="Népszínház utca"/>
    <tag k="branch" v="Expressz Bp. - Népszínház utca"/>
    <tag k="brand" v="Tesco"/>
    <tag k="brand:wikidata" v="Q487494"/>
    <tag k="brand:wikipedia" v="hu:Tesco"/>
    <tag k="facebook" v="https://www.facebook.com/tescoaruhazak"/>
    <tag k="import" v="osm_poi_matchmaker"/>
    <tag k="internet_access" v="wlan"/>
    <tag k="internet_access:fee" v="no"/>
    <tag k="name" v="Tesco Expressz"/>
    <tag k="opening_hours" v="Mo-Sa 06:00-22:00; Su 07:00-18:00; PH off"/>
    <tag k="operator" v="TESCO-GLOBAL Áruházak Zrt."/>
    <tag k="payment:cash" v="yes"/>
    <tag k="payment:debit_cards" v="yes"/>
    <tag k="ref:vatin:hu" v="10307078-2-44"/>
    <tag k="shop" v="convenience"/>
    <tag k="source" v="website"/>
    <tag k="source:date" v="2018-07-30"/>
    <tag k="toilets:wheelchair" v="no"/>
    <tag k="website" v="https://www.tesco.hu/aruhazak/aruhaz/tesco-expressz-bp-nepszinhaz-utca/"/>
    <tag k="wheelchair" v="no"/>
    <tag k="youtube" v="https://www.youtube.com/user/TescoMagyarorszag"/>
  </node>
  <!-- OSM link: https://osm.org/node/1243092890 -->
  <!-- Original coordinates: POINT (47.596693 19.049937) -->
  <!-- OSM <-> POI distance: 25.34427295 m-->
  <!-- Checker good: {not_in_water}; bad {}-->
  <!-- Original tags: 'name':'Tesco Express'; 'shop':'supermarket'; 'wheelchair':'yes';  -->
  <node action="modify" changeset="1" id="1243092890" lat="47.5968238949068" lon="19.0496602973483" timestamp="2015-10-24T10:15:22Z" uid="4579407" user="KAMI" version="2">
    <tag k="addr:city" v="Budapest"/>
    <tag k="addr:country" v="HU"/>
    <tag k="addr:housenumber" v="1-2"/>
    <tag k="addr:postcode" v="1039"/>
    <tag k="addr:street" v="Pablo Neruda utca"/>
    <tag k="branch" v="Expressz Bp. - Pablo Neruda utca"/>
    <tag k="brand" v="Tesco"/>
    <tag k="brand:wikidata" v="Q487494"/>
    <tag k="brand:wikipedia" v="hu:Tesco"/>
    <tag k="facebook" v="https://www.facebook.com/tescoaruhazak"/>
    <tag k="import" v="osm_poi_matchmaker"/>
    <tag k="internet_access" v="wlan"/>
    <tag k="internet_access:fee" v="no"/>
    <tag k="name" v="Tesco Expressz"/>
    <tag k="opening_hours" v="Mo-Sa 06:00-21:00; Su 07:00-18:00; PH off"/>
    <tag k="operator" v="TESCO-GLOBAL Áruházak Zrt."/>
    <tag k="payment:cash" v="yes"/>
    <tag k="payment:debit_cards" v="yes"/>
    <tag k="ref:vatin:hu" v="10307078-2-44"/>
    <tag k="shop" v="convenience"/>
    <tag k="source" v="website"/>
    <tag k="source:date" v="2018-07-30"/>
    <tag k="website" v="https://www.tesco.hu/aruhazak/aruhaz/tesco-expressz-bp-pablo-neruda-utca/"/>
    <tag k="wheelchair" v="yes"/>
    <tag k="youtube" v="https://www.youtube.com/user/TescoMagyarorszag"/>
  </node>
  <!-- OSM link: https://osm.org/way/319302355 -->
  <!-- Original coordinates: POINT (47.494839 19.005004) -->
  <!-- OSM <-> POI distance: 74.60810935 m-->
  <!-- Checker good: {not_in_water}; bad {}-->
  <!-- Original tags: 'building':'retail'; 'building:levels':'2'; 'name':'TESCO expressz'; 'shop':'supermarket'; 'wheelchair':'yes';  -->
  <way action="modify" changeset="1" id="319302355" timestamp="2017-12-25T16:17:53Z" uid="4579407" user="KAMI" version="7">
    <nd ref="3257159031"/>
    <nd ref="3257159009"/>
    <nd ref="3274179981"/>
    <nd ref="3257158989"/>
    <nd ref="3257159021"/>
    <nd ref="3257159030"/>
    <nd ref="3257159026"/>
    <nd ref="3257159031"/>
    <tag k="addr:city" v="Budapest"/>
    <tag k="addr:country" v="HU"/>
    <tag k="addr:housenumber" v="27-29"/>
    <tag k="addr:postcode" v="1124"/>
    <tag k="addr:street" v="Pagony utca"/>
    <tag k="branch" v="Expressz Bp. - Pagony utca"/>
    <tag k="brand" v="Tesco"/>
    <tag k="brand:wikidata" v="Q487494"/>
    <tag k="brand:wikipedia" v="hu:Tesco"/>
    <tag k="building" v="retail"/>
    <tag k="building:levels" v="2"/>
    <tag k="facebook" v="https://www.facebook.com/tescoaruhazak"/>
    <tag k="import" v="osm_poi_matchmaker"/>
    <tag k="internet_access" v="wlan"/>
    <tag k="internet_access:fee" v="no"/>
    <tag k="name" v="Tesco Expressz"/>
    <tag k="opening_hours" v="Mo-Sa 07:00-22:00; Su 07:00-18:00; PH off"/>
    <tag k="operator" v="TESCO-GLOBAL Áruházak Zrt."/>
    <tag k="payment:cash" v="yes"/>
    <tag k="payment:debit_cards" v="yes"/>
    <tag k="ref:vatin:hu" v="10307078-2-44"/>
    <tag k="shop" v="convenience"/>
    <tag k="source" v="website"/>
    <tag k="source:date" v="2018-07-30"/>
    <tag k="website" v="https://www.tesco.hu/aruhazak/aruhaz/tesco-expressz-bp-pagony-utca/"/>
    <tag k="wheelchair" v="yes"/>
    <tag k="youtube" v="https://www.youtube.com/user/TescoMagyarorszag"/>
  </way>
  <!-- OSM link: https://osm.org/node/856442310 -->
  <!-- Original coordinates: POINT (47.495512 19.064717) -->
  <!-- OSM <-> POI distance: 17.83727889 m-->
  <!-- Checker good: {not_in_water}; bad {}-->
  <!-- Original tags: 'addr:city':'Budapest'; 'addr:housenumber':'20'; 'addr:postcode':'1072'; 'addr:street':'Rákóczi út'; 'name':'Tesco Expressz'; 'name:en':'Tesco Express'; 'opening_hours':'Mo-Sa 07:00-22:00; Su 08:00-16:00'; 'shop':'supermarket'; 'wheelchair':'yes';  -->
  <node action="modify" changeset="1" id="856442310" lat="47.495659594911" lon="19.0646239973462" timestamp="2018-05-10T05:29:38Z" uid="4579407" user="KAMI" version="9">
    <tag k="addr:city" v="Budapest"/>
    <tag k="addr:country" v="HU"/>
    <tag k="addr:housenumber" v="20"/>
    <tag k="addr:postcode" v="1088"/>
    <tag k="addr:street" v="Rákóczi út"/>
    <tag k="branch" v="Expressz Bp. - Rákóczi út"/>
    <tag k="brand" v="Tesco"/>
    <tag k="brand:wikidata" v="Q487494"/>
    <tag k="brand:wikipedia" v="hu:Tesco"/>
    <tag k="facebook" v="https://www.facebook.com/tescoaruhazak"/>
    <tag k="import" v="osm_poi_matchmaker"/>
    <tag k="internet_access" v="wlan"/>
    <tag k="internet_access:fee" v="no"/>
    <tag k="name" v="Tesco Expressz"/>
    <tag k="name:en" v="Tesco Express"/>
    <tag k="opening_hours" v="Mo-Sa 07:00-22:00; Su 08:00-16:00; PH off"/>
    <tag k="operator" v="TESCO-GLOBAL Áruházak Zrt."/>
    <tag k="payment:cash" v="yes"/>
    <tag k="payment:debit_cards" v="yes"/>
    <tag k="ref:vatin:hu" v="10307078-2-44"/>
    <tag k="shop" v="convenience"/>
    <tag k="source" v="website"/>
    <tag k="source:date" v="2018-07-30"/>
    <tag k="website" v="https://www.tesco.hu/aruhazak/aruhaz/tesco-expressz-bp-rakoczi-ut/"/>
    <tag k="wheelchair" v="yes"/>
    <tag k="youtube" v="https://www.youtube.com/user/TescoMagyarorszag"/>
  </node>
  <!-- OSM link: https://osm.org/node/2494246958 -->
  <!-- Original coordinates: POINT (47.523441 19.172148) -->
  <!-- OSM <-> POI distance: 24.71846964 m-->
  <!-- Checker good: {not_in_water}; bad {}-->
  <!-- Original tags: 'addr:city':'Budapest'; 'addr:housenumber':'142-146'; 'addr:postcode':'1162'; 'addr:street':'Rákosi út'; 'name':'TESCO Express, Rákosi utca'; 'opening_hours':'Mo-Sa 06:00-22:00'; 'operator':'tesco'; 'shop':'supermarket'; 'website':'http://www.tesco.hu'; 'wheelchair':'yes';  -->
  <node action="modify" changeset="1" id="2494246958" lat="47.5236535949098" lon="19.1722441973312" timestamp="2017-09-11T06:42:36Z" uid="4579407" user="KAMI" version="7">
    <tag k="addr:city" v="Budapest"/>
    <tag k="addr:country" v="HU"/>
    <tag k="addr:housenumber" v="142-146"/>
    <tag k="addr:postcode" v="1162"/>
    <tag k="addr:street" v="Rákosi utca"/>
    <tag k="branch" v="Expressz Bp. - Rákosi utca"/>
    <tag k="brand" v="Tesco"/>
    <tag k="brand:wikidata" v="Q487494"/>
    <tag k="brand:wikipedia" v="hu:Tesco"/>
    <tag k="facebook" v="https://www.facebook.com/tescoaruhazak"/>
    <tag k="import" v="osm_poi_matchmaker"/>
    <tag k="internet_access" v="wlan"/>
    <tag k="internet_access:fee" v="no"/>
    <tag k="name" v="Tesco Expressz"/>
    <tag k="opening_hours" v="Mo-Sa 07:00-22:00; Su 08:00-16:00; PH off"/>
    <tag k="operator" v="TESCO-GLOBAL Áruházak Zrt."/>
    <tag k="payment:cash" v="yes"/>
    <tag k="payment:debit_cards" v="yes"/>
    <tag k="ref:vatin:hu" v="10307078-2-44"/>
    <tag k="shop" v="convenience"/>
    <tag k="source" v="website"/>
    <tag k="source:date" v="2018-07-30"/>
    <tag k="website" v="https://www.tesco.hu/aruhazak/aruhaz/tesco-expressz-bp-rakosi-utca/"/>
    <tag k="wheelchair" v="yes"/>
    <tag k="youtube" v="https://www.youtube.com/user/TescoMagyarorszag"/>
  </node>
  <!-- OSM link: https://osm.org/node/1232504673 -->
  <!-- Original coordinates: POINT (47.540223 19.090772) -->
  <!-- OSM <-> POI distance: 10.68991099 m-->
  <!-- Checker good: {not_in_water}; bad {}-->
  <!-- Original tags: 'name':'TESCO expressz'; 'opening_hours':'Mo-su 06:00-22:00'; 'shop':'supermarket'; 'wheelchair':'yes';  -->
  <node action="modify" changeset="1" id="1232504673" lat="47.5403182949091" lon="19.0907531973425" timestamp="2015-11-19T10:33:01Z" uid="4579407" user="KAMI" version="3">
    <tag k="addr:city" v="Budapest"/>
    <tag k="addr:country" v="HU"/>
    <tag k="addr:housenumber" v="132"/>
    <tag k="addr:postcode" v="1131"/>
    <tag k="addr:street" v="Reitter Ferenc utca"/>
    <tag k="branch" v="Expressz Bp. - Reitter Ferenc utca"/>
    <tag k="brand" v="Tesco"/>
    <tag k="brand:wikidata" v="Q487494"/>
    <tag k="brand:wikipedia" v="hu:Tesco"/>
    <tag k="facebook" v="https://www.facebook.com/tescoaruhazak"/>
    <tag k="import" v="osm_poi_matchmaker"/>
    <tag k="internet_access" v="wlan"/>
    <tag k="internet_access:fee" v="no"/>
    <tag k="name" v="Tesco Expressz"/>
    <tag k="opening_hours" v="Mo-Sa 06:00-22:00; Su 08:00-16:00; PH off"/>
    <tag k="operator" v="TESCO-GLOBAL Áruházak Zrt."/>
    <tag k="payment:cash" v="yes"/>
    <tag k="payment:debit_cards" v="yes"/>
    <tag k="ref:vatin:hu" v="10307078-2-44"/>
    <tag k="shop" v="convenience"/>
    <tag k="source" v="website"/>
    <tag k="source:date" v="2018-07-30"/>
    <tag k="website" v="https://www.tesco.hu/aruhazak/aruhaz/tesco-expressz-bp-reitter-ferenc-utca/"/>
    <tag k="wheelchair" v="yes"/>
    <tag k="youtube" v="https://www.youtube.com/user/TescoMagyarorszag"/>
  </node>
  <!-- OSM link: https://osm.org/node/613359560 -->
  <!-- Original coordinates: POINT (47.40775 19.079206) -->
  <!-- OSM <-> POI distance: 53.09561673 m-->
  <!-- Checker good: {not_in_water}; bad {}-->
  <!-- Original tags: 'addr:city':'Budapest'; 'addr:housenumber':'115'; 'addr:postcode':'1213'; 'addr:street':'Szent László utca'; 'name':'TESCO Expressz'; 'opening_hours':'Mo-Sa 06:00-22:00'; 'operator':'TESCO-GLOBAL Áruházak Zrt.'; 'shop':'convenience'; 'website':'http://tesco.hu/';  -->
  <node action="modify" changeset="1" id="613359560" lat="47.4073085949148" lon="19.0794750973441" timestamp="2016-07-28T13:28:20Z" uid="4579407" user="KAMI" version="5">
    <tag k="addr:city" v="Budapest"/>
    <tag k="addr:country" v="HU"/>
    <tag k="addr:housenumber" v="115"/>
    <tag k="addr:postcode" v="1213"/>
    <tag k="addr:street" v="Szent László út"/>
    <tag k="branch" v="Expressz Bp. - Szent László út"/>
    <tag k="brand" v="Tesco"/>
    <tag k="brand:wikidata" v="Q487494"/>
    <tag k="brand:wikipedia" v="hu:Tesco"/>
    <tag k="facebook" v="https://www.facebook.com/tescoaruhazak"/>
    <tag k="import" v="osm_poi_matchmaker"/>
    <tag k="internet_access" v="wlan"/>
    <tag k="internet_access:fee" v="no"/>
    <tag k="name" v="Tesco Expressz"/>
    <tag k="opening_hours" v="Mo-Sa 07:00-21:00; Su 08:00-16:00; PH off"/>
    <tag k="operator" v="TESCO-GLOBAL Áruházak Zrt."/>
    <tag k="payment:cash" v="yes"/>
    <tag k="payment:debit_cards" v="yes"/>
    <tag k="ref:vatin:hu" v="10307078-2-44"/>
    <tag k="shop" v="convenience"/>
    <tag k="source" v="website"/>
    <tag k="source:date" v="2018-07-30"/>
    <tag k="website" v="https://www.tesco.hu/aruhazak/aruhaz/tesco-expressz-bp-szent-laszlo-ut/"/>
    <tag k="youtube" v="https://www.youtube.com/user/TescoMagyarorszag"/>
  </node>
  <!-- OSM link: https://osm.org/node/4933469047 -->
  <!-- Original coordinates: POINT (46.966954 18.930975) -->
  <!-- OSM <-> POI distance: 25.72316173 m-->
  <!-- Checker good: {not_in_water}; bad {}-->
  <!-- Original tags: 'name':'Tesco Express'; 'shop':'supermarket'; 'source':'route4u'; 'wheelchair':'yes';  -->
  <node action="modify" changeset="1" id="4933469047" lat="46.967177494934" lon="18.9310624973648" timestamp="2018-07-01T09:12:02Z" uid="4579407" user="KAMI" version="5">
    <tag k="addr:city" v="Dunaújváros"/>
    <tag k="addr:country" v="HU"/>
    <tag k="addr:housenumber" v="4"/>
    <tag k="addr:postcode" v="2400"/>
    <tag k="addr:street" v="Bercsényi utca"/>
    <tag k="branch" v="Expressz Dunaújváros - Bercsényi utca"/>
    <tag k="brand" v="Tesco"/>
    <tag k="brand:wikidata" v="Q487494"/>
    <tag k="brand:wikipedia" v="hu:Tesco"/>
    <tag k="facebook" v="https://www.facebook.com/tescoaruhazak"/>
    <tag k="import" v="osm_poi_matchmaker"/>
    <tag k="internet_access" v="wlan"/>
    <tag k="internet_access:fee" v="no"/>
    <tag k="name" v="Tesco Expressz"/>
    <tag k="opening_hours" v="Mo-Sa 06:00-22:00; Su 08:00-16:00; PH off"/>
    <tag k="operator" v="TESCO-GLOBAL Áruházak Zrt."/>
    <tag k="payment:cash" v="yes"/>
    <tag k="payment:debit_cards" v="yes"/>
    <tag k="ref:vatin:hu" v="10307078-2-44"/>
    <tag k="shop" v="convenience"/>
    <tag k="source" v="website"/>
    <tag k="source:date" v="2018-07-30"/>
    <tag k="website" v="https://www.tesco.hu/aruhazak/aruhaz/tesco-expressz-dunaujvaros-bercsenyi-utca/"/>
    <tag k="wheelchair" v="yes"/>
    <tag k="youtube" v="https://www.youtube.com/user/TescoMagyarorszag"/>
  </node>
  <!-- OSM link: https://osm.org/way/314708227 -->
  <!-- Original coordinates: POINT (47.320427 18.792617) -->
  <!-- OSM <-> POI distance: 124.15310703 m-->
  <!-- Checker good: {not_in_water}; bad {}-->
  <!-- Original tags: 'building':'yes'; 'name':'Tesco Express'; 'shop':'convenience'; 'wheelchair':'yes';  -->
  <way action="modify" changeset="1" id="314708227" timestamp="2017-09-13T13:23:30Z" uid="4579407" user="KAMI" version="5">
    <nd ref="3207570580"/>
    <nd ref="3207570581"/>
    <nd ref="3207570582"/>
    <nd ref="3207570583"/>
    <nd ref="3207570584"/>
    <nd ref="3207570585"/>
    <nd ref="3207570580"/>
    <tag k="addr:city" v="Martonvásár"/>
    <tag k="addr:country" v="HU"/>
    <tag k="addr:housenumber" v="6"/>
    <tag k="addr:postcode" v="2462"/>
    <tag k="addr:street" v="Ady Endre utca"/>
    <tag k="branch" v="Expressz Martonvásár"/>
    <tag k="brand" v="Tesco"/>
    <tag k="brand:wikidata" v="Q487494"/>
    <tag k="brand:wikipedia" v="hu:Tesco"/>
    <tag k="building" v="yes"/>
    <tag k="facebook" v="https://www.facebook.com/tescoaruhazak"/>
    <tag k="import" v="osm_poi_matchmaker"/>
    <tag k="internet_access" v="wlan"/>
    <tag k="internet_access:fee" v="no"/>
    <tag k="name" v="Tesco Expressz"/>
    <tag k="opening_hours" v="Mo-Sa 06:00-22:00; Su 07:00-20:00; PH off"/>
    <tag k="operator" v="TESCO-GLOBAL Áruházak Zrt."/>
    <tag k="payment:cash" v="yes"/>
    <tag k="payment:debit_cards" v="yes"/>
    <tag k="ref:vatin:hu" v="10307078-2-44"/>
    <tag k="shop" v="convenience"/>
    <tag k="source" v="website"/>
    <tag k="source:date" v="2018-07-30"/>
    <tag k="website" v="https://www.tesco.hu/aruhazak/aruhaz/tesco-expressz-martonvasar/"/>
    <tag k="wheelchair" v="yes"/>
    <tag k="youtube" v="https://www.youtube.com/user/TescoMagyarorszag"/>
  </way>
  <!-- OSM link: https://osm.org/node/5081664573 -->
  <!-- Original coordinates: POINT (48.109297 20.787642) -->
  <!-- OSM <-> POI distance: 222.1311565 m-->
  <!-- Checker good: {not_in_water}; bad {}-->
  <!-- Original tags: 'name':'Tesco Express'; 'shop':'convenience';  -->
  <node action="modify" changeset="1" id="5081664573" lat="48.1073063948859" lon="20.7873905971064" timestamp="2017-09-05T13:43:06Z" uid="4579407" user="KAMI" version="1">
    <tag k="addr:city" v="Miskolc"/>
    <tag k="addr:country" v="HU"/>
    <tag k="addr:housenumber" v="1"/>
    <tag k="addr:postcode" v="3526"/>
    <tag k="addr:street" v="Arany János tér"/>
    <tag k="branch" v="Expressz Miskolc - Arany János tér"/>
    <tag k="brand" v="Tesco"/>
    <tag k="brand:wikidata" v="Q487494"/>
    <tag k="brand:wikipedia" v="hu:Tesco"/>
    <tag k="facebook" v="https://www.facebook.com/tescoaruhazak"/>
    <tag k="import" v="osm_poi_matchmaker"/>
    <tag k="internet_access" v="wlan"/>
    <tag k="internet_access:fee" v="no"/>
    <tag k="name" v="Tesco Expressz"/>
    <tag k="opening_hours" v="Mo-Sa 06:00-22:00; Su 08:00-16:00; PH off"/>
    <tag k="operator" v="TESCO-GLOBAL Áruházak Zrt."/>
    <tag k="payment:cash" v="yes"/>
    <tag k="payment:debit_cards" v="yes"/>
    <tag k="ref:vatin:hu" v="10307078-2-44"/>
    <tag k="shop" v="convenience"/>
    <tag k="source" v="website"/>
    <tag k="source:date" v="2018-07-30"/>
    <tag k="website" v="https://www.tesco.hu/aruhazak/aruhaz/tesco-expressz-miskolc-arany-janos-ter/"/>
    <tag k="youtube" v="https://www.youtube.com/user/TescoMagyarorszag"/>
  </node>
  <!-- OSM link: https://osm.org/node/1349471996 -->
  <!-- Original coordinates: POINT (48.102623 20.783127) -->
  <!-- OSM <-> POI distance: 126.24084886 m-->
  <!-- Checker good: {not_in_water}; bad {}-->
  <!-- Original tags: 'name':'Tesco'; 'shop':'convenience'; 'wheelchair':'yes';  -->
  <node action="modify" changeset="1" id="1349471996" lat="48.1026634948861" lon="20.7848259971067" timestamp="2015-11-20T21:40:02Z" uid="4579407" user="KAMI" version="3">
    <tag k="addr:city" v="Miskolc"/>
    <tag k="addr:country" v="HU"/>
    <tag k="addr:housenumber" v="29"/>
    <tag k="addr:postcode" v="3525"/>
    <tag k="addr:street" v="Széchenyi utca"/>
    <tag k="branch" v="Expressz Miskolc - Széchenyi utca"/>
    <tag k="brand" v="Tesco"/>
    <tag k="brand:wikidata" v="Q487494"/>
    <tag k="brand:wikipedia" v="hu:Tesco"/>
    <tag k="facebook" v="https://www.facebook.com/tescoaruhazak"/>
    <tag k="import" v="osm_poi_matchmaker"/>
    <tag k="internet_access" v="wlan"/>
    <tag k="internet_access:fee" v="no"/>
    <tag k="name" v="Tesco Expressz"/>
    <tag k="opening_hours" v="Mo-Sa 06:00-22:00; Su 08:00-16:00; PH off"/>
    <tag k="operator" v="TESCO-GLOBAL Áruházak Zrt."/>
    <tag k="payment:cash" v="yes"/>
    <tag k="payment:debit_cards" v="yes"/>
    <tag k="ref:vatin:hu" v="10307078-2-44"/>
    <tag k="shop" v="convenience"/>
    <tag k="source" v="website"/>
    <tag k="source:date" v="2018-07-30"/>
    <tag k="website" v="https://www.tesco.hu/aruhazak/aruhaz/tesco-expressz-miskolc-szechenyi-utca/"/>
    <tag k="wheelchair" v="yes"/>
    <tag k="youtube" v="https://www.youtube.com/user/TescoMagyarorszag"/>
  </node>
  <!-- OSM link: https://osm.org/node/2938508503 -->
  <!-- Original coordinates: POINT (47.515252 18.829965) -->
  <!-- OSM <-> POI distance: 12.03446911 m-->
  <!-- Checker good: {not_in_water}; bad {}-->
  <!-- Original tags: 'name':'Tesco Express'; 'opening_hours':'6:30-21:00'; 'shop':'convenience'; 'wheelchair':'yes';  -->
  <node action="modify" changeset="1" id="2938508503" lat="47.5153380949102" lon="18.8298678973789" timestamp="2014-12-28T12:42:29Z" uid="4579407" user="KAMI" version="2">
    <tag k="addr:city" v="Páty"/>
    <tag k="addr:country" v="HU"/>
    <tag k="addr:housenumber" v="11"/>
    <tag k="addr:postcode" v="2071"/>
    <tag k="addr:street" v="Rákóczi utca"/>
    <tag k="branch" v="Expressz Páty - Rákóczi utca"/>
    <tag k="brand" v="Tesco"/>
    <tag k="brand:wikidata" v="Q487494"/>
    <tag k="brand:wikipedia" v="hu:Tesco"/>
    <tag k="facebook" v="https://www.facebook.com/tescoaruhazak"/>
    <tag k="import" v="osm_poi_matchmaker"/>
    <tag k="internet_access" v="wlan"/>
    <tag k="internet_access:fee" v="no"/>
    <tag k="name" v="Tesco Expressz"/>
    <tag k="opening_hours" v="Mo-Sa 07:00-21:00; Su 08:00-16:00; PH off"/>
    <tag k="operator" v="TESCO-GLOBAL Áruházak Zrt."/>
    <tag k="payment:cash" v="yes"/>
    <tag k="payment:debit_cards" v="yes"/>
    <tag k="ref:vatin:hu" v="10307078-2-44"/>
    <tag k="shop" v="convenience"/>
    <tag k="source" v="website"/>
    <tag k="source:date" v="2018-07-30"/>
    <tag k="website" v="https://www.tesco.hu/aruhazak/aruhaz/tesco-expressz-paty-rakoczi-utca/"/>
    <tag k="wheelchair" v="yes"/>
    <tag k="youtube" v="https://www.youtube.com/user/TescoMagyarorszag"/>
  </node>
  <!-- OSM link: https://osm.org/node/1880546349 -->
  <!-- Original coordinates: POINT (46.907659 18.061418) -->
  <!-- OSM <-> POI distance: 14.22600753 m-->
  <!-- Checker good: {not_in_water}; bad {}-->
  <!-- Original tags: 'name':'Tesco expressz'; 'shop':'supermarket';  -->
  <node action="modify" changeset="1" id="1880546349" lat="46.9076669949366" lon="18.0612310974859" timestamp="2012-08-24T09:55:38Z" uid="4579407" user="KAMI" version="1">
    <tag k="addr:city" v="Siófok"/>
    <tag k="addr:country" v="HU"/>
    <tag k="addr:housenumber" v="20"/>
    <tag k="addr:postcode" v="8600"/>
    <tag k="addr:street" v="Dózsa György utca"/>
    <tag k="branch" v="Expressz Siófok-Dózsa György utca"/>
    <tag k="brand" v="Tesco"/>
    <tag k="brand:wikidata" v="Q487494"/>
    <tag k="brand:wikipedia" v="hu:Tesco"/>
    <tag k="facebook" v="https://www.facebook.com/tescoaruhazak"/>
    <tag k="import" v="osm_poi_matchmaker"/>
    <tag k="internet_access" v="wlan"/>
    <tag k="internet_access:fee" v="no"/>
    <tag k="name" v="Tesco Expressz"/>
    <tag k="opening_hours" v="Mo-Su 06:00-22:00; PH off"/>
    <tag k="operator" v="TESCO-GLOBAL Áruházak Zrt."/>
    <tag k="payment:cash" v="yes"/>
    <tag k="payment:debit_cards" v="yes"/>
    <tag k="ref:vatin:hu" v="10307078-2-44"/>
    <tag k="shop" v="convenience"/>
    <tag k="source" v="website"/>
    <tag k="source:date" v="2018-07-30"/>
    <tag k="website" v="https://www.tesco.hu/aruhazak/aruhaz/tesco-expressz-siofok-dozsa-gyorgy-utca/"/>
    <tag k="youtube" v="https://www.youtube.com/user/TescoMagyarorszag"/>
  </node>
  <!-- OSM link: https://osm.org/node/4747723237 -->
  <!-- Original coordinates: POINT (46.250812 20.143572) -->
  <!-- OSM <-> POI distance: 23.33299494 m-->
  <!-- Checker good: {not_in_water}; bad {}-->
  <!-- Original tags: 'addr:city':'Szeged'; 'addr:housenumber':'8-9'; 'addr:postcode':'6722'; 'addr:street':'Dugonics tér'; 'name':'Tesco Express'; 'opening_hours':'Mo-Sa 07:00-22:00; Su 07:00-18:00'; 'operator':'TESCO'; 'shop':'supermarket'; 'wheelchair':'yes';  -->
  <node action="modify" changeset="1" id="4747723237" lat="46.2506513949669" lon="20.143767297196" timestamp="2017-03-21T21:17:24Z" uid="4579407" user="KAMI" version="1">
    <tag k="addr:city" v="Szeged"/>
    <tag k="addr:country" v="HU"/>
    <tag k="addr:housenumber" v="8-9"/>
    <tag k="addr:postcode" v="6722"/>
    <tag k="addr:street" v="Dugonics tér"/>
    <tag k="branch" v="Expressz Szeged - Dugonics tér"/>
    <tag k="brand" v="Tesco"/>
    <tag k="brand:wikidata" v="Q487494"/>
    <tag k="brand:wikipedia" v="hu:Tesco"/>
    <tag k="facebook" v="https://www.facebook.com/tescoaruhazak"/>
    <tag k="import" v="osm_poi_matchmaker"/>
    <tag k="internet_access" v="wlan"/>
    <tag k="internet_access:fee" v="no"/>
    <tag k="name" v="Tesco Expressz"/>
    <tag k="opening_hours" v="Mo-Sa 07:00-22:00; Su 07:00-18:00; PH off"/>
    <tag k="operator" v="TESCO-GLOBAL Áruházak Zrt."/>
    <tag k="payment:cash" v="yes"/>
    <tag k="payment:debit_cards" v="yes"/>
    <tag k="ref:vatin:hu" v="10307078-2-44"/>
    <tag k="shop" v="convenience"/>
    <tag k="source" v="website"/>
    <tag k="source:date" v="2018-07-30"/>
    <tag k="website" v="https://www.tesco.hu/aruhazak/aruhaz/tesco-expressz-szeged-dugonics-ter/"/>
    <tag k="wheelchair" v="yes"/>
    <tag k="youtube" v="https://www.youtube.com/user/TescoMagyarorszag"/>
  </node>
  <!-- OSM link: https://osm.org/node/2433857106 -->
  <!-- Original coordinates: POINT (46.255891 20.147617) -->
  <!-- OSM <-> POI distance: 32.6027923 m-->
  <!-- Checker good: {not_in_water}; bad {}-->
  <!-- Original tags: 'name':'Tesco Express'; 'operator':'Tesco'; 'shop':'supermarket'; 'wheelchair':'no';  -->
  <node action="modify" changeset="1" id="2433857106" lat="46.2561393949666" lon="20.1473916971955" timestamp="2018-06-19T12:54:44Z" uid="4579407" user="KAMI" version="4">
    <tag k="addr:city" v="Szeged"/>
    <tag k="addr:country" v="HU"/>
    <tag k="addr:housenumber" v="41"/>
    <tag k="addr:postcode" v="6722"/>
    <tag k="addr:street" v="Tisza Lajos körút"/>
    <tag k="branch" v="Expressz Szeged - Tisza Lajos krt."/>
    <tag k="brand" v="Tesco"/>
    <tag k="brand:wikidata" v="Q487494"/>
    <tag k="brand:wikipedia" v="hu:Tesco"/>
    <tag k="facebook" v="https://www.facebook.com/tescoaruhazak"/>
    <tag k="import" v="osm_poi_matchmaker"/>
    <tag k="internet_access" v="wlan"/>
    <tag k="internet_access:fee" v="no"/>
    <tag k="name" v="Tesco Expressz"/>
    <tag k="opening_hours" v="Mo-Su 05:00-23:00; PH off"/>
    <tag k="operator" v="TESCO-GLOBAL Áruházak Zrt."/>
    <tag k="payment:cash" v="yes"/>
    <tag k="payment:debit_cards" v="yes"/>
    <tag k="ref:vatin:hu" v="10307078-2-44"/>
    <tag k="shop" v="convenience"/>
    <tag k="source" v="website"/>
    <tag k="source:date" v="2018-07-30"/>
    <tag k="website" v="https://www.tesco.hu/aruhazak/aruhaz/tesco-expressz-szeged-tisza-lajos-krt/"/>
    <tag k="wheelchair" v="no"/>
    <tag k="youtube" v="https://www.youtube.com/user/TescoMagyarorszag"/>
  </node>
  <!-- OSM link: https://osm.org/way/202144225 -->
  <!-- Original coordinates: POINT (47.440971 19.022408) -->
  <!-- OSM <-> POI distance: 0.0 m-->
  <!-- Checker good: {not_in_water}; bad {}-->
  <!-- Original tags: 'addr:city':'Budapest'; 'addr:country':'HU'; 'addr:housenumber':'99'; 'addr:postcode':'1221'; 'addr:street':'Ady Endre út'; 'building':'retail'; 'name':'TESCO Express'; 'opening_hours':'Mo-Sa 06:00-22:00'; 'shop':'supermarket'; 'wheelchair':'yes';  -->
  <way action="modify" changeset="1" id="202144225" timestamp="2017-12-25T16:16:35Z" uid="4579407" user="KAMI" version="5">
    <nd ref="1755334628"/>
    <nd ref="2121203830"/>
    <nd ref="2121203829"/>
    <nd ref="2121203832"/>
    <nd ref="2121203831"/>
    <nd ref="2121203833"/>
    <nd ref="1755334628"/>
    <tag k="addr:city" v="Budapest"/>
    <tag k="addr:country" v="HU"/>
    <tag k="addr:housenumber" v="99"/>
    <tag k="addr:postcode" v="1221"/>
    <tag k="addr:street" v="Ady Endre utca"/>
    <tag k="branch" v="Hasadék Expressz"/>
    <tag k="brand" v="Tesco"/>
    <tag k="brand:wikidata" v="Q487494"/>
    <tag k="brand:wikipedia" v="hu:Tesco"/>
    <tag k="building" v="retail"/>
    <tag k="facebook" v="https://www.facebook.com/tescoaruhazak"/>
    <tag k="import" v="osm_poi_matchmaker"/>
    <tag k="internet_access" v="wlan"/>
    <tag k="internet_access:fee" v="no"/>
    <tag k="name" v="Tesco Expressz"/>
    <tag k="opening_hours" v="Mo-Sa 07:00-21:00; Su 08:00-16:00; PH off"/>
    <tag k="operator" v="TESCO-GLOBAL Áruházak Zrt."/>
    <tag k="payment:cash" v="yes"/>
    <tag k="payment:debit_cards" v="yes"/>
    <tag k="ref:vatin:hu" v="10307078-2-44"/>
    <tag k="shop" v="convenience"/>
    <tag k="source" v="website"/>
    <tag k="source:date" v="2018-07-30"/>
    <tag k="website" v="https://www.tesco.hu/aruhazak/aruhaz/tesco-hasadek-expressz/"/>
    <tag k="wheelchair" v="yes"/>
    <tag k="youtube" v="https://www.youtube.com/user/TescoMagyarorszag"/>
  </way>
  <!-- OSM link: https://osm.org/way/313663616 -->
  <!-- Original coordinates: POINT (47.5128 19.123942) -->
  <!-- OSM <-> POI distance: 49.33586293 m-->
  <!-- Checker good: {not_in_water}; bad {}-->
  <!-- Original tags: 'addr:city':'Budapest'; 'addr:housenumber':'73-77'; 'addr:postcode':'1148'; 'addr:street':'Nagy Lajos király útja'; 'building':'retail'; 'name':'Tesco'; 'opening_hours':'Mo-Sa 07:00-22:00; Su 07:00-18:00'; 'shop':'supermarket'; 'toilets:wheelchair':'no'; 'wheelchair':'yes';  -->
  <way action="modify" changeset="1" id="313663616" timestamp="2017-09-18T09:04:23Z" uid="4579407" user="KAMI" version="6">
    <nd ref="2912269259"/>
    <nd ref="2912269255"/>
    <nd ref="2912269253"/>
    <nd ref="2912269245"/>
    <nd ref="2912269256"/>
    <nd ref="2912269264"/>
    <nd ref="2912269259"/>
    <tag k="addr:city" v="Budapest"/>
    <tag k="addr:country" v="HU"/>
    <tag k="addr:housenumber" v="73-77"/>
    <tag k="addr:postcode" v="1148"/>
    <tag k="addr:street" v="Nagy Lajos király útja"/>
    <tag k="branch" v="Nagy Lajos király útja Expressz"/>
    <tag k="brand" v="Tesco"/>
    <tag k="brand:wikidata" v="Q487494"/>
    <tag k="brand:wikipedia" v="hu:Tesco"/>
    <tag k="building" v="retail"/>
    <tag k="facebook" v="https://www.facebook.com/tescoaruhazak"/>
    <tag k="import" v="osm_poi_matchmaker"/>
    <tag k="internet_access" v="wlan"/>
    <tag k="internet_access:fee" v="no"/>
    <tag k="name" v="Tesco Expressz"/>
    <tag k="opening_hours" v="Mo-Sa 06:00-22:00; Su 07:00-18:00; PH off"/>
    <tag k="operator" v="TESCO-GLOBAL Áruházak Zrt."/>
    <tag k="payment:cash" v="yes"/>
    <tag k="payment:debit_cards" v="yes"/>
    <tag k="ref:vatin:hu" v="10307078-2-44"/>
    <tag k="shop" v="convenience"/>
    <tag k="source" v="website"/>
    <tag k="source:date" v="2018-07-30"/>
    <tag k="toilets:wheelchair" v="no"/>
    <tag k="website" v="https://www.tesco.hu/aruhazak/aruhaz/tesco-nagy-lajos-kiraly-utja-expressz/"/>
    <tag k="wheelchair" v="yes"/>
    <tag k="youtube" v="https://www.youtube.com/user/TescoMagyarorszag"/>
  </way>
  <!-- OSM link: https://osm.org/way/308056023 -->
  <!-- Original coordinates: POINT (47.516139 19.106895) -->
  <!-- OSM <-> POI distance: 33.27430076 m-->
  <!-- Checker good: {not_in_water}; bad {}-->
  <!-- Original tags: 'addr:city':'Budapest'; 'addr:housenumber':'159'; 'addr:postcode':'1146'; 'addr:street':'Thököly út'; 'building':'retail'; 'name':'Tesco Express'; 'shop':'supermarket'; 'source':'Interspect ortofotó 2014'; 'toilets:wheelchair':'no'; 'wheelchair':'yes';  -->
  <way action="modify" changeset="1" id="308056023" timestamp="2017-12-25T16:17:49Z" uid="4579407" user="KAMI" version="6">
    <nd ref="3133371572"/>
    <nd ref="3387342031"/>
    <nd ref="2024894608"/>
    <nd ref="3133371563"/>
    <nd ref="3387342030"/>
    <nd ref="3387342029"/>
    <nd ref="3387342032"/>
    <nd ref="3387342033"/>
    <nd ref="3133371570"/>
    <nd ref="2024894652"/>
    <nd ref="3387342035"/>
    <nd ref="3133371566"/>
    <nd ref="3133371572"/>
    <tag k="addr:city" v="Budapest"/>
    <tag k="addr:country" v="HU"/>
    <tag k="addr:housenumber" v="151"/>
    <tag k="addr:postcode" v="1146"/>
    <tag k="addr:street" v="Thököly út"/>
    <tag k="branch" v="Thököly út Expressz"/>
    <tag k="brand" v="Tesco"/>
    <tag k="brand:wikidata" v="Q487494"/>
    <tag k="brand:wikipedia" v="hu:Tesco"/>
    <tag k="building" v="retail"/>
    <tag k="facebook" v="https://www.facebook.com/tescoaruhazak"/>
    <tag k="import" v="osm_poi_matchmaker"/>
    <tag k="internet_access" v="wlan"/>
    <tag k="internet_access:fee" v="no"/>
    <tag k="name" v="Tesco Expressz"/>
    <tag k="opening_hours" v="Mo-Sa 06:00-22:00; Su 07:00-18:00; PH off"/>
    <tag k="operator" v="TESCO-GLOBAL Áruházak Zrt."/>
    <tag k="payment:cash" v="yes"/>
    <tag k="payment:debit_cards" v="yes"/>
    <tag k="ref:vatin:hu" v="10307078-2-44"/>
    <tag k="shop" v="convenience"/>
    <tag k="source" v="website"/>
    <tag k="source:date" v="2018-07-30"/>
    <tag k="toilets:wheelchair" v="no"/>
    <tag k="website" v="https://www.tesco.hu/aruhazak/aruhaz/tesco-thokoly-ut-expressz/"/>
    <tag k="wheelchair" v="yes"/>
    <tag k="youtube" v="https://www.youtube.com/user/TescoMagyarorszag"/>
  </way>
  <!-- OSM link: https://osm.org/node/4568001190 -->
  <!-- Original coordinates: POINT (47.440996 18.914191) -->
  <!-- OSM <-> POI distance: 72.14340742 m-->
  <!-- Checker good: {not_in_water}; bad {}-->
  <!-- Original tags: 'name':'Tesco Expressz'; 'shop':'supermarket'; 'wheelchair':'yes';  -->
  <node action="modify" changeset="1" id="4568001190" lat="47.4414448949133" lon="18.9134983973672" timestamp="2018-03-08T10:44:59Z" uid="4579407" user="KAMI" version="3">
    <tag k="addr:city" v="Törökbálint"/>
    <tag k="addr:country" v="HU"/>
    <tag k="addr:housenumber" v="67"/>
    <tag k="addr:postcode" v="2045"/>
    <tag k="addr:street" v="Bajcsy-Zsilinszky utca"/>
    <tag k="branch" v="Törökbálint Expressz"/>
    <tag k="brand" v="Tesco"/>
    <tag k="brand:wikidata" v="Q487494"/>
    <tag k="brand:wikipedia" v="hu:Tesco"/>
    <tag k="facebook" v="https://www.facebook.com/tescoaruhazak"/>
    <tag k="import" v="osm_poi_matchmaker"/>
    <tag k="internet_access" v="wlan"/>
    <tag k="internet_access:fee" v="no"/>
    <tag k="name" v="Tesco Expressz"/>
    <tag k="opening_hours" v="Mo-Sa 06:00-22:00; Su 08:00-16:00; PH off"/>
    <tag k="operator" v="TESCO-GLOBAL Áruházak Zrt."/>
    <tag k="payment:cash" v="yes"/>
    <tag k="payment:debit_cards" v="yes"/>
    <tag k="ref:vatin:hu" v="10307078-2-44"/>
    <tag k="shop" v="convenience"/>
    <tag k="source" v="website"/>
    <tag k="source:date" v="2018-07-30"/>
    <tag k="website" v="https://www.tesco.hu/aruhazak/aruhaz/tesco-torokbalint-expressz/"/>
    <tag k="wheelchair" v="yes"/>
    <tag k="youtube" v="https://www.youtube.com/user/TescoMagyarorszag"/>
  </node>
</osm>
