<?xml version='1.0' encoding='UTF-8'?>
<osm generator="JOSM" version="0.6">
  <!-- OSM link: https://osm.org/way/202423006 -->
  <!-- Original coordinates: POINT (47.64828 17.62679) -->
  <!-- OSM <-> POI distance: 0.0 m-->
  <!-- Checker good: {not_in_water,standard_opening_hours}; bad {}-->
  <!-- Original tags: 'addr:city':'Győr'; 'addr:housenumber':'33'; 'addr:postcode':'9012'; 'addr:street':'Királyszéki út'; 'building':'retail'; 'name':'Tesco'; 'opening_hours':'24/7'; 'shop':'supermarket'; 'toilets:wheelchair':'yes'; 'wheelchair':'yes';  -->
  <!-- JOSM magic link: http://localhost:8111/load_object?new_layer=false&objects=w202423006&addtags=%7Caddr%3Acity%3DGy%C5%91r%7Caddr%3Acountry%3DHU%7Caddr%3Ahousenumber%3D33%7Caddr%3Apostcode%3D9024%7Caddr%3Astreet%3DKir%C3%A1lysz%C3%A9k%20utca%7Cair_conditioning%3Dyes%7Calt_name%3DTesco%7Cbranch%3DGy%C5%91r%20Hipermarket%7Cbrand%3DTesco%7Cbrand%3Awikidata%3DQ487494%7Cbrand%3Awikipedia%3Dhu%3ATesco%7Cbuilding%3Dretail%7Cfacebook%3Dhttps%3A//www.facebook.com/tescoaruhazak%7Cimport%3Dosm_poi_matchmaker%7Cinternet_access%3Dwlan%7Cinternet_access%3Afee%3Dno%7Cname%3DS-Market%7Copening_hours%3DMo-Su%2000%3A00-24%3A00%3B%20PH%20off%7Coperator%3DTESCO-GLOBAL%20%C3%81ruh%C3%A1zak%20Zrt.%7Cpayment%3Acash%3Dyes%7Cpayment%3Adebit_cards%3Dyes%7Cref%3Avatin%3Ahu%3D10307078-2-44%7Cshop%3Dsupermarket%7Csource%3Awww.tesco.hu%3Adate%3D2018-09-01%7Ctoilets%3Awheelchair%3Dyes%7Cwebsite%3Dhttps%3A//www.tesco.huhttps%3A//tesco.hu/aruhazak/aruhaz/tesco-gyor-hipermarket/%7Cwheelchair%3Dyes%7Cyoutube%3Dhttps%3A//www.youtube.com/user/TescoMagyarorszag -->
  <way action="modify" id="202423006" timestamp="2017-12-25T16:16:35Z" uid="8635934" user="osm_poi_matchmaker" version="4">
    <nd ref="2123905217"/>
    <nd ref="2123905170"/>
    <nd ref="2123905106"/>
    <nd ref="2123905098"/>
    <nd ref="2123905210"/>
    <nd ref="2123905173"/>
    <nd ref="2787656063"/>
    <nd ref="2123905217"/>
    <tag k="addr:city" v="Győr"/>
    <tag k="addr:country" v="HU"/>
    <tag k="addr:housenumber" v="33"/>
    <tag k="addr:postcode" v="9024"/>
    <tag k="addr:street" v="Királyszék utca"/>
    <tag k="air_conditioning" v="yes"/>
    <tag k="alt_name" v="Tesco"/>
    <tag k="branch" v="Győr Hipermarket"/>
    <tag k="brand" v="Tesco"/>
    <tag k="brand:wikidata" v="Q487494"/>
    <tag k="brand:wikipedia" v="hu:Tesco"/>
    <tag k="building" v="retail"/>
    <tag k="facebook" v="https://www.facebook.com/tescoaruhazak"/>
    <tag k="import" v="osm_poi_matchmaker"/>
    <tag k="internet_access" v="wlan"/>
    <tag k="internet_access:fee" v="no"/>
    <tag k="name" v="S-Market"/>
    <tag k="opening_hours" v="Mo-Su 00:00-24:00; PH off"/>
    <tag k="operator" v="TESCO-GLOBAL Áruházak Zrt."/>
    <tag k="payment:cash" v="yes"/>
    <tag k="payment:debit_cards" v="yes"/>
    <tag k="ref:vatin:hu" v="10307078-2-44"/>
    <tag k="shop" v="supermarket"/>
    <tag k="source:www.tesco.hu:date" v="2018-09-01"/>
    <tag k="toilets:wheelchair" v="yes"/>
    <tag k="website" v="https://www.tesco.huhttps://tesco.hu/aruhazak/aruhaz/tesco-gyor-hipermarket/"/>
    <tag k="wheelchair" v="yes"/>
    <tag k="youtube" v="https://www.youtube.com/user/TescoMagyarorszag"/>
  </way>
  <!-- OSM link: https://osm.org/way/128070409 -->
  <!-- Original coordinates: POINT (47.66434 17.63517) -->
  <!-- OSM <-> POI distance: 89.1550455 m-->
  <!-- Checker good: {not_in_water,standard_opening_hours}; bad {}-->
  <!-- Original tags: 'addr:city':'Győr'; 'addr:housenumber':'4'; 'addr:postcode':'9024'; 'addr:street':'Mécs László utca'; 'building':'retail'; 'name':'Tesco'; 'shop':'supermarket'; 'toilets:wheelchair':'no'; 'wheelchair':'yes';  -->
  <!-- JOSM magic link: http://localhost:8111/load_object?new_layer=false&objects=w128070409&addtags=%7Caddr%3Acity%3DGy%C5%91r%7Caddr%3Acountry%3DHU%7Caddr%3Ahousenumber%3D4%7Caddr%3Apostcode%3D9024%7Caddr%3Astreet%3DM%C3%A9cs%20L.%20utca%7Cair_conditioning%3Dyes%7Calt_name%3DTesco%7Cbranch%3DGy%C5%91r%20Szupermarket%20-%20M%C3%A9cs%20L.%20utca%7Cbrand%3DTesco%7Cbrand%3Awikidata%3DQ487494%7Cbrand%3Awikipedia%3Dhu%3ATesco%7Cbuilding%3Dretail%7Cfacebook%3Dhttps%3A//www.facebook.com/tescoaruhazak%7Cimport%3Dosm_poi_matchmaker%7Cinternet_access%3Dwlan%7Cinternet_access%3Afee%3Dno%7Cname%3DS-Market%7Copening_hours%3DMo-Sa%2006%3A00-22%3A00%3B%20Su%2007%3A00-18%3A00%3B%20PH%20off%7Coperator%3DTESCO-GLOBAL%20%C3%81ruh%C3%A1zak%20Zrt.%7Cpayment%3Acash%3Dyes%7Cpayment%3Adebit_cards%3Dyes%7Cref%3Avatin%3Ahu%3D10307078-2-44%7Cshop%3Dsupermarket%7Csource%3Awww.tesco.hu%3Adate%3D2018-09-01%7Ctoilets%3Awheelchair%3Dno%7Cwebsite%3Dhttps%3A//www.tesco.huhttps%3A//tesco.hu/aruhazak/aruhaz/tesco-gyor-szupermarket-mecs-l-utca/%7Cwheelchair%3Dyes%7Cyoutube%3Dhttps%3A//www.youtube.com/user/TescoMagyarorszag -->
  <way action="modify" id="128070409" timestamp="2017-12-25T16:16:09Z" uid="8635934" user="osm_poi_matchmaker" version="6">
    <nd ref="1416081044"/>
    <nd ref="1416081045"/>
    <nd ref="1416081043"/>
    <nd ref="4603759027"/>
    <nd ref="4603759026"/>
    <nd ref="4603759025"/>
    <nd ref="4603759024"/>
    <nd ref="1416081042"/>
    <nd ref="1416081044"/>
    <tag k="addr:city" v="Győr"/>
    <tag k="addr:country" v="HU"/>
    <tag k="addr:housenumber" v="4"/>
    <tag k="addr:postcode" v="9024"/>
    <tag k="addr:street" v="Mécs L. utca"/>
    <tag k="air_conditioning" v="yes"/>
    <tag k="alt_name" v="Tesco"/>
    <tag k="branch" v="Győr Szupermarket - Mécs L. utca"/>
    <tag k="brand" v="Tesco"/>
    <tag k="brand:wikidata" v="Q487494"/>
    <tag k="brand:wikipedia" v="hu:Tesco"/>
    <tag k="building" v="retail"/>
    <tag k="facebook" v="https://www.facebook.com/tescoaruhazak"/>
    <tag k="import" v="osm_poi_matchmaker"/>
    <tag k="internet_access" v="wlan"/>
    <tag k="internet_access:fee" v="no"/>
    <tag k="name" v="S-Market"/>
    <tag k="opening_hours" v="Mo-Sa 06:00-22:00; Su 07:00-18:00; PH off"/>
    <tag k="operator" v="TESCO-GLOBAL Áruházak Zrt."/>
    <tag k="payment:cash" v="yes"/>
    <tag k="payment:debit_cards" v="yes"/>
    <tag k="ref:vatin:hu" v="10307078-2-44"/>
    <tag k="shop" v="supermarket"/>
    <tag k="source:www.tesco.hu:date" v="2018-09-01"/>
    <tag k="toilets:wheelchair" v="no"/>
    <tag k="website" v="https://www.tesco.huhttps://tesco.hu/aruhazak/aruhaz/tesco-gyor-szupermarket-mecs-l-utca/"/>
    <tag k="wheelchair" v="yes"/>
    <tag k="youtube" v="https://www.youtube.com/user/TescoMagyarorszag"/>
  </way>
  <!-- OSM link: https://osm.org/way/125913681 -->
  <!-- Original coordinates: POINT (47.67734 17.65491) -->
  <!-- OSM <-> POI distance: 87.20078375 m-->
  <!-- Checker good: {not_in_water,standard_opening_hours}; bad {}-->
  <!-- Original tags: 'addr:city':'Győr'; 'addr:housenumber':'112'; 'addr:postcode':'9023'; 'addr:street':'Szigethy Attila út'; 'building':'retail'; 'name':'TESCO'; 'shop':'supermarket'; 'wheelchair':'yes'; 'wheelchair:description':'Fotocellás ajtó szélessége 195 cm, teljes mértékben akadálymentes a bejutás. Nyitva tartás : H-sz : 6:00-22:00';  -->
  <!-- JOSM magic link: http://localhost:8111/load_object?new_layer=false&objects=w125913681&addtags=%7Caddr%3Acity%3DGy%C5%91r%7Caddr%3Acountry%3DHU%7Caddr%3Ahousenumber%3D112%7Caddr%3Apostcode%3D9023%7Caddr%3Astreet%3DSzigethy%20A.%20utca%7Cair_conditioning%3Dyes%7Calt_name%3DTesco%7Cbranch%3DGy%C5%91r%20Szupermarket%20-%20Szigethy%20A.%20utca%7Cbrand%3DTesco%7Cbrand%3Awikidata%3DQ487494%7Cbrand%3Awikipedia%3Dhu%3ATesco%7Cbuilding%3Dretail%7Cfacebook%3Dhttps%3A//www.facebook.com/tescoaruhazak%7Cimport%3Dosm_poi_matchmaker%7Cinternet_access%3Dwlan%7Cinternet_access%3Afee%3Dno%7Cname%3DS-Market%7Copening_hours%3DMo-Su%2005%3A00-23%3A00%3B%20PH%20off%7Coperator%3DTESCO-GLOBAL%20%C3%81ruh%C3%A1zak%20Zrt.%7Cpayment%3Acash%3Dyes%7Cpayment%3Adebit_cards%3Dyes%7Cref%3Avatin%3Ahu%3D10307078-2-44%7Cshop%3Dsupermarket%7Csource%3Awww.tesco.hu%3Adate%3D2018-09-01%7Cwebsite%3Dhttps%3A//www.tesco.huhttps%3A//tesco.hu/aruhazak/aruhaz/tesco-gyor-szupermarket-szigethy-a-utca/%7Cwheelchair%3Dyes%7Cwheelchair%3Adescription%3DFotocell%C3%A1s%20ajt%C3%B3%20sz%C3%A9less%C3%A9ge%20195%20cm%2C%20teljes%20m%C3%A9rt%C3%A9kben%20akad%C3%A1lymentes%20a%20bejut%C3%A1s.%20Nyitva%20tart%C3%A1s%20%3A%20H-sz%20%3A%206%3A00-22%3A00%7Cyoutube%3Dhttps%3A//www.youtube.com/user/TescoMagyarorszag -->
  <way action="modify" id="125913681" timestamp="2017-12-25T16:16:08Z" uid="8635934" user="osm_poi_matchmaker" version="6">
    <nd ref="718471063"/>
    <nd ref="1397202356"/>
    <nd ref="1397202354"/>
    <nd ref="1397202352"/>
    <nd ref="718471063"/>
    <tag k="addr:city" v="Győr"/>
    <tag k="addr:country" v="HU"/>
    <tag k="addr:housenumber" v="112"/>
    <tag k="addr:postcode" v="9023"/>
    <tag k="addr:street" v="Szigethy A. utca"/>
    <tag k="air_conditioning" v="yes"/>
    <tag k="alt_name" v="Tesco"/>
    <tag k="branch" v="Győr Szupermarket - Szigethy A. utca"/>
    <tag k="brand" v="Tesco"/>
    <tag k="brand:wikidata" v="Q487494"/>
    <tag k="brand:wikipedia" v="hu:Tesco"/>
    <tag k="building" v="retail"/>
    <tag k="facebook" v="https://www.facebook.com/tescoaruhazak"/>
    <tag k="import" v="osm_poi_matchmaker"/>
    <tag k="internet_access" v="wlan"/>
    <tag k="internet_access:fee" v="no"/>
    <tag k="name" v="S-Market"/>
    <tag k="opening_hours" v="Mo-Su 05:00-23:00; PH off"/>
    <tag k="operator" v="TESCO-GLOBAL Áruházak Zrt."/>
    <tag k="payment:cash" v="yes"/>
    <tag k="payment:debit_cards" v="yes"/>
    <tag k="ref:vatin:hu" v="10307078-2-44"/>
    <tag k="shop" v="supermarket"/>
    <tag k="source:www.tesco.hu:date" v="2018-09-01"/>
    <tag k="website" v="https://www.tesco.huhttps://tesco.hu/aruhazak/aruhaz/tesco-gyor-szupermarket-szigethy-a-utca/"/>
    <tag k="wheelchair" v="yes"/>
    <tag k="wheelchair:description" v="Fotocellás ajtó szélessége 195 cm, teljes mértékben akadálymentes a bejutás. Nyitva tartás : H-sz : 6:00-22:00"/>
    <tag k="youtube" v="https://www.youtube.com/user/TescoMagyarorszag"/>
  </way>
  <!-- OSM link: https://osm.org/way/171351730 -->
  <!-- Original coordinates: POINT (47.67785 17.64127) -->
  <!-- OSM <-> POI distance: 241.7445913 m-->
  <!-- Checker good: {not_in_water,standard_opening_hours}; bad {}-->
  <!-- Original tags: 'addr:city':'Győr'; 'addr:housenumber':'22/A'; 'addr:postcode':'9023'; 'addr:street':'Herman Ottó utca'; 'building':'retail'; 'name':'Tesco'; 'opening_hours':'Mo-Fr 06:00-21:00; Su 06:00-18:00; Su 06:00-17:00'; 'shop':'supermarket';  -->
  <!-- JOSM magic link: http://localhost:8111/load_object?new_layer=false&objects=w171351730&addtags=%7Caddr%3Acity%3DGy%C5%91r%7Caddr%3Acountry%3DHU%7Caddr%3Ahousenumber%3D22/A%7Caddr%3Apostcode%3D9024%7Caddr%3Astreet%3DHerman%20O.%20utca%7Cair_conditioning%3Dyes%7Calt_name%3DTesco%7Cbranch%3DSzupermarket%20Gy%C5%91r%20-%20Herman%20Ott%C3%B3%20utca%7Cbrand%3DTesco%7Cbrand%3Awikidata%3DQ487494%7Cbrand%3Awikipedia%3Dhu%3ATesco%7Cbuilding%3Dretail%7Cfacebook%3Dhttps%3A//www.facebook.com/tescoaruhazak%7Cimport%3Dosm_poi_matchmaker%7Cinternet_access%3Dwlan%7Cinternet_access%3Afee%3Dno%7Cname%3DS-Market%7Copening_hours%3DMo-Sa%2006%3A00-21%3A00%3B%20Su%2007%3A00-18%3A00%3B%20PH%20off%7Coperator%3DTESCO-GLOBAL%20%C3%81ruh%C3%A1zak%20Zrt.%7Cpayment%3Acash%3Dyes%7Cpayment%3Adebit_cards%3Dyes%7Cref%3Avatin%3Ahu%3D10307078-2-44%7Cshop%3Dsupermarket%7Csource%3Awww.tesco.hu%3Adate%3D2018-09-01%7Cwebsite%3Dhttps%3A//www.tesco.huhttps%3A//tesco.hu/aruhazak/aruhaz/tesco-szupermarket-gyor-herman-otto-utca/%7Cwheelchair%3Dyes%7Cyoutube%3Dhttps%3A//www.youtube.com/user/TescoMagyarorszag -->
  <way action="modify" id="171351730" timestamp="2017-12-25T16:16:22Z" uid="8635934" user="osm_poi_matchmaker" version="7">
    <nd ref="1823908800"/>
    <nd ref="1823908804"/>
    <nd ref="1823908816"/>
    <nd ref="1823908807"/>
    <nd ref="1823908800"/>
    <tag k="addr:city" v="Győr"/>
    <tag k="addr:country" v="HU"/>
    <tag k="addr:housenumber" v="22/A"/>
    <tag k="addr:postcode" v="9024"/>
    <tag k="addr:street" v="Herman O. utca"/>
    <tag k="air_conditioning" v="yes"/>
    <tag k="alt_name" v="Tesco"/>
    <tag k="branch" v="Szupermarket Győr - Herman Ottó utca"/>
    <tag k="brand" v="Tesco"/>
    <tag k="brand:wikidata" v="Q487494"/>
    <tag k="brand:wikipedia" v="hu:Tesco"/>
    <tag k="building" v="retail"/>
    <tag k="facebook" v="https://www.facebook.com/tescoaruhazak"/>
    <tag k="import" v="osm_poi_matchmaker"/>
    <tag k="internet_access" v="wlan"/>
    <tag k="internet_access:fee" v="no"/>
    <tag k="name" v="S-Market"/>
    <tag k="opening_hours" v="Mo-Sa 06:00-21:00; Su 07:00-18:00; PH off"/>
    <tag k="operator" v="TESCO-GLOBAL Áruházak Zrt."/>
    <tag k="payment:cash" v="yes"/>
    <tag k="payment:debit_cards" v="yes"/>
    <tag k="ref:vatin:hu" v="10307078-2-44"/>
    <tag k="shop" v="supermarket"/>
    <tag k="source:www.tesco.hu:date" v="2018-09-01"/>
    <tag k="website" v="https://www.tesco.huhttps://tesco.hu/aruhazak/aruhaz/tesco-szupermarket-gyor-herman-otto-utca/"/>
    <tag k="wheelchair" v="yes"/>
    <tag k="youtube" v="https://www.youtube.com/user/TescoMagyarorszag"/>
  </way>
  <!-- OSM link: https://osm.org/way/99349847 -->
  <!-- Original coordinates: POINT (47.875059 17.264083) -->
  <!-- OSM <-> POI distance: 470.08861674 m-->
  <!-- Checker good: {not_in_water,standard_opening_hours}; bad {}-->
  <!-- Original tags: 'addr:city':'Mosonmagyaróvár'; 'addr:housenumber':'42'; 'addr:postcode':'9200'; 'addr:street':'Királyhidai út'; 'building':'retail'; 'name':'Tesco'; 'operator':'Tesco'; 'shop':'supermarket'; 'toilets:wheelchair':'yes'; 'wheelchair':'yes';  -->
  <!-- JOSM magic link: http://localhost:8111/load_object?new_layer=false&objects=w99349847&addtags=%7Caddr%3Acity%3DMosonmagyar%C3%B3v%C3%A1r%7Caddr%3Acountry%3DHU%7Caddr%3Ahousenumber%3D42%7Caddr%3Apostcode%3D9200%7Caddr%3Astreet%3DKir%C3%A1lyhidai%20utca%7Cair_conditioning%3Dyes%7Calt_name%3DTesco%7Cbranch%3DMosonmagyar%C3%B3v%C3%A1r%20Hipermarket%7Cbrand%3DTesco%7Cbrand%3Awikidata%3DQ487494%7Cbrand%3Awikipedia%3Dhu%3ATesco%7Cbuilding%3Dretail%7Cfacebook%3Dhttps%3A//www.facebook.com/tescoaruhazak%7Cimport%3Dosm_poi_matchmaker%7Cinternet_access%3Dwlan%7Cinternet_access%3Afee%3Dno%7Cname%3DS-Market%7Copening_hours%3DMo-Sa%2006%3A00-22%3A00%3B%20Su%2007%3A00-20%3A00%3B%20PH%20off%7Coperator%3DTESCO-GLOBAL%20%C3%81ruh%C3%A1zak%20Zrt.%7Cpayment%3Acash%3Dyes%7Cpayment%3Adebit_cards%3Dyes%7Cref%3Avatin%3Ahu%3D10307078-2-44%7Cshop%3Dsupermarket%7Csource%3Awww.tesco.hu%3Adate%3D2018-09-01%7Ctoilets%3Awheelchair%3Dyes%7Cwebsite%3Dhttps%3A//www.tesco.huhttps%3A//tesco.hu/aruhazak/aruhaz/tesco-mosonmagyarovar-hipermarket/%7Cwheelchair%3Dyes%7Cyoutube%3Dhttps%3A//www.youtube.com/user/TescoMagyarorszag -->
  <way action="modify" id="99349847" timestamp="2017-09-14T08:34:11Z" uid="8635934" user="osm_poi_matchmaker" version="7">
    <nd ref="1149162823"/>
    <nd ref="1149162834"/>
    <nd ref="1149162832"/>
    <nd ref="1149162822"/>
    <nd ref="1149162823"/>
    <tag k="addr:city" v="Mosonmagyaróvár"/>
    <tag k="addr:country" v="HU"/>
    <tag k="addr:housenumber" v="42"/>
    <tag k="addr:postcode" v="9200"/>
    <tag k="addr:street" v="Királyhidai utca"/>
    <tag k="air_conditioning" v="yes"/>
    <tag k="alt_name" v="Tesco"/>
    <tag k="branch" v="Mosonmagyaróvár Hipermarket"/>
    <tag k="brand" v="Tesco"/>
    <tag k="brand:wikidata" v="Q487494"/>
    <tag k="brand:wikipedia" v="hu:Tesco"/>
    <tag k="building" v="retail"/>
    <tag k="facebook" v="https://www.facebook.com/tescoaruhazak"/>
    <tag k="import" v="osm_poi_matchmaker"/>
    <tag k="internet_access" v="wlan"/>
    <tag k="internet_access:fee" v="no"/>
    <tag k="name" v="S-Market"/>
    <tag k="opening_hours" v="Mo-Sa 06:00-22:00; Su 07:00-20:00; PH off"/>
    <tag k="operator" v="TESCO-GLOBAL Áruházak Zrt."/>
    <tag k="payment:cash" v="yes"/>
    <tag k="payment:debit_cards" v="yes"/>
    <tag k="ref:vatin:hu" v="10307078-2-44"/>
    <tag k="shop" v="supermarket"/>
    <tag k="source:www.tesco.hu:date" v="2018-09-01"/>
    <tag k="toilets:wheelchair" v="yes"/>
    <tag k="website" v="https://www.tesco.huhttps://tesco.hu/aruhazak/aruhaz/tesco-mosonmagyarovar-hipermarket/"/>
    <tag k="wheelchair" v="yes"/>
    <tag k="youtube" v="https://www.youtube.com/user/TescoMagyarorszag"/>
  </way>
  <!-- OSM link: https://osm.org/way/99350132 -->
  <!-- Original coordinates: POINT (47.87646 17.27123) -->
  <!-- OSM <-> POI distance: 64.75266898 m-->
  <!-- Checker good: {not_in_water,standard_opening_hours}; bad {}-->
  <!-- Original tags: 'addr:city':'Mosonmagyaróvár'; 'addr:housenumber':'32-34'; 'addr:postcode':'9200'; 'addr:street':'Magyar utca'; 'building':'retail'; 'name':'Tesco'; 'shop':'supermarket';  -->
  <!-- JOSM magic link: http://localhost:8111/load_object?new_layer=false&objects=w99350132&addtags=%7Caddr%3Acity%3DMosonmagyar%C3%B3v%C3%A1r%7Caddr%3Acountry%3DHU%7Caddr%3Ahousenumber%3D32-34%7Caddr%3Apostcode%3D9200%7Caddr%3Astreet%3DMagyar%20utca%7Cair_conditioning%3Dyes%7Calt_name%3DTesco%7Cbranch%3DSzupermarket%20M%C3%B3v%C3%A1r%20-%20Magyar%20utca%7Cbrand%3DTesco%7Cbrand%3Awikidata%3DQ487494%7Cbrand%3Awikipedia%3Dhu%3ATesco%7Cbuilding%3Dretail%7Cfacebook%3Dhttps%3A//www.facebook.com/tescoaruhazak%7Cimport%3Dosm_poi_matchmaker%7Cinternet_access%3Dwlan%7Cinternet_access%3Afee%3Dno%7Cname%3DS-Market%7Copening_hours%3DMo-Sa%2006%3A00-21%3A00%3B%20Su%2000%3A00-00%3A00%3B%20PH%20off%7Coperator%3DTESCO-GLOBAL%20%C3%81ruh%C3%A1zak%20Zrt.%7Cpayment%3Acash%3Dyes%7Cpayment%3Adebit_cards%3Dyes%7Cref%3Avatin%3Ahu%3D10307078-2-44%7Cshop%3Dsupermarket%7Csource%3Awww.tesco.hu%3Adate%3D2018-09-01%7Cwebsite%3Dhttps%3A//www.tesco.huhttps%3A//tesco.hu/aruhazak/aruhaz/tesco-szupermarket-movar-magyar-utca/%7Cwheelchair%3Dyes%7Cyoutube%3Dhttps%3A//www.youtube.com/user/TescoMagyarorszag -->
  <way action="modify" id="99350132" timestamp="2017-12-25T16:15:55Z" uid="8635934" user="osm_poi_matchmaker" version="4">
    <nd ref="1149164485"/>
    <nd ref="4813855575"/>
    <nd ref="1149164486"/>
    <nd ref="1149164487"/>
    <nd ref="1149164488"/>
    <nd ref="1149164485"/>
    <tag k="addr:city" v="Mosonmagyaróvár"/>
    <tag k="addr:country" v="HU"/>
    <tag k="addr:housenumber" v="32-34"/>
    <tag k="addr:postcode" v="9200"/>
    <tag k="addr:street" v="Magyar utca"/>
    <tag k="air_conditioning" v="yes"/>
    <tag k="alt_name" v="Tesco"/>
    <tag k="branch" v="Szupermarket Móvár - Magyar utca"/>
    <tag k="brand" v="Tesco"/>
    <tag k="brand:wikidata" v="Q487494"/>
    <tag k="brand:wikipedia" v="hu:Tesco"/>
    <tag k="building" v="retail"/>
    <tag k="facebook" v="https://www.facebook.com/tescoaruhazak"/>
    <tag k="import" v="osm_poi_matchmaker"/>
    <tag k="internet_access" v="wlan"/>
    <tag k="internet_access:fee" v="no"/>
    <tag k="name" v="S-Market"/>
    <tag k="opening_hours" v="Mo-Sa 06:00-21:00; Su 00:00-00:00; PH off"/>
    <tag k="operator" v="TESCO-GLOBAL Áruházak Zrt."/>
    <tag k="payment:cash" v="yes"/>
    <tag k="payment:debit_cards" v="yes"/>
    <tag k="ref:vatin:hu" v="10307078-2-44"/>
    <tag k="shop" v="supermarket"/>
    <tag k="source:www.tesco.hu:date" v="2018-09-01"/>
    <tag k="website" v="https://www.tesco.huhttps://tesco.hu/aruhazak/aruhaz/tesco-szupermarket-movar-magyar-utca/"/>
    <tag k="wheelchair" v="yes"/>
    <tag k="youtube" v="https://www.youtube.com/user/TescoMagyarorszag"/>
  </way>
  <!-- OSM link: https://osm.org/way/89688335 -->
  <!-- Original coordinates: POINT (47.67104 16.61223) -->
  <!-- OSM <-> POI distance: 53.94269771 m-->
  <!-- Checker good: {not_in_water,standard_opening_hours}; bad {}-->
  <!-- Original tags: 'addr:city':'Sopron'; 'addr:country':'HU'; 'addr:housenumber':'30'; 'addr:postcode':'9400'; 'addr:province':'Győr-Moson-Sopron megye'; 'addr:street':'Ipar körút'; 'building':'retail'; 'name':'Tesco'; 'opening_hours':'24/7'; 'shop':'supermarket'; 'toilets:wheelchair':'yes'; 'wheelchair':'yes';  -->
  <!-- JOSM magic link: http://localhost:8111/load_object?new_layer=false&objects=w89688335&addtags=%7Caddr%3Acity%3DSopron%7Caddr%3Acountry%3DHU%7Caddr%3Ahousenumber%3D30%7Caddr%3Apostcode%3D9400%7Caddr%3Aprovince%3DGy%C5%91r-Moson-Sopron%20megye%7Caddr%3Astreet%3DIpar%20k%C3%B6r%C3%BAt%7Cair_conditioning%3Dyes%7Calt_name%3DTesco%7Cbranch%3DSopron%20Hipermarket%7Cbrand%3DTesco%7Cbrand%3Awikidata%3DQ487494%7Cbrand%3Awikipedia%3Dhu%3ATesco%7Cbuilding%3Dretail%7Cfacebook%3Dhttps%3A//www.facebook.com/tescoaruhazak%7Cimport%3Dosm_poi_matchmaker%7Cinternet_access%3Dwlan%7Cinternet_access%3Afee%3Dno%7Cname%3DS-Market%7Copening_hours%3DMo-Sa%2006%3A00-22%3A00%3B%20Su%2007%3A00-20%3A00%3B%20PH%20off%7Coperator%3DTESCO-GLOBAL%20%C3%81ruh%C3%A1zak%20Zrt.%7Cpayment%3Acash%3Dyes%7Cpayment%3Adebit_cards%3Dyes%7Cref%3Avatin%3Ahu%3D10307078-2-44%7Cshop%3Dsupermarket%7Csource%3Awww.tesco.hu%3Adate%3D2018-09-01%7Ctoilets%3Awheelchair%3Dyes%7Cwebsite%3Dhttps%3A//www.tesco.huhttps%3A//tesco.hu/aruhazak/aruhaz/tesco-sopron-hipermarket/%7Cwheelchair%3Dyes%7Cyoutube%3Dhttps%3A//www.youtube.com/user/TescoMagyarorszag -->
  <way action="modify" id="89688335" timestamp="2018-02-25T18:17:48Z" uid="8635934" user="osm_poi_matchmaker" version="6">
    <nd ref="251436343"/>
    <nd ref="1039365158"/>
    <nd ref="1039365179"/>
    <nd ref="1507187031"/>
    <nd ref="1039365272"/>
    <nd ref="251436343"/>
    <tag k="addr:city" v="Sopron"/>
    <tag k="addr:country" v="HU"/>
    <tag k="addr:housenumber" v="30"/>
    <tag k="addr:postcode" v="9400"/>
    <tag k="addr:province" v="Győr-Moson-Sopron megye"/>
    <tag k="addr:street" v="Ipar körút"/>
    <tag k="air_conditioning" v="yes"/>
    <tag k="alt_name" v="Tesco"/>
    <tag k="branch" v="Sopron Hipermarket"/>
    <tag k="brand" v="Tesco"/>
    <tag k="brand:wikidata" v="Q487494"/>
    <tag k="brand:wikipedia" v="hu:Tesco"/>
    <tag k="building" v="retail"/>
    <tag k="facebook" v="https://www.facebook.com/tescoaruhazak"/>
    <tag k="import" v="osm_poi_matchmaker"/>
    <tag k="internet_access" v="wlan"/>
    <tag k="internet_access:fee" v="no"/>
    <tag k="name" v="S-Market"/>
    <tag k="opening_hours" v="Mo-Sa 06:00-22:00; Su 07:00-20:00; PH off"/>
    <tag k="operator" v="TESCO-GLOBAL Áruházak Zrt."/>
    <tag k="payment:cash" v="yes"/>
    <tag k="payment:debit_cards" v="yes"/>
    <tag k="ref:vatin:hu" v="10307078-2-44"/>
    <tag k="shop" v="supermarket"/>
    <tag k="source:www.tesco.hu:date" v="2018-09-01"/>
    <tag k="toilets:wheelchair" v="yes"/>
    <tag k="website" v="https://www.tesco.huhttps://tesco.hu/aruhazak/aruhaz/tesco-sopron-hipermarket/"/>
    <tag k="wheelchair" v="yes"/>
    <tag k="youtube" v="https://www.youtube.com/user/TescoMagyarorszag"/>
  </way>
</osm>
