<?xml version='1.0' encoding='UTF-8'?>
<osm generator="JOSM" version="0.6">
  <!-- Original coordinates: POINT (47.4264269 18.6027487) -->
  <!-- OSM <-> POI distance: None m-->
  <!-- Checker good: {not_in_water}; bad {}-->
  <!-- Original tags:  -->
  <node action="modify" changeset="99999" id="-1" lat="47.4264269" lon="18.6027487" timestamp="" uid="4579407" user="KAMI" version="99999">
    <tag k="addr:city" v="Alcsútdoboz"/>
    <tag k="addr:country" v="HU"/>
    <tag k="addr:housenumber" v="1"/>
    <tag k="addr:postcode" v="8087"/>
    <tag k="addr:street" v="Béke utca"/>
    <tag k="amenity" v="vending_machine"/>
    <tag k="branch" v="51 sz. automata - Magyar Takarékszövetkezeti Bank Zrt."/>
    <tag k="brand" v="Magyar Posta"/>
    <tag k="brand:wikidata" v="Q145614"/>
    <tag k="brand:wikipedia" v="hu:Magyar Posta Zrt."/>
    <tag k="email" v="ugyfelszolgalat@posta.hu"/>
    <tag k="facebook" v="https://www.facebook.com/MagyarPosta"/>
    <tag k="import" v="osm_poi_matchmaker"/>
    <tag k="instagram" v="https://www.instagram.com/magyar_posta_zrt"/>
    <tag k="name" v="Posta csomagautomata"/>
    <tag k="opening_hours" v="24/7"/>
    <tag k="operator" v="Magyar Posta Zrt."/>
    <tag k="payment:cash" v="yes"/>
    <tag k="payment:debit_cards" v="yes"/>
    <tag k="phone" v="+3617678200"/>
    <tag k="ref:vatin:hu" v="10901232-2-44"/>
    <tag k="source" v="website"/>
    <tag k="source:date" v="2018-07-18"/>
    <tag k="vending" v="parcel_pickup"/>
    <tag k="website" v="https://www.posta.hu"/>
    <tag k="youtube" v="https://www.youtube.com/user/magyarpostaofficial"/>
  </node>
  <!-- Original coordinates: POINT (47.540107 18.965818) -->
  <!-- OSM <-> POI distance: None m-->
  <!-- Checker good: {not_in_water}; bad {}-->
  <!-- Original tags:  -->
  <node action="modify" changeset="99999" id="-2" lat="47.540107" lon="18.965818" timestamp="" uid="4579407" user="KAMI" version="99999">
    <tag k="addr:city" v="Budapest"/>
    <tag k="addr:country" v="HU"/>
    <tag k="addr:housenumber" v="138"/>
    <tag k="addr:postcode" v="1870"/>
    <tag k="addr:street" v="Hűvösvölgyi út"/>
    <tag k="amenity" v="vending_machine"/>
    <tag k="branch" v="1 sz. automata - Stop-Shop áruház"/>
    <tag k="brand" v="Magyar Posta"/>
    <tag k="brand:wikidata" v="Q145614"/>
    <tag k="brand:wikipedia" v="hu:Magyar Posta Zrt."/>
    <tag k="email" v="ugyfelszolgalat@posta.hu"/>
    <tag k="facebook" v="https://www.facebook.com/MagyarPosta"/>
    <tag k="import" v="osm_poi_matchmaker"/>
    <tag k="instagram" v="https://www.instagram.com/magyar_posta_zrt"/>
    <tag k="name" v="Posta csomagautomata"/>
    <tag k="opening_hours" v="24/7"/>
    <tag k="operator" v="Magyar Posta Zrt."/>
    <tag k="payment:cash" v="yes"/>
    <tag k="payment:debit_cards" v="yes"/>
    <tag k="phone" v="+3617678200"/>
    <tag k="ref:vatin:hu" v="10901232-2-44"/>
    <tag k="source" v="website"/>
    <tag k="source:date" v="2018-07-18"/>
    <tag k="vending" v="parcel_pickup"/>
    <tag k="website" v="https://www.posta.hu"/>
    <tag k="youtube" v="https://www.youtube.com/user/magyarpostaofficial"/>
  </node>
  <!-- Original coordinates: POINT (47.562566 19.021198) -->
  <!-- OSM <-> POI distance: None m-->
  <!-- Checker good: {not_in_water}; bad {}-->
  <!-- Original tags:  -->
  <node action="modify" changeset="99999" id="-3" lat="47.562566" lon="19.021198" timestamp="" uid="4579407" user="KAMI" version="99999">
    <tag k="addr:city" v="Budapest"/>
    <tag k="addr:country" v="HU"/>
    <tag k="addr:housenumber" v="262"/>
    <tag k="addr:postcode" v="1870"/>
    <tag k="addr:street" v="Bécsi út"/>
    <tag k="amenity" v="vending_machine"/>
    <tag k="branch" v="2 sz. automata - Bécsi út Tesco"/>
    <tag k="brand" v="Magyar Posta"/>
    <tag k="brand:wikidata" v="Q145614"/>
    <tag k="brand:wikipedia" v="hu:Magyar Posta Zrt."/>
    <tag k="email" v="ugyfelszolgalat@posta.hu"/>
    <tag k="facebook" v="https://www.facebook.com/MagyarPosta"/>
    <tag k="import" v="osm_poi_matchmaker"/>
    <tag k="instagram" v="https://www.instagram.com/magyar_posta_zrt"/>
    <tag k="name" v="Posta csomagautomata"/>
    <tag k="opening_hours" v="24/7"/>
    <tag k="operator" v="Magyar Posta Zrt."/>
    <tag k="payment:cash" v="yes"/>
    <tag k="payment:debit_cards" v="yes"/>
    <tag k="phone" v="+3617678200"/>
    <tag k="ref:vatin:hu" v="10901232-2-44"/>
    <tag k="source" v="website"/>
    <tag k="source:date" v="2018-07-18"/>
    <tag k="vending" v="parcel_pickup"/>
    <tag k="website" v="https://www.posta.hu"/>
    <tag k="youtube" v="https://www.youtube.com/user/magyarpostaofficial"/>
  </node>
  <!-- Original coordinates: POINT (47.55563 19.079757) -->
  <!-- OSM <-> POI distance: None m-->
  <!-- Checker good: {not_in_water}; bad {}-->
  <!-- Original tags:  -->
  <node action="modify" changeset="99999" id="-4" lat="47.55563" lon="19.079757" timestamp="" uid="4579407" user="KAMI" version="99999">
    <tag k="addr:city" v="Budapest"/>
    <tag k="addr:country" v="HU"/>
    <tag k="addr:housenumber" v="3"/>
    <tag k="addr:postcode" v="1870"/>
    <tag k="addr:street" v="Gács utca"/>
    <tag k="amenity" v="vending_machine"/>
    <tag k="branch" v="3 sz. automata - Váci út Tesco"/>
    <tag k="brand" v="Magyar Posta"/>
    <tag k="brand:wikidata" v="Q145614"/>
    <tag k="brand:wikipedia" v="hu:Magyar Posta Zrt."/>
    <tag k="email" v="ugyfelszolgalat@posta.hu"/>
    <tag k="facebook" v="https://www.facebook.com/MagyarPosta"/>
    <tag k="import" v="osm_poi_matchmaker"/>
    <tag k="instagram" v="https://www.instagram.com/magyar_posta_zrt"/>
    <tag k="name" v="Posta csomagautomata"/>
    <tag k="opening_hours" v="24/7"/>
    <tag k="operator" v="Magyar Posta Zrt."/>
    <tag k="payment:cash" v="yes"/>
    <tag k="payment:debit_cards" v="yes"/>
    <tag k="phone" v="+3617678200"/>
    <tag k="ref:vatin:hu" v="10901232-2-44"/>
    <tag k="source" v="website"/>
    <tag k="source:date" v="2018-07-18"/>
    <tag k="vending" v="parcel_pickup"/>
    <tag k="website" v="https://www.posta.hu"/>
    <tag k="youtube" v="https://www.youtube.com/user/magyarpostaofficial"/>
  </node>
  <!-- Original coordinates: POINT (47.504606 19.137486) -->
  <!-- OSM <-> POI distance: None m-->
  <!-- Checker good: {not_in_water}; bad {}-->
  <!-- Original tags:  -->
  <node action="modify" changeset="99999" id="-5" lat="47.504606" lon="19.137486" timestamp="" uid="4579407" user="KAMI" version="99999">
    <tag k="addr:city" v="Budapest"/>
    <tag k="addr:country" v="HU"/>
    <tag k="addr:housenumber" v="24 (b)"/>
    <tag k="addr:postcode" v="1874"/>
    <tag k="addr:street" v="Örs Vezér tere"/>
    <tag k="amenity" v="vending_machine"/>
    <tag k="branch" v="4 sz. automata - Sugár B (IKEA felől)"/>
    <tag k="brand" v="Magyar Posta"/>
    <tag k="brand:wikidata" v="Q145614"/>
    <tag k="brand:wikipedia" v="hu:Magyar Posta Zrt."/>
    <tag k="email" v="ugyfelszolgalat@posta.hu"/>
    <tag k="facebook" v="https://www.facebook.com/MagyarPosta"/>
    <tag k="import" v="osm_poi_matchmaker"/>
    <tag k="instagram" v="https://www.instagram.com/magyar_posta_zrt"/>
    <tag k="name" v="Posta csomagautomata"/>
    <tag k="opening_hours" v="24/7"/>
    <tag k="operator" v="Magyar Posta Zrt."/>
    <tag k="payment:cash" v="yes"/>
    <tag k="payment:debit_cards" v="yes"/>
    <tag k="phone" v="+3617678200"/>
    <tag k="ref:vatin:hu" v="10901232-2-44"/>
    <tag k="source" v="website"/>
    <tag k="source:date" v="2018-07-18"/>
    <tag k="vending" v="parcel_pickup"/>
    <tag k="website" v="https://www.posta.hu"/>
    <tag k="youtube" v="https://www.youtube.com/user/magyarpostaofficial"/>
  </node>
  <!-- Original coordinates: POINT (47.463211 19.129217) -->
  <!-- OSM <-> POI distance: None m-->
  <!-- Checker good: {not_in_water}; bad {}-->
  <!-- Original tags:  -->
  <node action="modify" changeset="99999" id="-6" lat="47.463211" lon="19.129217" timestamp="" uid="4579407" user="KAMI" version="99999">
    <tag k="addr:city" v="Budapest"/>
    <tag k="addr:country" v="HU"/>
    <tag k="addr:housenumber" v="201"/>
    <tag k="addr:postcode" v="1871"/>
    <tag k="addr:street" v="Üllői út"/>
    <tag k="amenity" v="vending_machine"/>
    <tag k="branch" v="5 sz. automata - Europark parkoló"/>
    <tag k="brand" v="Magyar Posta"/>
    <tag k="brand:wikidata" v="Q145614"/>
    <tag k="brand:wikipedia" v="hu:Magyar Posta Zrt."/>
    <tag k="email" v="ugyfelszolgalat@posta.hu"/>
    <tag k="facebook" v="https://www.facebook.com/MagyarPosta"/>
    <tag k="import" v="osm_poi_matchmaker"/>
    <tag k="instagram" v="https://www.instagram.com/magyar_posta_zrt"/>
    <tag k="name" v="Posta csomagautomata"/>
    <tag k="opening_hours" v="24/7"/>
    <tag k="operator" v="Magyar Posta Zrt."/>
    <tag k="payment:cash" v="yes"/>
    <tag k="payment:debit_cards" v="yes"/>
    <tag k="phone" v="+3617678200"/>
    <tag k="ref:vatin:hu" v="10901232-2-44"/>
    <tag k="source" v="website"/>
    <tag k="source:date" v="2018-07-18"/>
    <tag k="vending" v="parcel_pickup"/>
    <tag k="website" v="https://www.posta.hu"/>
    <tag k="youtube" v="https://www.youtube.com/user/magyarpostaofficial"/>
  </node>
  <!-- Original coordinates: POINT (47.424434 19.06742) -->
  <!-- OSM <-> POI distance: None m-->
  <!-- Checker good: {not_in_water}; bad {}-->
  <!-- Original tags:  -->
  <node action="modify" changeset="99999" id="-7" lat="47.424434" lon="19.06742" timestamp="" uid="4579407" user="KAMI" version="99999">
    <tag k="addr:city" v="Budapest"/>
    <tag k="addr:country" v="HU"/>
    <tag k="addr:housenumber" v="154-170"/>
    <tag k="addr:postcode" v="1871"/>
    <tag k="addr:street" v="Rákóczi Ferenc utca"/>
    <tag k="amenity" v="vending_machine"/>
    <tag k="branch" v="6 sz. automata - Csepel Pláza"/>
    <tag k="brand" v="Magyar Posta"/>
    <tag k="brand:wikidata" v="Q145614"/>
    <tag k="brand:wikipedia" v="hu:Magyar Posta Zrt."/>
    <tag k="email" v="ugyfelszolgalat@posta.hu"/>
    <tag k="facebook" v="https://www.facebook.com/MagyarPosta"/>
    <tag k="import" v="osm_poi_matchmaker"/>
    <tag k="instagram" v="https://www.instagram.com/magyar_posta_zrt"/>
    <tag k="name" v="Posta csomagautomata"/>
    <tag k="opening_hours" v="24/7"/>
    <tag k="operator" v="Magyar Posta Zrt."/>
    <tag k="payment:cash" v="yes"/>
    <tag k="payment:debit_cards" v="yes"/>
    <tag k="phone" v="+3617678200"/>
    <tag k="ref:vatin:hu" v="10901232-2-44"/>
    <tag k="source" v="website"/>
    <tag k="source:date" v="2018-07-18"/>
    <tag k="vending" v="parcel_pickup"/>
    <tag k="website" v="https://www.posta.hu"/>
    <tag k="youtube" v="https://www.youtube.com/user/magyarpostaofficial"/>
  </node>
  <!-- Original coordinates: POINT (47.456304 19.03966) -->
  <!-- OSM <-> POI distance: None m-->
  <!-- Checker good: {not_in_water}; bad {}-->
  <!-- Original tags:  -->
  <node action="modify" changeset="99999" id="-8" lat="47.456304" lon="19.03966" timestamp="" uid="4579407" user="KAMI" version="99999">
    <tag k="addr:city" v="Budapest"/>
    <tag k="addr:country" v="HU"/>
    <tag k="addr:housenumber" v="161"/>
    <tag k="addr:postcode" v="1871"/>
    <tag k="addr:street" v="Fehérvári út (Andor u. 1.) út"/>
    <tag k="amenity" v="vending_machine"/>
    <tag k="branch" v="7 sz. automata - Andor utca Spar"/>
    <tag k="brand" v="Magyar Posta"/>
    <tag k="brand:wikidata" v="Q145614"/>
    <tag k="brand:wikipedia" v="hu:Magyar Posta Zrt."/>
    <tag k="email" v="ugyfelszolgalat@posta.hu"/>
    <tag k="facebook" v="https://www.facebook.com/MagyarPosta"/>
    <tag k="import" v="osm_poi_matchmaker"/>
    <tag k="instagram" v="https://www.instagram.com/magyar_posta_zrt"/>
    <tag k="name" v="Posta csomagautomata"/>
    <tag k="opening_hours" v="24/7"/>
    <tag k="operator" v="Magyar Posta Zrt."/>
    <tag k="payment:cash" v="yes"/>
    <tag k="payment:debit_cards" v="yes"/>
    <tag k="phone" v="+3617678200"/>
    <tag k="ref:vatin:hu" v="10901232-2-44"/>
    <tag k="source" v="website"/>
    <tag k="source:date" v="2018-07-18"/>
    <tag k="vending" v="parcel_pickup"/>
    <tag k="website" v="https://www.posta.hu"/>
    <tag k="youtube" v="https://www.youtube.com/user/magyarpostaofficial"/>
  </node>
  <!-- Original coordinates: POINT (47.407116 19.016613) -->
  <!-- OSM <-> POI distance: None m-->
  <!-- Checker good: {not_in_water}; bad {}-->
  <!-- Original tags:  -->
  <node action="modify" changeset="99999" id="-9" lat="47.407116" lon="19.016613" timestamp="" uid="4579407" user="KAMI" version="99999">
    <tag k="addr:city" v="Budapest"/>
    <tag k="addr:country" v="HU"/>
    <tag k="addr:housenumber" v="37-43"/>
    <tag k="addr:postcode" v="1871"/>
    <tag k="addr:street" v="Nagytétényi út"/>
    <tag k="amenity" v="vending_machine"/>
    <tag k="branch" v="8 sz. automata - Campona"/>
    <tag k="brand" v="Magyar Posta"/>
    <tag k="brand:wikidata" v="Q145614"/>
    <tag k="brand:wikipedia" v="hu:Magyar Posta Zrt."/>
    <tag k="email" v="ugyfelszolgalat@posta.hu"/>
    <tag k="facebook" v="https://www.facebook.com/MagyarPosta"/>
    <tag k="import" v="osm_poi_matchmaker"/>
    <tag k="instagram" v="https://www.instagram.com/magyar_posta_zrt"/>
    <tag k="name" v="Posta csomagautomata"/>
    <tag k="opening_hours" v="24/7"/>
    <tag k="operator" v="Magyar Posta Zrt."/>
    <tag k="payment:cash" v="yes"/>
    <tag k="payment:debit_cards" v="yes"/>
    <tag k="phone" v="+3617678200"/>
    <tag k="ref:vatin:hu" v="10901232-2-44"/>
    <tag k="source" v="website"/>
    <tag k="source:date" v="2018-07-18"/>
    <tag k="vending" v="parcel_pickup"/>
    <tag k="website" v="https://www.posta.hu"/>
    <tag k="youtube" v="https://www.youtube.com/user/magyarpostaofficial"/>
  </node>
  <!-- Original coordinates: POINT (47.5046855 19.1384089) -->
  <!-- OSM <-> POI distance: None m-->
  <!-- Checker good: {not_in_water}; bad {}-->
  <!-- Original tags:  -->
  <node action="modify" changeset="99999" id="-10" lat="47.5046855" lon="19.1384089" timestamp="" uid="4579407" user="KAMI" version="99999">
    <tag k="addr:city" v="Budapest"/>
    <tag k="addr:country" v="HU"/>
    <tag k="addr:housenumber" v="24 (a)"/>
    <tag k="addr:postcode" v="1874"/>
    <tag k="addr:street" v="Örs Vezér tere"/>
    <tag k="amenity" v="vending_machine"/>
    <tag k="branch" v="9 sz. automata - Sugár A (IKEA felől)"/>
    <tag k="brand" v="Magyar Posta"/>
    <tag k="brand:wikidata" v="Q145614"/>
    <tag k="brand:wikipedia" v="hu:Magyar Posta Zrt."/>
    <tag k="email" v="ugyfelszolgalat@posta.hu"/>
    <tag k="facebook" v="https://www.facebook.com/MagyarPosta"/>
    <tag k="import" v="osm_poi_matchmaker"/>
    <tag k="instagram" v="https://www.instagram.com/magyar_posta_zrt"/>
    <tag k="name" v="Posta csomagautomata"/>
    <tag k="opening_hours" v="24/7"/>
    <tag k="operator" v="Magyar Posta Zrt."/>
    <tag k="payment:cash" v="yes"/>
    <tag k="payment:debit_cards" v="yes"/>
    <tag k="phone" v="+3617678200"/>
    <tag k="ref:vatin:hu" v="10901232-2-44"/>
    <tag k="source" v="website"/>
    <tag k="source:date" v="2018-07-18"/>
    <tag k="vending" v="parcel_pickup"/>
    <tag k="website" v="https://www.posta.hu"/>
    <tag k="youtube" v="https://www.youtube.com/user/magyarpostaofficial"/>
  </node>
  <!-- OSM link: https://osm.org/node/5383448116 -->
  <!-- Original coordinates: POINT (47.462297 19.147798) -->
  <!-- OSM <-> POI distance: 32.2755259 m-->
  <!-- Checker good: {not_in_water}; bad {}-->
  <!-- Original tags: 'amenity':'vending_machine'; 'indoor':'no'; 'operator':'MPL'; 'vending':'parcel_pickup';  -->
  <node action="modify" changeset="1" id="5383448116" lat="47.4625388949124" lon="19.1480352973346" timestamp="2018-03-01T20:01:35Z" uid="4579407" user="KAMI" version="2">
    <tag k="addr:city" v="Budapest"/>
    <tag k="addr:country" v="HU"/>
    <tag k="addr:housenumber" v="75. a-c"/>
    <tag k="addr:postcode" v="1871"/>
    <tag k="addr:street" v="Vak Bottyán utca"/>
    <tag k="amenity" v="vending_machine"/>
    <tag k="branch" v="10 sz. automata - KÖKI"/>
    <tag k="brand" v="Magyar Posta"/>
    <tag k="brand:wikidata" v="Q145614"/>
    <tag k="brand:wikipedia" v="hu:Magyar Posta Zrt."/>
    <tag k="email" v="ugyfelszolgalat@posta.hu"/>
    <tag k="facebook" v="https://www.facebook.com/MagyarPosta"/>
    <tag k="import" v="osm_poi_matchmaker"/>
    <tag k="indoor" v="no"/>
    <tag k="instagram" v="https://www.instagram.com/magyar_posta_zrt"/>
    <tag k="name" v="Posta csomagautomata"/>
    <tag k="opening_hours" v="24/7"/>
    <tag k="operator" v="Magyar Posta Zrt."/>
    <tag k="payment:cash" v="yes"/>
    <tag k="payment:debit_cards" v="yes"/>
    <tag k="phone" v="+3617678200"/>
    <tag k="ref:vatin:hu" v="10901232-2-44"/>
    <tag k="source" v="website"/>
    <tag k="source:date" v="2018-07-18"/>
    <tag k="vending" v="parcel_pickup"/>
    <tag k="website" v="https://www.posta.hu"/>
    <tag k="youtube" v="https://www.youtube.com/user/magyarpostaofficial"/>
  </node>
  <!-- Original coordinates: POINT (47.591898 19.358322) -->
  <!-- OSM <-> POI distance: None m-->
  <!-- Checker good: {not_in_water}; bad {}-->
  <!-- Original tags:  -->
  <node action="modify" changeset="99999" id="-12" lat="47.591898" lon="19.358322" timestamp="" uid="4579407" user="KAMI" version="99999">
    <tag k="addr:city" v="Gödöllő"/>
    <tag k="addr:country" v="HU"/>
    <tag k="addr:housenumber" v="1"/>
    <tag k="addr:postcode" v="2101"/>
    <tag k="addr:street" v="MÁV pályaudvar"/>
    <tag k="amenity" v="vending_machine"/>
    <tag k="branch" v="11 sz. automata - MÁV állomás"/>
    <tag k="brand" v="Magyar Posta"/>
    <tag k="brand:wikidata" v="Q145614"/>
    <tag k="brand:wikipedia" v="hu:Magyar Posta Zrt."/>
    <tag k="email" v="ugyfelszolgalat@posta.hu"/>
    <tag k="facebook" v="https://www.facebook.com/MagyarPosta"/>
    <tag k="import" v="osm_poi_matchmaker"/>
    <tag k="instagram" v="https://www.instagram.com/magyar_posta_zrt"/>
    <tag k="name" v="Posta csomagautomata"/>
    <tag k="opening_hours" v="24/7"/>
    <tag k="operator" v="Magyar Posta Zrt."/>
    <tag k="payment:cash" v="yes"/>
    <tag k="payment:debit_cards" v="yes"/>
    <tag k="phone" v="+3617678200"/>
    <tag k="ref:vatin:hu" v="10901232-2-44"/>
    <tag k="source" v="website"/>
    <tag k="source:date" v="2018-07-18"/>
    <tag k="vending" v="parcel_pickup"/>
    <tag k="website" v="https://www.posta.hu"/>
    <tag k="youtube" v="https://www.youtube.com/user/magyarpostaofficial"/>
  </node>
  <!-- Original coordinates: POINT (47.378176 18.92131) -->
  <!-- OSM <-> POI distance: None m-->
  <!-- Checker good: {not_in_water}; bad {}-->
  <!-- Original tags:  -->
  <node action="modify" changeset="99999" id="-13" lat="47.378176" lon="18.92131" timestamp="" uid="4579407" user="KAMI" version="99999">
    <tag k="addr:city" v="Érd"/>
    <tag k="addr:country" v="HU"/>
    <tag k="addr:housenumber" v="13"/>
    <tag k="addr:postcode" v="1834"/>
    <tag k="addr:street" v="Budai út"/>
    <tag k="amenity" v="vending_machine"/>
    <tag k="branch" v="12 sz. automata - Stop-Shop áruház"/>
    <tag k="brand" v="Magyar Posta"/>
    <tag k="brand:wikidata" v="Q145614"/>
    <tag k="brand:wikipedia" v="hu:Magyar Posta Zrt."/>
    <tag k="email" v="ugyfelszolgalat@posta.hu"/>
    <tag k="facebook" v="https://www.facebook.com/MagyarPosta"/>
    <tag k="import" v="osm_poi_matchmaker"/>
    <tag k="instagram" v="https://www.instagram.com/magyar_posta_zrt"/>
    <tag k="name" v="Posta csomagautomata"/>
    <tag k="opening_hours" v="24/7"/>
    <tag k="operator" v="Magyar Posta Zrt."/>
    <tag k="payment:cash" v="yes"/>
    <tag k="payment:debit_cards" v="yes"/>
    <tag k="phone" v="+3617678200"/>
    <tag k="ref:vatin:hu" v="10901232-2-44"/>
    <tag k="source" v="website"/>
    <tag k="source:date" v="2018-07-18"/>
    <tag k="vending" v="parcel_pickup"/>
    <tag k="website" v="https://www.posta.hu"/>
    <tag k="youtube" v="https://www.youtube.com/user/magyarpostaofficial"/>
  </node>
  <!-- Original coordinates: POINT (47.503818 21.630521) -->
  <!-- OSM <-> POI distance: None m-->
  <!-- Checker good: {not_in_water}; bad {}-->
  <!-- Original tags:  -->
  <node action="modify" changeset="99999" id="-14" lat="47.503818" lon="21.630521" timestamp="" uid="4579407" user="KAMI" version="99999">
    <tag k="addr:city" v="Debrecen"/>
    <tag k="addr:country" v="HU"/>
    <tag k="addr:housenumber" v="73/a"/>
    <tag k="addr:postcode" v="4050"/>
    <tag k="addr:street" v="Mikepércsi út"/>
    <tag k="amenity" v="vending_machine"/>
    <tag k="branch" v="13 sz. automata - Mikepércsi út Tesco"/>
    <tag k="brand" v="Magyar Posta"/>
    <tag k="brand:wikidata" v="Q145614"/>
    <tag k="brand:wikipedia" v="hu:Magyar Posta Zrt."/>
    <tag k="email" v="ugyfelszolgalat@posta.hu"/>
    <tag k="facebook" v="https://www.facebook.com/MagyarPosta"/>
    <tag k="import" v="osm_poi_matchmaker"/>
    <tag k="instagram" v="https://www.instagram.com/magyar_posta_zrt"/>
    <tag k="name" v="Posta csomagautomata"/>
    <tag k="opening_hours" v="Mo-Sa 06:00-22:00; Su 07:00-20:00"/>
    <tag k="operator" v="Magyar Posta Zrt."/>
    <tag k="payment:cash" v="yes"/>
    <tag k="payment:debit_cards" v="yes"/>
    <tag k="phone" v="+3617678200"/>
    <tag k="ref:vatin:hu" v="10901232-2-44"/>
    <tag k="source" v="website"/>
    <tag k="source:date" v="2018-07-18"/>
    <tag k="vending" v="parcel_pickup"/>
    <tag k="website" v="https://www.posta.hu"/>
    <tag k="youtube" v="https://www.youtube.com/user/magyarpostaofficial"/>
  </node>
  <!-- Original coordinates: POINT (47.54211 21.619696) -->
  <!-- OSM <-> POI distance: None m-->
  <!-- Checker good: {not_in_water}; bad {}-->
  <!-- Original tags:  -->
  <node action="modify" changeset="99999" id="-15" lat="47.54211" lon="21.619696" timestamp="" uid="4579407" user="KAMI" version="99999">
    <tag k="addr:city" v="Debrecen"/>
    <tag k="addr:country" v="HU"/>
    <tag k="addr:housenumber" v="27"/>
    <tag k="addr:postcode" v="4050"/>
    <tag k="addr:street" v="Füredi út"/>
    <tag k="amenity" v="vending_machine"/>
    <tag k="branch" v="14 sz. automata - Malompark"/>
    <tag k="brand" v="Magyar Posta"/>
    <tag k="brand:wikidata" v="Q145614"/>
    <tag k="brand:wikipedia" v="hu:Magyar Posta Zrt."/>
    <tag k="email" v="ugyfelszolgalat@posta.hu"/>
    <tag k="facebook" v="https://www.facebook.com/MagyarPosta"/>
    <tag k="import" v="osm_poi_matchmaker"/>
    <tag k="instagram" v="https://www.instagram.com/magyar_posta_zrt"/>
    <tag k="name" v="Posta csomagautomata"/>
    <tag k="opening_hours" v="24/7"/>
    <tag k="operator" v="Magyar Posta Zrt."/>
    <tag k="payment:cash" v="yes"/>
    <tag k="payment:debit_cards" v="yes"/>
    <tag k="phone" v="+3617678200"/>
    <tag k="ref:vatin:hu" v="10901232-2-44"/>
    <tag k="source" v="website"/>
    <tag k="source:date" v="2018-07-18"/>
    <tag k="vending" v="parcel_pickup"/>
    <tag k="website" v="https://www.posta.hu"/>
    <tag k="youtube" v="https://www.youtube.com/user/magyarpostaofficial"/>
  </node>
  <!-- Original coordinates: POINT (48.101368 20.731535) -->
  <!-- OSM <-> POI distance: None m-->
  <!-- Checker good: {not_in_water}; bad {}-->
  <!-- Original tags:  -->
  <node action="modify" changeset="99999" id="-16" lat="48.101368" lon="20.731535" timestamp="" uid="4579407" user="KAMI" version="99999">
    <tag k="addr:city" v="Miskolc"/>
    <tag k="addr:country" v="HU"/>
    <tag k="addr:housenumber" v="43"/>
    <tag k="addr:postcode" v="3550"/>
    <tag k="addr:street" v="Andrássy út"/>
    <tag k="amenity" v="vending_machine"/>
    <tag k="branch" v="15 sz. automata - Miskolc 9 - Újdiósgyőr posta"/>
    <tag k="brand" v="Magyar Posta"/>
    <tag k="brand:wikidata" v="Q145614"/>
    <tag k="brand:wikipedia" v="hu:Magyar Posta Zrt."/>
    <tag k="email" v="ugyfelszolgalat@posta.hu"/>
    <tag k="facebook" v="https://www.facebook.com/MagyarPosta"/>
    <tag k="import" v="osm_poi_matchmaker"/>
    <tag k="instagram" v="https://www.instagram.com/magyar_posta_zrt"/>
    <tag k="name" v="Posta csomagautomata"/>
    <tag k="opening_hours" v="24/7"/>
    <tag k="operator" v="Magyar Posta Zrt."/>
    <tag k="payment:cash" v="yes"/>
    <tag k="payment:debit_cards" v="yes"/>
    <tag k="phone" v="+3617678200"/>
    <tag k="ref:vatin:hu" v="10901232-2-44"/>
    <tag k="source" v="website"/>
    <tag k="source:date" v="2018-07-18"/>
    <tag k="vending" v="parcel_pickup"/>
    <tag k="website" v="https://www.posta.hu"/>
    <tag k="youtube" v="https://www.youtube.com/user/magyarpostaofficial"/>
  </node>
  <!-- Original coordinates: POINT (48.071854 20.784405) -->
  <!-- OSM <-> POI distance: None m-->
  <!-- Checker good: {not_in_water}; bad {}-->
  <!-- Original tags:  -->
  <node action="modify" changeset="99999" id="-17" lat="48.071854" lon="20.784405" timestamp="" uid="4579407" user="KAMI" version="99999">
    <tag k="addr:city" v="Miskolc"/>
    <tag k="addr:country" v="HU"/>
    <tag k="addr:housenumber" v="1/a"/>
    <tag k="addr:postcode" v="3550"/>
    <tag k="addr:street" v="Mésztelep utca"/>
    <tag k="amenity" v="vending_machine"/>
    <tag k="branch" v="16 sz. automata - Avas Tesco"/>
    <tag k="brand" v="Magyar Posta"/>
    <tag k="brand:wikidata" v="Q145614"/>
    <tag k="brand:wikipedia" v="hu:Magyar Posta Zrt."/>
    <tag k="email" v="ugyfelszolgalat@posta.hu"/>
    <tag k="facebook" v="https://www.facebook.com/MagyarPosta"/>
    <tag k="import" v="osm_poi_matchmaker"/>
    <tag k="instagram" v="https://www.instagram.com/magyar_posta_zrt"/>
    <tag k="name" v="Posta csomagautomata"/>
    <tag k="opening_hours" v="24/7"/>
    <tag k="operator" v="Magyar Posta Zrt."/>
    <tag k="payment:cash" v="yes"/>
    <tag k="payment:debit_cards" v="yes"/>
    <tag k="phone" v="+3617678200"/>
    <tag k="ref:vatin:hu" v="10901232-2-44"/>
    <tag k="source" v="website"/>
    <tag k="source:date" v="2018-07-18"/>
    <tag k="vending" v="parcel_pickup"/>
    <tag k="website" v="https://www.posta.hu"/>
    <tag k="youtube" v="https://www.youtube.com/user/magyarpostaofficial"/>
  </node>
  <!-- Original coordinates: POINT (47.946402 21.706196) -->
  <!-- OSM <-> POI distance: None m-->
  <!-- Checker good: {not_in_water}; bad {}-->
  <!-- Original tags:  -->
  <node action="modify" changeset="99999" id="-18" lat="47.946402" lon="21.706196" timestamp="" uid="4579407" user="KAMI" version="99999">
    <tag k="addr:city" v="Nyíregyháza"/>
    <tag k="addr:country" v="HU"/>
    <tag k="addr:housenumber" v="2"/>
    <tag k="addr:postcode" v="4420"/>
    <tag k="addr:street" v="Állomás tér"/>
    <tag k="amenity" v="vending_machine"/>
    <tag k="branch" v="17 sz. automata - MÁV állomás"/>
    <tag k="brand" v="Magyar Posta"/>
    <tag k="brand:wikidata" v="Q145614"/>
    <tag k="brand:wikipedia" v="hu:Magyar Posta Zrt."/>
    <tag k="email" v="ugyfelszolgalat@posta.hu"/>
    <tag k="facebook" v="https://www.facebook.com/MagyarPosta"/>
    <tag k="import" v="osm_poi_matchmaker"/>
    <tag k="instagram" v="https://www.instagram.com/magyar_posta_zrt"/>
    <tag k="name" v="Posta csomagautomata"/>
    <tag k="opening_hours" v="24/7"/>
    <tag k="operator" v="Magyar Posta Zrt."/>
    <tag k="payment:cash" v="yes"/>
    <tag k="payment:debit_cards" v="yes"/>
    <tag k="phone" v="+3617678200"/>
    <tag k="ref:vatin:hu" v="10901232-2-44"/>
    <tag k="source" v="website"/>
    <tag k="source:date" v="2018-07-18"/>
    <tag k="vending" v="parcel_pickup"/>
    <tag k="website" v="https://www.posta.hu"/>
    <tag k="youtube" v="https://www.youtube.com/user/magyarpostaofficial"/>
  </node>
  <!-- Original coordinates: POINT (47.179422 20.176664) -->
  <!-- OSM <-> POI distance: None m-->
  <!-- Checker good: {not_in_water}; bad {}-->
  <!-- Original tags:  -->
  <node action="modify" changeset="99999" id="-19" lat="47.179422" lon="20.176664" timestamp="" uid="4579407" user="KAMI" version="99999">
    <tag k="addr:city" v="Szolnok"/>
    <tag k="addr:country" v="HU"/>
    <tag k="addr:housenumber" v="-"/>
    <tag k="addr:postcode" v="5020"/>
    <tag k="addr:street" v="MÁV pu."/>
    <tag k="amenity" v="vending_machine"/>
    <tag k="branch" v="18 sz. automata - MÁV állomás"/>
    <tag k="brand" v="Magyar Posta"/>
    <tag k="brand:wikidata" v="Q145614"/>
    <tag k="brand:wikipedia" v="hu:Magyar Posta Zrt."/>
    <tag k="email" v="ugyfelszolgalat@posta.hu"/>
    <tag k="facebook" v="https://www.facebook.com/MagyarPosta"/>
    <tag k="import" v="osm_poi_matchmaker"/>
    <tag k="instagram" v="https://www.instagram.com/magyar_posta_zrt"/>
    <tag k="name" v="Posta csomagautomata"/>
    <tag k="opening_hours" v="24/7"/>
    <tag k="operator" v="Magyar Posta Zrt."/>
    <tag k="payment:cash" v="yes"/>
    <tag k="payment:debit_cards" v="yes"/>
    <tag k="phone" v="+3617678200"/>
    <tag k="ref:vatin:hu" v="10901232-2-44"/>
    <tag k="source" v="website"/>
    <tag k="source:date" v="2018-07-18"/>
    <tag k="vending" v="parcel_pickup"/>
    <tag k="website" v="https://www.posta.hu"/>
    <tag k="youtube" v="https://www.youtube.com/user/magyarpostaofficial"/>
  </node>
  <!-- Original coordinates: POINT (47.9234747 20.3692305) -->
  <!-- OSM <-> POI distance: None m-->
  <!-- Checker good: {not_in_water}; bad {}-->
  <!-- Original tags:  -->
  <node action="modify" changeset="99999" id="-20" lat="47.9234747" lon="20.3692305" timestamp="" uid="4579407" user="KAMI" version="99999">
    <tag k="addr:city" v="Eger"/>
    <tag k="addr:country" v="HU"/>
    <tag k="addr:housenumber" v="100"/>
    <tag k="addr:postcode" v="3301"/>
    <tag k="addr:street" v="II. Rákóczi Ferenc utca"/>
    <tag k="amenity" v="vending_machine"/>
    <tag k="branch" v="19 sz. automata - Tesco"/>
    <tag k="brand" v="Magyar Posta"/>
    <tag k="brand:wikidata" v="Q145614"/>
    <tag k="brand:wikipedia" v="hu:Magyar Posta Zrt."/>
    <tag k="email" v="ugyfelszolgalat@posta.hu"/>
    <tag k="facebook" v="https://www.facebook.com/MagyarPosta"/>
    <tag k="import" v="osm_poi_matchmaker"/>
    <tag k="instagram" v="https://www.instagram.com/magyar_posta_zrt"/>
    <tag k="name" v="Posta csomagautomata"/>
    <tag k="opening_hours" v="24/7"/>
    <tag k="operator" v="Magyar Posta Zrt."/>
    <tag k="payment:cash" v="yes"/>
    <tag k="payment:debit_cards" v="yes"/>
    <tag k="phone" v="+3617678200"/>
    <tag k="ref:vatin:hu" v="10901232-2-44"/>
    <tag k="source" v="website"/>
    <tag k="source:date" v="2018-07-18"/>
    <tag k="vending" v="parcel_pickup"/>
    <tag k="website" v="https://www.posta.hu"/>
    <tag k="youtube" v="https://www.youtube.com/user/magyarpostaofficial"/>
  </node>
  <!-- Original coordinates: POINT (47.582992 18.398277) -->
  <!-- OSM <-> POI distance: None m-->
  <!-- Checker good: {not_in_water}; bad {}-->
  <!-- Original tags:  -->
  <node action="modify" changeset="99999" id="-21" lat="47.582992" lon="18.398277" timestamp="" uid="4579407" user="KAMI" version="99999">
    <tag k="addr:city" v="Tatabánya"/>
    <tag k="addr:country" v="HU"/>
    <tag k="addr:housenumber" v="30"/>
    <tag k="addr:postcode" v="2801"/>
    <tag k="addr:street" v="Fő tér"/>
    <tag k="amenity" v="vending_machine"/>
    <tag k="branch" v="20 sz. automata - Tatabánya 1 posta"/>
    <tag k="brand" v="Magyar Posta"/>
    <tag k="brand:wikidata" v="Q145614"/>
    <tag k="brand:wikipedia" v="hu:Magyar Posta Zrt."/>
    <tag k="email" v="ugyfelszolgalat@posta.hu"/>
    <tag k="facebook" v="https://www.facebook.com/MagyarPosta"/>
    <tag k="import" v="osm_poi_matchmaker"/>
    <tag k="instagram" v="https://www.instagram.com/magyar_posta_zrt"/>
    <tag k="name" v="Posta csomagautomata"/>
    <tag k="opening_hours" v="24/7"/>
    <tag k="operator" v="Magyar Posta Zrt."/>
    <tag k="payment:cash" v="yes"/>
    <tag k="payment:debit_cards" v="yes"/>
    <tag k="phone" v="+3617678200"/>
    <tag k="ref:vatin:hu" v="10901232-2-44"/>
    <tag k="source" v="website"/>
    <tag k="source:date" v="2018-07-18"/>
    <tag k="vending" v="parcel_pickup"/>
    <tag k="website" v="https://www.posta.hu"/>
    <tag k="youtube" v="https://www.youtube.com/user/magyarpostaofficial"/>
  </node>
  <!-- Original coordinates: POINT (47.239528 16.65317) -->
  <!-- OSM <-> POI distance: None m-->
  <!-- Checker good: {not_in_water}; bad {}-->
  <!-- Original tags:  -->
  <node action="modify" changeset="99999" id="-22" lat="47.239528" lon="16.65317" timestamp="" uid="4579407" user="KAMI" version="99999">
    <tag k="addr:city" v="Szombathely"/>
    <tag k="addr:country" v="HU"/>
    <tag k="addr:housenumber" v="70"/>
    <tag k="addr:postcode" v="9702"/>
    <tag k="addr:street" v="Zanati út"/>
    <tag k="amenity" v="vending_machine"/>
    <tag k="branch" v="21 sz. automata - Tesco"/>
    <tag k="brand" v="Magyar Posta"/>
    <tag k="brand:wikidata" v="Q145614"/>
    <tag k="brand:wikipedia" v="hu:Magyar Posta Zrt."/>
    <tag k="email" v="ugyfelszolgalat@posta.hu"/>
    <tag k="facebook" v="https://www.facebook.com/MagyarPosta"/>
    <tag k="import" v="osm_poi_matchmaker"/>
    <tag k="instagram" v="https://www.instagram.com/magyar_posta_zrt"/>
    <tag k="name" v="Posta csomagautomata"/>
    <tag k="opening_hours" v="24/7"/>
    <tag k="operator" v="Magyar Posta Zrt."/>
    <tag k="payment:cash" v="yes"/>
    <tag k="payment:debit_cards" v="yes"/>
    <tag k="phone" v="+3617678200"/>
    <tag k="ref:vatin:hu" v="10901232-2-44"/>
    <tag k="source" v="website"/>
    <tag k="source:date" v="2018-07-18"/>
    <tag k="vending" v="parcel_pickup"/>
    <tag k="website" v="https://www.posta.hu"/>
    <tag k="youtube" v="https://www.youtube.com/user/magyarpostaofficial"/>
  </node>
  <!-- Original coordinates: POINT (47.093368 17.910811) -->
  <!-- OSM <-> POI distance: None m-->
  <!-- Checker good: {not_in_water}; bad {}-->
  <!-- Original tags:  -->
  <node action="modify" changeset="99999" id="-23" lat="47.093368" lon="17.910811" timestamp="" uid="4579407" user="KAMI" version="99999">
    <tag k="addr:city" v="Veszprém"/>
    <tag k="addr:country" v="HU"/>
    <tag k="addr:housenumber" v="19"/>
    <tag k="addr:postcode" v="8210"/>
    <tag k="addr:street" v="Kossuth Lajos utca"/>
    <tag k="amenity" v="vending_machine"/>
    <tag k="branch" v="22 sz. automata - Veszprém 1 posta"/>
    <tag k="brand" v="Magyar Posta"/>
    <tag k="brand:wikidata" v="Q145614"/>
    <tag k="brand:wikipedia" v="hu:Magyar Posta Zrt."/>
    <tag k="email" v="ugyfelszolgalat@posta.hu"/>
    <tag k="facebook" v="https://www.facebook.com/MagyarPosta"/>
    <tag k="import" v="osm_poi_matchmaker"/>
    <tag k="instagram" v="https://www.instagram.com/magyar_posta_zrt"/>
    <tag k="name" v="Posta csomagautomata"/>
    <tag k="opening_hours" v="24/7"/>
    <tag k="operator" v="Magyar Posta Zrt."/>
    <tag k="payment:cash" v="yes"/>
    <tag k="payment:debit_cards" v="yes"/>
    <tag k="phone" v="+3617678200"/>
    <tag k="ref:vatin:hu" v="10901232-2-44"/>
    <tag k="source" v="website"/>
    <tag k="source:date" v="2018-07-18"/>
    <tag k="vending" v="parcel_pickup"/>
    <tag k="website" v="https://www.posta.hu"/>
    <tag k="youtube" v="https://www.youtube.com/user/magyarpostaofficial"/>
  </node>
  <!-- Original coordinates: POINT (47.670401 16.61125) -->
  <!-- OSM <-> POI distance: None m-->
  <!-- Checker good: {not_in_water}; bad {}-->
  <!-- Original tags:  -->
  <node action="modify" changeset="99999" id="-24" lat="47.670401" lon="16.61125" timestamp="" uid="4579407" user="KAMI" version="99999">
    <tag k="addr:city" v="Sopron"/>
    <tag k="addr:country" v="HU"/>
    <tag k="addr:housenumber" v="30"/>
    <tag k="addr:postcode" v="9401"/>
    <tag k="addr:street" v="Ipar körút"/>
    <tag k="amenity" v="vending_machine"/>
    <tag k="branch" v="23 sz. automata - Tesco"/>
    <tag k="brand" v="Magyar Posta"/>
    <tag k="brand:wikidata" v="Q145614"/>
    <tag k="brand:wikipedia" v="hu:Magyar Posta Zrt."/>
    <tag k="email" v="ugyfelszolgalat@posta.hu"/>
    <tag k="facebook" v="https://www.facebook.com/MagyarPosta"/>
    <tag k="import" v="osm_poi_matchmaker"/>
    <tag k="instagram" v="https://www.instagram.com/magyar_posta_zrt"/>
    <tag k="name" v="Posta csomagautomata"/>
    <tag k="opening_hours" v="24/7"/>
    <tag k="operator" v="Magyar Posta Zrt."/>
    <tag k="payment:cash" v="yes"/>
    <tag k="payment:debit_cards" v="yes"/>
    <tag k="phone" v="+3617678200"/>
    <tag k="ref:vatin:hu" v="10901232-2-44"/>
    <tag k="source" v="website"/>
    <tag k="source:date" v="2018-07-18"/>
    <tag k="vending" v="parcel_pickup"/>
    <tag k="website" v="https://www.posta.hu"/>
    <tag k="youtube" v="https://www.youtube.com/user/magyarpostaofficial"/>
  </node>
  <!-- Original coordinates: POINT (47.694236 17.62917) -->
  <!-- OSM <-> POI distance: None m-->
  <!-- Checker good: {not_in_water}; bad {}-->
  <!-- Original tags:  -->
  <node action="modify" changeset="99999" id="-25" lat="47.694236" lon="17.62917" timestamp="" uid="4579407" user="KAMI" version="99999">
    <tag k="addr:city" v="Győr"/>
    <tag k="addr:country" v="HU"/>
    <tag k="addr:housenumber" v="3"/>
    <tag k="addr:postcode" v="9041"/>
    <tag k="addr:street" v="Hédervári út"/>
    <tag k="amenity" v="vending_machine"/>
    <tag k="branch" v="24 sz. automata - Győr 7 posta"/>
    <tag k="brand" v="Magyar Posta"/>
    <tag k="brand:wikidata" v="Q145614"/>
    <tag k="brand:wikipedia" v="hu:Magyar Posta Zrt."/>
    <tag k="email" v="ugyfelszolgalat@posta.hu"/>
    <tag k="facebook" v="https://www.facebook.com/MagyarPosta"/>
    <tag k="import" v="osm_poi_matchmaker"/>
    <tag k="instagram" v="https://www.instagram.com/magyar_posta_zrt"/>
    <tag k="name" v="Posta csomagautomata"/>
    <tag k="opening_hours" v="24/7"/>
    <tag k="operator" v="Magyar Posta Zrt."/>
    <tag k="payment:cash" v="yes"/>
    <tag k="payment:debit_cards" v="yes"/>
    <tag k="phone" v="+3617678200"/>
    <tag k="ref:vatin:hu" v="10901232-2-44"/>
    <tag k="source" v="website"/>
    <tag k="source:date" v="2018-07-18"/>
    <tag k="vending" v="parcel_pickup"/>
    <tag k="website" v="https://www.posta.hu"/>
    <tag k="youtube" v="https://www.youtube.com/user/magyarpostaofficial"/>
  </node>
  <!-- Original coordinates: POINT (46.844632 16.8514) -->
  <!-- OSM <-> POI distance: None m-->
  <!-- Checker good: {not_in_water}; bad {}-->
  <!-- Original tags:  -->
  <node action="modify" changeset="99999" id="-26" lat="46.844632" lon="16.8514" timestamp="" uid="4579407" user="KAMI" version="99999">
    <tag k="addr:city" v="Zalaegerszeg"/>
    <tag k="addr:country" v="HU"/>
    <tag k="addr:housenumber" v="5"/>
    <tag k="addr:postcode" v="8910"/>
    <tag k="addr:street" v="Stadion utca"/>
    <tag k="amenity" v="vending_machine"/>
    <tag k="branch" v="25 sz. automata - Zala Pláza"/>
    <tag k="brand" v="Magyar Posta"/>
    <tag k="brand:wikidata" v="Q145614"/>
    <tag k="brand:wikipedia" v="hu:Magyar Posta Zrt."/>
    <tag k="email" v="ugyfelszolgalat@posta.hu"/>
    <tag k="facebook" v="https://www.facebook.com/MagyarPosta"/>
    <tag k="import" v="osm_poi_matchmaker"/>
    <tag k="instagram" v="https://www.instagram.com/magyar_posta_zrt"/>
    <tag k="name" v="Posta csomagautomata"/>
    <tag k="opening_hours" v="24/7"/>
    <tag k="operator" v="Magyar Posta Zrt."/>
    <tag k="payment:cash" v="yes"/>
    <tag k="payment:debit_cards" v="yes"/>
    <tag k="phone" v="+3617678200"/>
    <tag k="ref:vatin:hu" v="10901232-2-44"/>
    <tag k="source" v="website"/>
    <tag k="source:date" v="2018-07-18"/>
    <tag k="vending" v="parcel_pickup"/>
    <tag k="website" v="https://www.posta.hu"/>
    <tag k="youtube" v="https://www.youtube.com/user/magyarpostaofficial"/>
  </node>
  <!-- Original coordinates: POINT (46.458375 16.98482) -->
  <!-- OSM <-> POI distance: None m-->
  <!-- Checker good: {not_in_water}; bad {}-->
  <!-- Original tags:  -->
  <node action="modify" changeset="99999" id="-27" lat="46.458375" lon="16.98482" timestamp="" uid="4579407" user="KAMI" version="99999">
    <tag k="addr:city" v="Nagykanizsa"/>
    <tag k="addr:country" v="HU"/>
    <tag k="addr:housenumber" v="2"/>
    <tag k="addr:postcode" v="8801"/>
    <tag k="addr:street" v="Európa Tanács utca"/>
    <tag k="amenity" v="vending_machine"/>
    <tag k="branch" v="26 sz. automata - Kanizsa Pláza"/>
    <tag k="brand" v="Magyar Posta"/>
    <tag k="brand:wikidata" v="Q145614"/>
    <tag k="brand:wikipedia" v="hu:Magyar Posta Zrt."/>
    <tag k="email" v="ugyfelszolgalat@posta.hu"/>
    <tag k="facebook" v="https://www.facebook.com/MagyarPosta"/>
    <tag k="import" v="osm_poi_matchmaker"/>
    <tag k="instagram" v="https://www.instagram.com/magyar_posta_zrt"/>
    <tag k="name" v="Posta csomagautomata"/>
    <tag k="opening_hours" v="24/7"/>
    <tag k="operator" v="Magyar Posta Zrt."/>
    <tag k="payment:cash" v="yes"/>
    <tag k="payment:debit_cards" v="yes"/>
    <tag k="phone" v="+3617678200"/>
    <tag k="ref:vatin:hu" v="10901232-2-44"/>
    <tag k="source" v="website"/>
    <tag k="source:date" v="2018-07-18"/>
    <tag k="vending" v="parcel_pickup"/>
    <tag k="website" v="https://www.posta.hu"/>
    <tag k="youtube" v="https://www.youtube.com/user/magyarpostaofficial"/>
  </node>
  <!-- Original coordinates: POINT (46.066829 18.226012) -->
  <!-- OSM <-> POI distance: None m-->
  <!-- Checker good: {not_in_water}; bad {}-->
  <!-- Original tags:  -->
  <node action="modify" changeset="99999" id="-28" lat="46.066829" lon="18.226012" timestamp="" uid="4579407" user="KAMI" version="99999">
    <tag k="addr:city" v="Pécs"/>
    <tag k="addr:country" v="HU"/>
    <tag k="addr:housenumber" v="6"/>
    <tag k="addr:postcode" v="7680"/>
    <tag k="addr:street" v="Indóház tér"/>
    <tag k="amenity" v="vending_machine"/>
    <tag k="branch" v="27 sz. automata - MÁV állomás"/>
    <tag k="brand" v="Magyar Posta"/>
    <tag k="brand:wikidata" v="Q145614"/>
    <tag k="brand:wikipedia" v="hu:Magyar Posta Zrt."/>
    <tag k="email" v="ugyfelszolgalat@posta.hu"/>
    <tag k="facebook" v="https://www.facebook.com/MagyarPosta"/>
    <tag k="import" v="osm_poi_matchmaker"/>
    <tag k="instagram" v="https://www.instagram.com/magyar_posta_zrt"/>
    <tag k="name" v="Posta csomagautomata"/>
    <tag k="opening_hours" v="24/7"/>
    <tag k="operator" v="Magyar Posta Zrt."/>
    <tag k="payment:cash" v="yes"/>
    <tag k="payment:debit_cards" v="yes"/>
    <tag k="phone" v="+3617678200"/>
    <tag k="ref:vatin:hu" v="10901232-2-44"/>
    <tag k="source" v="website"/>
    <tag k="source:date" v="2018-07-18"/>
    <tag k="vending" v="parcel_pickup"/>
    <tag k="website" v="https://www.posta.hu"/>
    <tag k="youtube" v="https://www.youtube.com/user/magyarpostaofficial"/>
  </node>
  <!-- Original coordinates: POINT (46.03983 18.223281) -->
  <!-- OSM <-> POI distance: None m-->
  <!-- Checker good: {not_in_water}; bad {}-->
  <!-- Original tags:  -->
  <node action="modify" changeset="99999" id="-29" lat="46.03983" lon="18.223281" timestamp="" uid="4579407" user="KAMI" version="99999">
    <tag k="addr:city" v="Pécs"/>
    <tag k="addr:country" v="HU"/>
    <tag k="addr:housenumber" v="2"/>
    <tag k="addr:postcode" v="7680"/>
    <tag k="addr:street" v="Csontváry utca"/>
    <tag k="amenity" v="vending_machine"/>
    <tag k="branch" v="28 sz. automata - Spar"/>
    <tag k="brand" v="Magyar Posta"/>
    <tag k="brand:wikidata" v="Q145614"/>
    <tag k="brand:wikipedia" v="hu:Magyar Posta Zrt."/>
    <tag k="email" v="ugyfelszolgalat@posta.hu"/>
    <tag k="facebook" v="https://www.facebook.com/MagyarPosta"/>
    <tag k="import" v="osm_poi_matchmaker"/>
    <tag k="instagram" v="https://www.instagram.com/magyar_posta_zrt"/>
    <tag k="name" v="Posta csomagautomata"/>
    <tag k="opening_hours" v="24/7"/>
    <tag k="operator" v="Magyar Posta Zrt."/>
    <tag k="payment:cash" v="yes"/>
    <tag k="payment:debit_cards" v="yes"/>
    <tag k="phone" v="+3617678200"/>
    <tag k="ref:vatin:hu" v="10901232-2-44"/>
    <tag k="source" v="website"/>
    <tag k="source:date" v="2018-07-18"/>
    <tag k="vending" v="parcel_pickup"/>
    <tag k="website" v="https://www.posta.hu"/>
    <tag k="youtube" v="https://www.youtube.com/user/magyarpostaofficial"/>
  </node>
  <!-- Original coordinates: POINT (46.347373 18.712128) -->
  <!-- OSM <-> POI distance: None m-->
  <!-- Checker good: {not_in_water}; bad {}-->
  <!-- Original tags:  -->
  <node action="modify" changeset="99999" id="-30" lat="46.347373" lon="18.712128" timestamp="" uid="4579407" user="KAMI" version="99999">
    <tag k="addr:city" v="Szekszárd"/>
    <tag k="addr:country" v="HU"/>
    <tag k="addr:housenumber" v="1-49"/>
    <tag k="addr:postcode" v="7101"/>
    <tag k="addr:street" v="Pollack Mihály út"/>
    <tag k="amenity" v="vending_machine"/>
    <tag k="branch" v="29 sz. automata - MÁV állomás"/>
    <tag k="brand" v="Magyar Posta"/>
    <tag k="brand:wikidata" v="Q145614"/>
    <tag k="brand:wikipedia" v="hu:Magyar Posta Zrt."/>
    <tag k="email" v="ugyfelszolgalat@posta.hu"/>
    <tag k="facebook" v="https://www.facebook.com/MagyarPosta"/>
    <tag k="import" v="osm_poi_matchmaker"/>
    <tag k="instagram" v="https://www.instagram.com/magyar_posta_zrt"/>
    <tag k="name" v="Posta csomagautomata"/>
    <tag k="opening_hours" v="24/7"/>
    <tag k="operator" v="Magyar Posta Zrt."/>
    <tag k="payment:cash" v="yes"/>
    <tag k="payment:debit_cards" v="yes"/>
    <tag k="phone" v="+3617678200"/>
    <tag k="ref:vatin:hu" v="10901232-2-44"/>
    <tag k="source" v="website"/>
    <tag k="source:date" v="2018-07-18"/>
    <tag k="vending" v="parcel_pickup"/>
    <tag k="website" v="https://www.posta.hu"/>
    <tag k="youtube" v="https://www.youtube.com/user/magyarpostaofficial"/>
  </node>
  <!-- Original coordinates: POINT (47.182527 18.420725) -->
  <!-- OSM <-> POI distance: None m-->
  <!-- Checker good: {not_in_water}; bad {}-->
  <!-- Original tags:  -->
  <node action="modify" changeset="99999" id="-31" lat="47.182527" lon="18.420725" timestamp="" uid="4579407" user="KAMI" version="99999">
    <tag k="addr:city" v="Székesfehérvár"/>
    <tag k="addr:country" v="HU"/>
    <tag k="addr:housenumber" v="3"/>
    <tag k="addr:postcode" v="8050"/>
    <tag k="addr:street" v="Kaszap István utca"/>
    <tag k="amenity" v="vending_machine"/>
    <tag k="branch" v="30 sz. automata - Posta Feldolgozó"/>
    <tag k="brand" v="Magyar Posta"/>
    <tag k="brand:wikidata" v="Q145614"/>
    <tag k="brand:wikipedia" v="hu:Magyar Posta Zrt."/>
    <tag k="email" v="ugyfelszolgalat@posta.hu"/>
    <tag k="facebook" v="https://www.facebook.com/MagyarPosta"/>
    <tag k="import" v="osm_poi_matchmaker"/>
    <tag k="instagram" v="https://www.instagram.com/magyar_posta_zrt"/>
    <tag k="name" v="Posta csomagautomata"/>
    <tag k="opening_hours" v="24/7"/>
    <tag k="operator" v="Magyar Posta Zrt."/>
    <tag k="payment:cash" v="yes"/>
    <tag k="payment:debit_cards" v="yes"/>
    <tag k="phone" v="+3617678200"/>
    <tag k="ref:vatin:hu" v="10901232-2-44"/>
    <tag k="source" v="website"/>
    <tag k="source:date" v="2018-07-18"/>
    <tag k="vending" v="parcel_pickup"/>
    <tag k="website" v="https://www.posta.hu"/>
    <tag k="youtube" v="https://www.youtube.com/user/magyarpostaofficial"/>
  </node>
  <!-- Original coordinates: POINT (46.36502 17.783972) -->
  <!-- OSM <-> POI distance: None m-->
  <!-- Checker good: {not_in_water}; bad {}-->
  <!-- Original tags:  -->
  <node action="modify" changeset="99999" id="-32" lat="46.36502" lon="17.783972" timestamp="" uid="4579407" user="KAMI" version="99999">
    <tag k="addr:city" v="Kaposvár"/>
    <tag k="addr:country" v="HU"/>
    <tag k="addr:housenumber" v="56"/>
    <tag k="addr:postcode" v="7420"/>
    <tag k="addr:street" v="Petőfi utca"/>
    <tag k="amenity" v="vending_machine"/>
    <tag k="branch" v="31 sz. automata - ALDI"/>
    <tag k="brand" v="Magyar Posta"/>
    <tag k="brand:wikidata" v="Q145614"/>
    <tag k="brand:wikipedia" v="hu:Magyar Posta Zrt."/>
    <tag k="email" v="ugyfelszolgalat@posta.hu"/>
    <tag k="facebook" v="https://www.facebook.com/MagyarPosta"/>
    <tag k="import" v="osm_poi_matchmaker"/>
    <tag k="instagram" v="https://www.instagram.com/magyar_posta_zrt"/>
    <tag k="name" v="Posta csomagautomata"/>
    <tag k="opening_hours" v="24/7"/>
    <tag k="operator" v="Magyar Posta Zrt."/>
    <tag k="payment:cash" v="yes"/>
    <tag k="payment:debit_cards" v="yes"/>
    <tag k="phone" v="+3617678200"/>
    <tag k="ref:vatin:hu" v="10901232-2-44"/>
    <tag k="source" v="website"/>
    <tag k="source:date" v="2018-07-18"/>
    <tag k="vending" v="parcel_pickup"/>
    <tag k="website" v="https://www.posta.hu"/>
    <tag k="youtube" v="https://www.youtube.com/user/magyarpostaofficial"/>
  </node>
  <!-- Original coordinates: POINT (46.268566 20.138412) -->
  <!-- OSM <-> POI distance: None m-->
  <!-- Checker good: {not_in_water}; bad {}-->
  <!-- Original tags:  -->
  <node action="modify" changeset="99999" id="-33" lat="46.268566" lon="20.138412" timestamp="" uid="4579407" user="KAMI" version="99999">
    <tag k="addr:city" v="Szeged"/>
    <tag k="addr:country" v="HU"/>
    <tag k="addr:housenumber" v="42-64"/>
    <tag k="addr:postcode" v="6780"/>
    <tag k="addr:street" v="Rókusi körút"/>
    <tag k="amenity" v="vending_machine"/>
    <tag k="branch" v="32 sz. automata - Rókusi körút Tesco"/>
    <tag k="brand" v="Magyar Posta"/>
    <tag k="brand:wikidata" v="Q145614"/>
    <tag k="brand:wikipedia" v="hu:Magyar Posta Zrt."/>
    <tag k="email" v="ugyfelszolgalat@posta.hu"/>
    <tag k="facebook" v="https://www.facebook.com/MagyarPosta"/>
    <tag k="import" v="osm_poi_matchmaker"/>
    <tag k="instagram" v="https://www.instagram.com/magyar_posta_zrt"/>
    <tag k="name" v="Posta csomagautomata"/>
    <tag k="opening_hours" v="24/7"/>
    <tag k="operator" v="Magyar Posta Zrt."/>
    <tag k="payment:cash" v="yes"/>
    <tag k="payment:debit_cards" v="yes"/>
    <tag k="phone" v="+3617678200"/>
    <tag k="ref:vatin:hu" v="10901232-2-44"/>
    <tag k="source" v="website"/>
    <tag k="source:date" v="2018-07-18"/>
    <tag k="vending" v="parcel_pickup"/>
    <tag k="website" v="https://www.posta.hu"/>
    <tag k="youtube" v="https://www.youtube.com/user/magyarpostaofficial"/>
  </node>
  <!-- Original coordinates: POINT (46.275361 20.165743) -->
  <!-- OSM <-> POI distance: None m-->
  <!-- Checker good: {not_in_water}; bad {}-->
  <!-- Original tags:  -->
  <node action="modify" changeset="99999" id="-34" lat="46.275361" lon="20.165743" timestamp="" uid="4579407" user="KAMI" version="99999">
    <tag k="addr:city" v="Szeged"/>
    <tag k="addr:country" v="HU"/>
    <tag k="addr:housenumber" v="1"/>
    <tag k="addr:postcode" v="6780"/>
    <tag k="addr:street" v="Olajbányász tér"/>
    <tag k="amenity" v="vending_machine"/>
    <tag k="branch" v="33 sz. automata - Szeged 8 posta"/>
    <tag k="brand" v="Magyar Posta"/>
    <tag k="brand:wikidata" v="Q145614"/>
    <tag k="brand:wikipedia" v="hu:Magyar Posta Zrt."/>
    <tag k="email" v="ugyfelszolgalat@posta.hu"/>
    <tag k="facebook" v="https://www.facebook.com/MagyarPosta"/>
    <tag k="import" v="osm_poi_matchmaker"/>
    <tag k="instagram" v="https://www.instagram.com/magyar_posta_zrt"/>
    <tag k="name" v="Posta csomagautomata"/>
    <tag k="opening_hours" v="24/7"/>
    <tag k="operator" v="Magyar Posta Zrt."/>
    <tag k="payment:cash" v="yes"/>
    <tag k="payment:debit_cards" v="yes"/>
    <tag k="phone" v="+3617678200"/>
    <tag k="ref:vatin:hu" v="10901232-2-44"/>
    <tag k="source" v="website"/>
    <tag k="source:date" v="2018-07-18"/>
    <tag k="vending" v="parcel_pickup"/>
    <tag k="website" v="https://www.posta.hu"/>
    <tag k="youtube" v="https://www.youtube.com/user/magyarpostaofficial"/>
  </node>
  <!-- Original coordinates: POINT (46.679494 21.098446) -->
  <!-- OSM <-> POI distance: None m-->
  <!-- Checker good: {not_in_water}; bad {}-->
  <!-- Original tags:  -->
  <node action="modify" changeset="99999" id="-35" lat="46.679494" lon="21.098446" timestamp="" uid="4579407" user="KAMI" version="99999">
    <tag k="addr:city" v="Békéscsaba"/>
    <tag k="addr:country" v="HU"/>
    <tag k="addr:housenumber" v="1-3. (cs.a"/>
    <tag k="addr:postcode" v="5620"/>
    <tag k="addr:street" v="Szabadság tér"/>
    <tag k="amenity" v="vending_machine"/>
    <tag k="branch" v="34 sz. automata - Önkormányzat"/>
    <tag k="brand" v="Magyar Posta"/>
    <tag k="brand:wikidata" v="Q145614"/>
    <tag k="brand:wikipedia" v="hu:Magyar Posta Zrt."/>
    <tag k="email" v="ugyfelszolgalat@posta.hu"/>
    <tag k="facebook" v="https://www.facebook.com/MagyarPosta"/>
    <tag k="import" v="osm_poi_matchmaker"/>
    <tag k="instagram" v="https://www.instagram.com/magyar_posta_zrt"/>
    <tag k="name" v="Posta csomagautomata"/>
    <tag k="opening_hours" v="24/7"/>
    <tag k="operator" v="Magyar Posta Zrt."/>
    <tag k="payment:cash" v="yes"/>
    <tag k="payment:debit_cards" v="yes"/>
    <tag k="phone" v="+3617678200"/>
    <tag k="ref:vatin:hu" v="10901232-2-44"/>
    <tag k="source" v="website"/>
    <tag k="source:date" v="2018-07-18"/>
    <tag k="vending" v="parcel_pickup"/>
    <tag k="website" v="https://www.posta.hu"/>
    <tag k="youtube" v="https://www.youtube.com/user/magyarpostaofficial"/>
  </node>
  <!-- Original coordinates: POINT (46.920831 19.691363) -->
  <!-- OSM <-> POI distance: None m-->
  <!-- Checker good: {not_in_water}; bad {}-->
  <!-- Original tags:  -->
  <node action="modify" changeset="99999" id="-36" lat="46.920831" lon="19.691363" timestamp="" uid="4579407" user="KAMI" version="99999">
    <tag k="addr:city" v="Kecskemét"/>
    <tag k="addr:country" v="HU"/>
    <tag k="addr:housenumber" v="1. (cs.a.)"/>
    <tag k="addr:postcode" v="6000"/>
    <tag k="addr:street" v="Talfája köz"/>
    <tag k="amenity" v="vending_machine"/>
    <tag k="branch" v="35 sz. automata - Talfája tanya Tesco"/>
    <tag k="brand" v="Magyar Posta"/>
    <tag k="brand:wikidata" v="Q145614"/>
    <tag k="brand:wikipedia" v="hu:Magyar Posta Zrt."/>
    <tag k="email" v="ugyfelszolgalat@posta.hu"/>
    <tag k="facebook" v="https://www.facebook.com/MagyarPosta"/>
    <tag k="import" v="osm_poi_matchmaker"/>
    <tag k="instagram" v="https://www.instagram.com/magyar_posta_zrt"/>
    <tag k="name" v="Posta csomagautomata"/>
    <tag k="opening_hours" v="24/7"/>
    <tag k="operator" v="Magyar Posta Zrt."/>
    <tag k="payment:cash" v="yes"/>
    <tag k="payment:debit_cards" v="yes"/>
    <tag k="phone" v="+3617678200"/>
    <tag k="ref:vatin:hu" v="10901232-2-44"/>
    <tag k="source" v="website"/>
    <tag k="source:date" v="2018-07-18"/>
    <tag k="vending" v="parcel_pickup"/>
    <tag k="website" v="https://www.posta.hu"/>
    <tag k="youtube" v="https://www.youtube.com/user/magyarpostaofficial"/>
  </node>
  <!-- Original coordinates: POINT (47.486183 19.074554) -->
  <!-- OSM <-> POI distance: None m-->
  <!-- Checker good: {not_in_water}; bad {}-->
  <!-- Original tags:  -->
  <node action="modify" changeset="99999" id="-37" lat="47.486183" lon="19.074554" timestamp="" uid="4579407" user="KAMI" version="99999">
    <tag k="addr:city" v="Budapest"/>
    <tag k="addr:country" v="HU"/>
    <tag k="addr:housenumber" v="37-45"/>
    <tag k="addr:postcode" v="1874"/>
    <tag k="addr:street" v="Futó utca"/>
    <tag k="amenity" v="vending_machine"/>
    <tag k="branch" v="36 sz. automata - Corvin Pláza"/>
    <tag k="brand" v="Magyar Posta"/>
    <tag k="brand:wikidata" v="Q145614"/>
    <tag k="brand:wikipedia" v="hu:Magyar Posta Zrt."/>
    <tag k="email" v="ugyfelszolgalat@posta.hu"/>
    <tag k="facebook" v="https://www.facebook.com/MagyarPosta"/>
    <tag k="import" v="osm_poi_matchmaker"/>
    <tag k="instagram" v="https://www.instagram.com/magyar_posta_zrt"/>
    <tag k="name" v="Posta csomagautomata"/>
    <tag k="opening_hours" v="24/7"/>
    <tag k="operator" v="Magyar Posta Zrt."/>
    <tag k="payment:cash" v="yes"/>
    <tag k="payment:debit_cards" v="yes"/>
    <tag k="phone" v="+3617678200"/>
    <tag k="ref:vatin:hu" v="10901232-2-44"/>
    <tag k="source" v="website"/>
    <tag k="source:date" v="2018-07-18"/>
    <tag k="vending" v="parcel_pickup"/>
    <tag k="website" v="https://www.posta.hu"/>
    <tag k="youtube" v="https://www.youtube.com/user/magyarpostaofficial"/>
  </node>
  <!-- Original coordinates: POINT (47.470556 19.084284) -->
  <!-- OSM <-> POI distance: None m-->
  <!-- Checker good: {not_in_water}; bad {}-->
  <!-- Original tags:  -->
  <node action="modify" changeset="99999" id="-38" lat="47.470556" lon="19.084284" timestamp="" uid="4579407" user="KAMI" version="99999">
    <tag k="addr:city" v="Budapest"/>
    <tag k="addr:country" v="HU"/>
    <tag k="addr:housenumber" v="12-14"/>
    <tag k="addr:postcode" v="1871"/>
    <tag k="addr:street" v="Könyves Kálmán körút"/>
    <tag k="amenity" v="vending_machine"/>
    <tag k="branch" v="37 sz. automata - Lurdy Bevásárlóközpont"/>
    <tag k="brand" v="Magyar Posta"/>
    <tag k="brand:wikidata" v="Q145614"/>
    <tag k="brand:wikipedia" v="hu:Magyar Posta Zrt."/>
    <tag k="email" v="ugyfelszolgalat@posta.hu"/>
    <tag k="facebook" v="https://www.facebook.com/MagyarPosta"/>
    <tag k="import" v="osm_poi_matchmaker"/>
    <tag k="instagram" v="https://www.instagram.com/magyar_posta_zrt"/>
    <tag k="name" v="Posta csomagautomata"/>
    <tag k="opening_hours" v="Mo-Su 06:00-23:00"/>
    <tag k="operator" v="Magyar Posta Zrt."/>
    <tag k="payment:cash" v="yes"/>
    <tag k="payment:debit_cards" v="yes"/>
    <tag k="phone" v="+3617678200"/>
    <tag k="ref:vatin:hu" v="10901232-2-44"/>
    <tag k="source" v="website"/>
    <tag k="source:date" v="2018-07-18"/>
    <tag k="vending" v="parcel_pickup"/>
    <tag k="website" v="https://www.posta.hu"/>
    <tag k="youtube" v="https://www.youtube.com/user/magyarpostaofficial"/>
  </node>
  <!-- Original coordinates: POINT (47.499384 19.084834) -->
  <!-- OSM <-> POI distance: None m-->
  <!-- Checker good: {not_in_water}; bad {}-->
  <!-- Original tags:  -->
  <node action="modify" changeset="99999" id="-39" lat="47.499384" lon="19.084834" timestamp="" uid="4579407" user="KAMI" version="99999">
    <tag k="addr:city" v="Budapest"/>
    <tag k="addr:country" v="HU"/>
    <tag k="addr:housenumber" v="9"/>
    <tag k="addr:postcode" v="1874"/>
    <tag k="addr:street" v="Kerepesi út"/>
    <tag k="amenity" v="vending_machine"/>
    <tag k="branch" v="38 sz. automata - Aréna Pláza"/>
    <tag k="brand" v="Magyar Posta"/>
    <tag k="brand:wikidata" v="Q145614"/>
    <tag k="brand:wikipedia" v="hu:Magyar Posta Zrt."/>
    <tag k="email" v="ugyfelszolgalat@posta.hu"/>
    <tag k="facebook" v="https://www.facebook.com/MagyarPosta"/>
    <tag k="import" v="osm_poi_matchmaker"/>
    <tag k="instagram" v="https://www.instagram.com/magyar_posta_zrt"/>
    <tag k="name" v="Posta csomagautomata"/>
    <tag k="opening_hours" v="Mo-Su 06:00-24:00"/>
    <tag k="operator" v="Magyar Posta Zrt."/>
    <tag k="payment:cash" v="yes"/>
    <tag k="payment:debit_cards" v="yes"/>
    <tag k="phone" v="+3617678200"/>
    <tag k="ref:vatin:hu" v="10901232-2-44"/>
    <tag k="source" v="website"/>
    <tag k="source:date" v="2018-07-18"/>
    <tag k="vending" v="parcel_pickup"/>
    <tag k="website" v="https://www.posta.hu"/>
    <tag k="youtube" v="https://www.youtube.com/user/magyarpostaofficial"/>
  </node>
  <!-- Original coordinates: POINT (47.47398 19.04913) -->
  <!-- OSM <-> POI distance: None m-->
  <!-- Checker good: {not_in_water}; bad {}-->
  <!-- Original tags:  -->
  <node action="modify" changeset="99999" id="-40" lat="47.47398" lon="19.04913" timestamp="" uid="4579407" user="KAMI" version="99999">
    <tag k="addr:city" v="Budapest"/>
    <tag k="addr:country" v="HU"/>
    <tag k="addr:housenumber" v="8-10"/>
    <tag k="addr:postcode" v="1871"/>
    <tag k="addr:street" v="Október huszonharmadika utca"/>
    <tag k="amenity" v="vending_machine"/>
    <tag k="branch" v="39 sz. automata - Allée Bevásárlóközpont"/>
    <tag k="brand" v="Magyar Posta"/>
    <tag k="brand:wikidata" v="Q145614"/>
    <tag k="brand:wikipedia" v="hu:Magyar Posta Zrt."/>
    <tag k="email" v="ugyfelszolgalat@posta.hu"/>
    <tag k="facebook" v="https://www.facebook.com/MagyarPosta"/>
    <tag k="import" v="osm_poi_matchmaker"/>
    <tag k="instagram" v="https://www.instagram.com/magyar_posta_zrt"/>
    <tag k="name" v="Posta csomagautomata"/>
    <tag k="opening_hours" v="24/7"/>
    <tag k="operator" v="Magyar Posta Zrt."/>
    <tag k="payment:cash" v="yes"/>
    <tag k="payment:debit_cards" v="yes"/>
    <tag k="phone" v="+3617678200"/>
    <tag k="ref:vatin:hu" v="10901232-2-44"/>
    <tag k="source" v="website"/>
    <tag k="source:date" v="2018-07-18"/>
    <tag k="vending" v="parcel_pickup"/>
    <tag k="website" v="https://www.posta.hu"/>
    <tag k="youtube" v="https://www.youtube.com/user/magyarpostaofficial"/>
  </node>
  <!-- Original coordinates: POINT (47.499972 19.024628) -->
  <!-- OSM <-> POI distance: None m-->
  <!-- Checker good: {not_in_water}; bad {}-->
  <!-- Original tags:  -->
  <node action="modify" changeset="99999" id="-41" lat="47.499972" lon="19.024628" timestamp="" uid="4579407" user="KAMI" version="99999">
    <tag k="addr:city" v="Budapest"/>
    <tag k="addr:country" v="HU"/>
    <tag k="addr:postcode" v="1870"/>
    <tag k="addr:street" v="Déli pu."/>
    <tag k="amenity" v="vending_machine"/>
    <tag k="branch" v="40 sz. automata - Déli pályaudvar"/>
    <tag k="brand" v="Magyar Posta"/>
    <tag k="brand:wikidata" v="Q145614"/>
    <tag k="brand:wikipedia" v="hu:Magyar Posta Zrt."/>
    <tag k="email" v="ugyfelszolgalat@posta.hu"/>
    <tag k="facebook" v="https://www.facebook.com/MagyarPosta"/>
    <tag k="import" v="osm_poi_matchmaker"/>
    <tag k="instagram" v="https://www.instagram.com/magyar_posta_zrt"/>
    <tag k="name" v="Posta csomagautomata"/>
    <tag k="opening_hours" v="24/7"/>
    <tag k="operator" v="Magyar Posta Zrt."/>
    <tag k="payment:cash" v="yes"/>
    <tag k="payment:debit_cards" v="yes"/>
    <tag k="phone" v="+3617678200"/>
    <tag k="ref:vatin:hu" v="10901232-2-44"/>
    <tag k="source" v="website"/>
    <tag k="source:date" v="2018-07-18"/>
    <tag k="vending" v="parcel_pickup"/>
    <tag k="website" v="https://www.posta.hu"/>
    <tag k="youtube" v="https://www.youtube.com/user/magyarpostaofficial"/>
  </node>
  <!-- Original coordinates: POINT (47.51084 19.055303) -->
  <!-- OSM <-> POI distance: None m-->
  <!-- Checker good: {not_in_water}; bad {}-->
  <!-- Original tags:  -->
  <node action="modify" changeset="99999" id="-42" lat="47.51084" lon="19.055303" timestamp="" uid="4579407" user="KAMI" version="99999">
    <tag k="addr:city" v="Budapest"/>
    <tag k="addr:country" v="HU"/>
    <tag k="addr:housenumber" v="1"/>
    <tag k="addr:postcode" v="1870"/>
    <tag k="addr:street" v="Nyugati tér"/>
    <tag k="amenity" v="vending_machine"/>
    <tag k="branch" v="41 sz. automata - Nyugati tér metró aluljáró"/>
    <tag k="brand" v="Magyar Posta"/>
    <tag k="brand:wikidata" v="Q145614"/>
    <tag k="brand:wikipedia" v="hu:Magyar Posta Zrt."/>
    <tag k="email" v="ugyfelszolgalat@posta.hu"/>
    <tag k="facebook" v="https://www.facebook.com/MagyarPosta"/>
    <tag k="import" v="osm_poi_matchmaker"/>
    <tag k="instagram" v="https://www.instagram.com/magyar_posta_zrt"/>
    <tag k="name" v="Posta csomagautomata"/>
    <tag k="opening_hours" v="24/7"/>
    <tag k="operator" v="Magyar Posta Zrt."/>
    <tag k="payment:cash" v="yes"/>
    <tag k="payment:debit_cards" v="yes"/>
    <tag k="phone" v="+3617678200"/>
    <tag k="ref:vatin:hu" v="10901232-2-44"/>
    <tag k="source" v="website"/>
    <tag k="source:date" v="2018-07-18"/>
    <tag k="vending" v="parcel_pickup"/>
    <tag k="website" v="https://www.posta.hu"/>
    <tag k="youtube" v="https://www.youtube.com/user/magyarpostaofficial"/>
  </node>
  <!-- Original coordinates: POINT (47.4657395 19.0226817) -->
  <!-- OSM <-> POI distance: None m-->
  <!-- Checker good: {not_in_water}; bad {}-->
  <!-- Original tags:  -->
  <node action="modify" changeset="99999" id="-43" lat="47.4657395" lon="19.0226817" timestamp="" uid="4579407" user="KAMI" version="99999">
    <tag k="addr:city" v="Budapest"/>
    <tag k="addr:country" v="HU"/>
    <tag k="addr:housenumber" v="6"/>
    <tag k="addr:postcode" v="1871"/>
    <tag k="addr:street" v="Etele tér"/>
    <tag k="amenity" v="vending_machine"/>
    <tag k="branch" v="42 sz. automata - Kelenföld pu. metró aluljáró"/>
    <tag k="brand" v="Magyar Posta"/>
    <tag k="brand:wikidata" v="Q145614"/>
    <tag k="brand:wikipedia" v="hu:Magyar Posta Zrt."/>
    <tag k="email" v="ugyfelszolgalat@posta.hu"/>
    <tag k="facebook" v="https://www.facebook.com/MagyarPosta"/>
    <tag k="import" v="osm_poi_matchmaker"/>
    <tag k="instagram" v="https://www.instagram.com/magyar_posta_zrt"/>
    <tag k="name" v="Posta csomagautomata"/>
    <tag k="opening_hours" v="24/7"/>
    <tag k="operator" v="Magyar Posta Zrt."/>
    <tag k="payment:cash" v="yes"/>
    <tag k="payment:debit_cards" v="yes"/>
    <tag k="phone" v="+3617678200"/>
    <tag k="ref:vatin:hu" v="10901232-2-44"/>
    <tag k="source" v="website"/>
    <tag k="source:date" v="2018-07-18"/>
    <tag k="vending" v="parcel_pickup"/>
    <tag k="website" v="https://www.posta.hu"/>
    <tag k="youtube" v="https://www.youtube.com/user/magyarpostaofficial"/>
  </node>
  <!-- Original coordinates: POINT (47.532436 19.066466) -->
  <!-- OSM <-> POI distance: None m-->
  <!-- Checker good: {not_in_water}; bad {}-->
  <!-- Original tags:  -->
  <node action="modify" changeset="99999" id="-44" lat="47.532436" lon="19.066466" timestamp="" uid="4579407" user="KAMI" version="99999">
    <tag k="addr:city" v="Budapest"/>
    <tag k="addr:country" v="HU"/>
    <tag k="addr:postcode" v="1870"/>
    <tag k="addr:street" v="Árpád híd metró aluljáró"/>
    <tag k="amenity" v="vending_machine"/>
    <tag k="branch" v="43 sz. automata - Árpád híd metró aluljáró"/>
    <tag k="brand" v="Magyar Posta"/>
    <tag k="brand:wikidata" v="Q145614"/>
    <tag k="brand:wikipedia" v="hu:Magyar Posta Zrt."/>
    <tag k="email" v="ugyfelszolgalat@posta.hu"/>
    <tag k="facebook" v="https://www.facebook.com/MagyarPosta"/>
    <tag k="import" v="osm_poi_matchmaker"/>
    <tag k="instagram" v="https://www.instagram.com/magyar_posta_zrt"/>
    <tag k="name" v="Posta csomagautomata"/>
    <tag k="opening_hours" v="24/7"/>
    <tag k="operator" v="Magyar Posta Zrt."/>
    <tag k="payment:cash" v="yes"/>
    <tag k="payment:debit_cards" v="yes"/>
    <tag k="phone" v="+3617678200"/>
    <tag k="ref:vatin:hu" v="10901232-2-44"/>
    <tag k="source" v="website"/>
    <tag k="source:date" v="2018-07-18"/>
    <tag k="vending" v="parcel_pickup"/>
    <tag k="website" v="https://www.posta.hu"/>
    <tag k="youtube" v="https://www.youtube.com/user/magyarpostaofficial"/>
  </node>
  <!-- Original coordinates: POINT (47.454674 18.94391) -->
  <!-- OSM <-> POI distance: None m-->
  <!-- Checker good: {not_in_water}; bad {}-->
  <!-- Original tags:  -->
  <node action="modify" changeset="99999" id="-45" lat="47.454674" lon="18.94391" timestamp="" uid="4579407" user="KAMI" version="99999">
    <tag k="addr:city" v="Budaörs"/>
    <tag k="addr:country" v="HU"/>
    <tag k="addr:housenumber" v="2-4"/>
    <tag k="addr:postcode" v="1838"/>
    <tag k="addr:street" v="Sport utca"/>
    <tag k="amenity" v="vending_machine"/>
    <tag k="branch" v="44 sz. automata - Auchan"/>
    <tag k="brand" v="Magyar Posta"/>
    <tag k="brand:wikidata" v="Q145614"/>
    <tag k="brand:wikipedia" v="hu:Magyar Posta Zrt."/>
    <tag k="email" v="ugyfelszolgalat@posta.hu"/>
    <tag k="facebook" v="https://www.facebook.com/MagyarPosta"/>
    <tag k="import" v="osm_poi_matchmaker"/>
    <tag k="instagram" v="https://www.instagram.com/magyar_posta_zrt"/>
    <tag k="name" v="Posta csomagautomata"/>
    <tag k="opening_hours" v="24/7"/>
    <tag k="operator" v="Magyar Posta Zrt."/>
    <tag k="payment:cash" v="yes"/>
    <tag k="payment:debit_cards" v="yes"/>
    <tag k="phone" v="+3617678200"/>
    <tag k="ref:vatin:hu" v="10901232-2-44"/>
    <tag k="source" v="website"/>
    <tag k="source:date" v="2018-07-18"/>
    <tag k="vending" v="parcel_pickup"/>
    <tag k="website" v="https://www.posta.hu"/>
    <tag k="youtube" v="https://www.youtube.com/user/magyarpostaofficial"/>
  </node>
  <!-- Original coordinates: POINT (47.655201 19.130842) -->
  <!-- OSM <-> POI distance: None m-->
  <!-- Checker good: {not_in_water}; bad {}-->
  <!-- Original tags:  -->
  <node action="modify" changeset="99999" id="-46" lat="47.655201" lon="19.130842" timestamp="" uid="4579407" user="KAMI" version="99999">
    <tag k="addr:city" v="Dunakeszi"/>
    <tag k="addr:country" v="HU"/>
    <tag k="addr:housenumber" v="190"/>
    <tag k="addr:postcode" v="2121"/>
    <tag k="addr:street" v="Fő út"/>
    <tag k="amenity" v="vending_machine"/>
    <tag k="branch" v="45 sz. automata - Tesco"/>
    <tag k="brand" v="Magyar Posta"/>
    <tag k="brand:wikidata" v="Q145614"/>
    <tag k="brand:wikipedia" v="hu:Magyar Posta Zrt."/>
    <tag k="email" v="ugyfelszolgalat@posta.hu"/>
    <tag k="facebook" v="https://www.facebook.com/MagyarPosta"/>
    <tag k="import" v="osm_poi_matchmaker"/>
    <tag k="instagram" v="https://www.instagram.com/magyar_posta_zrt"/>
    <tag k="name" v="Posta csomagautomata"/>
    <tag k="opening_hours" v="24/7"/>
    <tag k="operator" v="Magyar Posta Zrt."/>
    <tag k="payment:cash" v="yes"/>
    <tag k="payment:debit_cards" v="yes"/>
    <tag k="phone" v="+3617678200"/>
    <tag k="ref:vatin:hu" v="10901232-2-44"/>
    <tag k="source" v="website"/>
    <tag k="source:date" v="2018-07-18"/>
    <tag k="vending" v="parcel_pickup"/>
    <tag k="website" v="https://www.posta.hu"/>
    <tag k="youtube" v="https://www.youtube.com/user/magyarpostaofficial"/>
  </node>
  <!-- Original coordinates: POINT (46.961144 18.920093) -->
  <!-- OSM <-> POI distance: None m-->
  <!-- Checker good: {not_in_water}; bad {}-->
  <!-- Original tags:  -->
  <node action="modify" changeset="99999" id="-47" lat="46.961144" lon="18.920093" timestamp="" uid="4579407" user="KAMI" version="99999">
    <tag k="addr:city" v="Dunaújváros"/>
    <tag k="addr:country" v="HU"/>
    <tag k="addr:housenumber" v="3"/>
    <tag k="addr:postcode" v="2401"/>
    <tag k="addr:street" v="Béke körút"/>
    <tag k="amenity" v="vending_machine"/>
    <tag k="branch" v="46 sz. automata - Interspar"/>
    <tag k="brand" v="Magyar Posta"/>
    <tag k="brand:wikidata" v="Q145614"/>
    <tag k="brand:wikipedia" v="hu:Magyar Posta Zrt."/>
    <tag k="email" v="ugyfelszolgalat@posta.hu"/>
    <tag k="facebook" v="https://www.facebook.com/MagyarPosta"/>
    <tag k="import" v="osm_poi_matchmaker"/>
    <tag k="instagram" v="https://www.instagram.com/magyar_posta_zrt"/>
    <tag k="name" v="Posta csomagautomata"/>
    <tag k="opening_hours" v="24/7"/>
    <tag k="operator" v="Magyar Posta Zrt."/>
    <tag k="payment:cash" v="yes"/>
    <tag k="payment:debit_cards" v="yes"/>
    <tag k="phone" v="+3617678200"/>
    <tag k="ref:vatin:hu" v="10901232-2-44"/>
    <tag k="source" v="website"/>
    <tag k="source:date" v="2018-07-18"/>
    <tag k="vending" v="parcel_pickup"/>
    <tag k="website" v="https://www.posta.hu"/>
    <tag k="youtube" v="https://www.youtube.com/user/magyarpostaofficial"/>
  </node>
  <!-- Original coordinates: POINT (46.190944 18.940346) -->
  <!-- OSM <-> POI distance: None m-->
  <!-- Checker good: {not_in_water}; bad {}-->
  <!-- Original tags:  -->
  <node action="modify" changeset="99999" id="-48" lat="46.190944" lon="18.940346" timestamp="" uid="4579407" user="KAMI" version="99999">
    <tag k="addr:city" v="Baja"/>
    <tag k="addr:country" v="HU"/>
    <tag k="addr:housenumber" v="11"/>
    <tag k="addr:postcode" v="6501"/>
    <tag k="addr:street" v="Gránátos utca"/>
    <tag k="amenity" v="vending_machine"/>
    <tag k="branch" v="47 sz. automata - Tesco"/>
    <tag k="brand" v="Magyar Posta"/>
    <tag k="brand:wikidata" v="Q145614"/>
    <tag k="brand:wikipedia" v="hu:Magyar Posta Zrt."/>
    <tag k="email" v="ugyfelszolgalat@posta.hu"/>
    <tag k="facebook" v="https://www.facebook.com/MagyarPosta"/>
    <tag k="import" v="osm_poi_matchmaker"/>
    <tag k="instagram" v="https://www.instagram.com/magyar_posta_zrt"/>
    <tag k="name" v="Posta csomagautomata"/>
    <tag k="opening_hours" v="24/7"/>
    <tag k="operator" v="Magyar Posta Zrt."/>
    <tag k="payment:cash" v="yes"/>
    <tag k="payment:debit_cards" v="yes"/>
    <tag k="phone" v="+3617678200"/>
    <tag k="ref:vatin:hu" v="10901232-2-44"/>
    <tag k="source" v="website"/>
    <tag k="source:date" v="2018-07-18"/>
    <tag k="vending" v="parcel_pickup"/>
    <tag k="website" v="https://www.posta.hu"/>
    <tag k="youtube" v="https://www.youtube.com/user/magyarpostaofficial"/>
  </node>
  <!-- Original coordinates: POINT (47.669108 17.646586) -->
  <!-- OSM <-> POI distance: None m-->
  <!-- Checker good: {not_in_water}; bad {}-->
  <!-- Original tags:  -->
  <node action="modify" changeset="99999" id="-49" lat="47.669108" lon="17.646586" timestamp="" uid="4579407" user="KAMI" version="99999">
    <tag k="addr:city" v="Győr"/>
    <tag k="addr:country" v="HU"/>
    <tag k="addr:housenumber" v="1/a"/>
    <tag k="addr:postcode" v="9041"/>
    <tag k="addr:street" v="Vasvári Pál utca"/>
    <tag k="amenity" v="vending_machine"/>
    <tag k="branch" v="48 sz. automata - Győr Pláza"/>
    <tag k="brand" v="Magyar Posta"/>
    <tag k="brand:wikidata" v="Q145614"/>
    <tag k="brand:wikipedia" v="hu:Magyar Posta Zrt."/>
    <tag k="email" v="ugyfelszolgalat@posta.hu"/>
    <tag k="facebook" v="https://www.facebook.com/MagyarPosta"/>
    <tag k="import" v="osm_poi_matchmaker"/>
    <tag k="instagram" v="https://www.instagram.com/magyar_posta_zrt"/>
    <tag k="name" v="Posta csomagautomata"/>
    <tag k="opening_hours" v="24/7"/>
    <tag k="operator" v="Magyar Posta Zrt."/>
    <tag k="payment:cash" v="yes"/>
    <tag k="payment:debit_cards" v="yes"/>
    <tag k="phone" v="+3617678200"/>
    <tag k="ref:vatin:hu" v="10901232-2-44"/>
    <tag k="source" v="website"/>
    <tag k="source:date" v="2018-07-18"/>
    <tag k="vending" v="parcel_pickup"/>
    <tag k="website" v="https://www.posta.hu"/>
    <tag k="youtube" v="https://www.youtube.com/user/magyarpostaofficial"/>
  </node>
  <!-- Original coordinates: POINT (47.66209 19.07584) -->
  <!-- OSM <-> POI distance: None m-->
  <!-- Checker good: {not_in_water}; bad {}-->
  <!-- Original tags:  -->
  <node action="modify" changeset="99999" id="-50" lat="47.66209" lon="19.07584" timestamp="" uid="4579407" user="KAMI" version="99999">
    <tag k="addr:city" v="Szentendre"/>
    <tag k="addr:country" v="HU"/>
    <tag k="addr:housenumber" v="2"/>
    <tag k="addr:postcode" v="2001"/>
    <tag k="addr:street" v="Dunakanyar körút"/>
    <tag k="amenity" v="vending_machine"/>
    <tag k="branch" v="49 sz. automata - Spar"/>
    <tag k="brand" v="Magyar Posta"/>
    <tag k="brand:wikidata" v="Q145614"/>
    <tag k="brand:wikipedia" v="hu:Magyar Posta Zrt."/>
    <tag k="email" v="ugyfelszolgalat@posta.hu"/>
    <tag k="facebook" v="https://www.facebook.com/MagyarPosta"/>
    <tag k="import" v="osm_poi_matchmaker"/>
    <tag k="instagram" v="https://www.instagram.com/magyar_posta_zrt"/>
    <tag k="name" v="Posta csomagautomata"/>
    <tag k="opening_hours" v="24/7"/>
    <tag k="operator" v="Magyar Posta Zrt."/>
    <tag k="payment:cash" v="yes"/>
    <tag k="payment:debit_cards" v="yes"/>
    <tag k="phone" v="+3617678200"/>
    <tag k="ref:vatin:hu" v="10901232-2-44"/>
    <tag k="source" v="website"/>
    <tag k="source:date" v="2018-07-18"/>
    <tag k="vending" v="parcel_pickup"/>
    <tag k="website" v="https://www.posta.hu"/>
    <tag k="youtube" v="https://www.youtube.com/user/magyarpostaofficial"/>
  </node>
  <!-- Original coordinates: POINT (47.873842 17.267643) -->
  <!-- OSM <-> POI distance: None m-->
  <!-- Checker good: {not_in_water}; bad {}-->
  <!-- Original tags:  -->
  <node action="modify" changeset="99999" id="-51" lat="47.873842" lon="17.267643" timestamp="" uid="4579407" user="KAMI" version="99999">
    <tag k="addr:city" v="Mosonmagyaróvár"/>
    <tag k="addr:country" v="HU"/>
    <tag k="addr:housenumber" v="42"/>
    <tag k="addr:postcode" v="9201"/>
    <tag k="addr:street" v="Királyhidai utca"/>
    <tag k="amenity" v="vending_machine"/>
    <tag k="branch" v="50 sz. automata - Tesco"/>
    <tag k="brand" v="Magyar Posta"/>
    <tag k="brand:wikidata" v="Q145614"/>
    <tag k="brand:wikipedia" v="hu:Magyar Posta Zrt."/>
    <tag k="email" v="ugyfelszolgalat@posta.hu"/>
    <tag k="facebook" v="https://www.facebook.com/MagyarPosta"/>
    <tag k="import" v="osm_poi_matchmaker"/>
    <tag k="instagram" v="https://www.instagram.com/magyar_posta_zrt"/>
    <tag k="name" v="Posta csomagautomata"/>
    <tag k="opening_hours" v="24/7"/>
    <tag k="operator" v="Magyar Posta Zrt."/>
    <tag k="payment:cash" v="yes"/>
    <tag k="payment:debit_cards" v="yes"/>
    <tag k="phone" v="+3617678200"/>
    <tag k="ref:vatin:hu" v="10901232-2-44"/>
    <tag k="source" v="website"/>
    <tag k="source:date" v="2018-07-18"/>
    <tag k="vending" v="parcel_pickup"/>
    <tag k="website" v="https://www.posta.hu"/>
    <tag k="youtube" v="https://www.youtube.com/user/magyarpostaofficial"/>
  </node>
</osm>
