<?xml version='1.0' encoding='UTF-8'?>
<osm generator="JOSM" version="0.6">
  <!-- OSM link: https://osm.org/node/416823004 -->
  <!-- Original coordinates: POINT (47.495307 19.070888) -->
  <!-- Original tags: {'amenity': 'bank'} -->
  <node action="modify" changeset="1" id="416823004" lat="47.495307" lon="19.070888" timestamp="2009-06-07T13:13:59Z" uid="4579407" user="KAMI" version="2">
    <tag k="addr:city" v="Budapest"/>
    <tag k="addr:housenumber" v="10-12"/>
    <tag k="addr:postcode" v="1085"/>
    <tag k="addr:street" v="József körút"/>
    <tag k="amenity" v="bank"/>
    <tag k="atm" v="yes"/>
    <tag k="bic" v="OKHBHUHB"/>
    <tag k="brand" v="K&amp;H"/>
    <tag k="import" v="osm_poi_matchmaker"/>
    <tag k="name" v="K&amp;H bank"/>
    <tag k="operator" v="K&amp;H Bank Zrt."/>
    <tag k="source" v="website"/>
    <tag k="source:date" v="2018-07-12"/>
    <tag k="website" v="https://www.kh.hu"/>
  </node>
  <!-- OSM link: https://osm.org/node/3023803833 -->
  <!-- Original coordinates: POINT (47.499627 19.079696) -->
  <!-- Original tags: {'amenity': 'bank', 'wheelchair': 'yes', 'addr:street': 'Baross tér', 'website': 'https://www.kh.hu', 'atm': 'yes', 'addr:city': 'Budapest', 'brand': 'K&H Bank', 'name': 'K&H Bank'} -->
  <node action="modify" changeset="1" id="3023803833" lat="47.499627" lon="19.079696" timestamp="2015-08-12T13:51:12Z" uid="4579407" user="KAMI" version="4">
    <tag k="addr:city" v="Budapest"/>
    <tag k="addr:housenumber" v="2"/>
    <tag k="addr:postcode" v="1076"/>
    <tag k="addr:street" v="Baross tér"/>
    <tag k="amenity" v="bank"/>
    <tag k="atm" v="yes"/>
    <tag k="bic" v="OKHBHUHB"/>
    <tag k="brand" v="K&amp;H"/>
    <tag k="import" v="osm_poi_matchmaker"/>
    <tag k="name" v="K&amp;H bank"/>
    <tag k="operator" v="K&amp;H Bank Zrt."/>
    <tag k="source" v="website"/>
    <tag k="source:date" v="2018-07-12"/>
    <tag k="website" v="https://www.kh.hu"/>
    <tag k="wheelchair" v="yes"/>
  </node>
  <!-- Original coordinates: POINT (47.480921 19.067144) -->
  <!-- Original tags: None -->
  <node action="modify" changeset="99999" id="-3" lat="47.480921" lon="19.067144" timestamp="" uid="4579407" user="KAMI" version="99999">
    <tag k="addr:city" v="Budapest"/>
    <tag k="addr:housenumber" v="1"/>
    <tag k="addr:postcode" v="1093"/>
    <tag k="addr:street" v="Ferenc körút"/>
    <tag k="amenity" v="bank"/>
    <tag k="atm" v="yes"/>
    <tag k="bic" v="OKHBHUHB"/>
    <tag k="brand" v="K&amp;H"/>
    <tag k="import" v="osm_poi_matchmaker"/>
    <tag k="name" v="K&amp;H bank"/>
    <tag k="operator" v="K&amp;H Bank Zrt."/>
    <tag k="source" v="website"/>
    <tag k="source:date" v="2018-07-12"/>
    <tag k="website" v="https://www.kh.hu"/>
  </node>
  <!-- OSM link: https://osm.org/node/3783203069 -->
  <!-- Original coordinates: POINT (47.471721 19.072311) -->
  <!-- Original tags: {'amenity': 'bank', 'wheelchair': 'yes', 'name': 'K&H'} -->
  <node action="modify" changeset="1" id="3783203069" lat="47.471721" lon="19.072311" timestamp="2017-12-04T11:52:21Z" uid="4579407" user="KAMI" version="2">
    <tag k="addr:city" v="Budapest"/>
    <tag k="addr:housenumber" v="9"/>
    <tag k="addr:postcode" v="1095"/>
    <tag k="addr:street" v="Lechner Ödön fasor"/>
    <tag k="amenity" v="bank"/>
    <tag k="atm" v="yes"/>
    <tag k="bic" v="OKHBHUHB"/>
    <tag k="brand" v="K&amp;H"/>
    <tag k="import" v="osm_poi_matchmaker"/>
    <tag k="name" v="K&amp;H bank"/>
    <tag k="operator" v="K&amp;H Bank Zrt."/>
    <tag k="source" v="website"/>
    <tag k="source:date" v="2018-07-12"/>
    <tag k="website" v="https://www.kh.hu"/>
    <tag k="wheelchair" v="yes"/>
  </node>
  <!-- Original coordinates: POINT (47.483477 19.129208) -->
  <!-- Original tags: None -->
  <node action="modify" changeset="99999" id="-5" lat="47.483477" lon="19.129208" timestamp="" uid="4579407" user="KAMI" version="99999">
    <tag k="addr:city" v="Budapest"/>
    <tag k="addr:housenumber" v="3"/>
    <tag k="addr:postcode" v="1102"/>
    <tag k="addr:street" v="Liget tér"/>
    <tag k="amenity" v="bank"/>
    <tag k="atm" v="yes"/>
    <tag k="bic" v="OKHBHUHB"/>
    <tag k="brand" v="K&amp;H"/>
    <tag k="import" v="osm_poi_matchmaker"/>
    <tag k="name" v="K&amp;H bank"/>
    <tag k="operator" v="K&amp;H Bank Zrt."/>
    <tag k="source" v="website"/>
    <tag k="source:date" v="2018-07-12"/>
    <tag k="website" v="https://www.kh.hu"/>
  </node>
  <!-- OSM link: https://osm.org/node/3708650836 -->
  <!-- Original coordinates: POINT (47.476511 19.047589) -->
  <!-- Original tags: {'atm': 'yes', 'opening_hours': 'Mo 08:00-17:00, Tu-Th 08:00-16:00, Fr 08:00-15:00', 'amenity': 'bank', 'brand': 'K&H', 'name': 'K&H Bank'} -->
  <node action="modify" changeset="1" id="3708650836" lat="47.476511" lon="19.047589" timestamp="2017-10-08T19:40:28Z" uid="4579407" user="KAMI" version="2">
    <tag k="addr:city" v="Budapest"/>
    <tag k="addr:housenumber" v="14"/>
    <tag k="addr:postcode" v="1117"/>
    <tag k="addr:street" v="Móricz Zsigmond körtér"/>
    <tag k="amenity" v="bank"/>
    <tag k="atm" v="yes"/>
    <tag k="bic" v="OKHBHUHB"/>
    <tag k="brand" v="K&amp;H"/>
    <tag k="import" v="osm_poi_matchmaker"/>
    <tag k="name" v="K&amp;H bank"/>
    <tag k="opening_hours" v="Mo 08:00-17:00, Tu-Th 08:00-16:00, Fr 08:00-15:00"/>
    <tag k="operator" v="K&amp;H Bank Zrt."/>
    <tag k="source" v="website"/>
    <tag k="source:date" v="2018-07-12"/>
    <tag k="website" v="https://www.kh.hu"/>
  </node>
  <!-- Original coordinates: POINT (47.465544 19.005693) -->
  <!-- Original tags: None -->
  <node action="modify" changeset="99999" id="-7" lat="47.465544" lon="19.005693" timestamp="" uid="4579407" user="KAMI" version="99999">
    <tag k="addr:city" v="Budapest"/>
    <tag k="addr:housenumber" v="5"/>
    <tag k="addr:postcode" v="1118"/>
    <tag k="addr:street" v="Rétköz utca"/>
    <tag k="amenity" v="bank"/>
    <tag k="atm" v="yes"/>
    <tag k="bic" v="OKHBHUHB"/>
    <tag k="brand" v="K&amp;H"/>
    <tag k="import" v="osm_poi_matchmaker"/>
    <tag k="name" v="K&amp;H bank"/>
    <tag k="operator" v="K&amp;H Bank Zrt."/>
    <tag k="source" v="website"/>
    <tag k="source:date" v="2018-07-12"/>
    <tag k="website" v="https://www.kh.hu"/>
  </node>
  <!-- OSM link: https://osm.org/node/1547526272 -->
  <!-- Original coordinates: POINT (47.465536 19.04337) -->
  <!-- Original tags: {'atm': 'yes', 'amenity': 'bank', 'name': 'K&H'} -->
  <node action="modify" changeset="1" id="1547526272" lat="47.465536" lon="19.04337" timestamp="2011-12-15T16:56:56Z" uid="4579407" user="KAMI" version="1">
    <tag k="addr:city" v="Budapest"/>
    <tag k="addr:housenumber" v="79"/>
    <tag k="addr:postcode" v="1117"/>
    <tag k="addr:street" v="Fehérvári út"/>
    <tag k="amenity" v="bank"/>
    <tag k="atm" v="yes"/>
    <tag k="bic" v="OKHBHUHB"/>
    <tag k="brand" v="K&amp;H"/>
    <tag k="import" v="osm_poi_matchmaker"/>
    <tag k="name" v="K&amp;H bank"/>
    <tag k="operator" v="K&amp;H Bank Zrt."/>
    <tag k="source" v="website"/>
    <tag k="source:date" v="2018-07-12"/>
    <tag k="website" v="https://www.kh.hu"/>
  </node>
  <!-- Original coordinates: POINT (47.463637 19.034035) -->
  <!-- Original tags: None -->
  <node action="modify" changeset="99999" id="-9" lat="47.463637" lon="19.034035" timestamp="" uid="4579407" user="KAMI" version="99999">
    <tag k="addr:city" v="Budapest"/>
    <tag k="addr:housenumber" v="63"/>
    <tag k="addr:postcode" v="1119"/>
    <tag k="addr:street" v="Tétényi út"/>
    <tag k="amenity" v="bank"/>
    <tag k="atm" v="yes"/>
    <tag k="bic" v="OKHBHUHB"/>
    <tag k="brand" v="K&amp;H"/>
    <tag k="import" v="osm_poi_matchmaker"/>
    <tag k="name" v="K&amp;H bank"/>
    <tag k="operator" v="K&amp;H Bank Zrt."/>
    <tag k="source" v="website"/>
    <tag k="source:date" v="2018-07-12"/>
    <tag k="website" v="https://www.kh.hu"/>
  </node>
  <!-- Original coordinates: POINT (47.501744 19.023818) -->
  <!-- Original tags: None -->
  <node action="modify" changeset="99999" id="-10" lat="47.501744" lon="19.023818" timestamp="" uid="4579407" user="KAMI" version="99999">
    <tag k="addr:city" v="Budapest"/>
    <tag k="addr:housenumber" v="1"/>
    <tag k="addr:postcode" v="1122"/>
    <tag k="addr:street" v="Magyar Jakobinusok tere"/>
    <tag k="amenity" v="bank"/>
    <tag k="atm" v="yes"/>
    <tag k="bic" v="OKHBHUHB"/>
    <tag k="brand" v="K&amp;H"/>
    <tag k="import" v="osm_poi_matchmaker"/>
    <tag k="name" v="K&amp;H bank"/>
    <tag k="operator" v="K&amp;H Bank Zrt."/>
    <tag k="source" v="website"/>
    <tag k="source:date" v="2018-07-12"/>
    <tag k="website" v="https://www.kh.hu"/>
  </node>
  <!-- Original coordinates: POINT (47.490147 19.021028) -->
  <!-- Original tags: None -->
  <node action="modify" changeset="99999" id="-11" lat="47.490147" lon="19.021028" timestamp="" uid="4579407" user="KAMI" version="99999">
    <tag k="addr:city" v="Budapest"/>
    <tag k="addr:housenumber" v="43"/>
    <tag k="addr:postcode" v="1124"/>
    <tag k="addr:street" v="Csörsz utca"/>
    <tag k="amenity" v="bank"/>
    <tag k="atm" v="yes"/>
    <tag k="bic" v="OKHBHUHB"/>
    <tag k="brand" v="K&amp;H"/>
    <tag k="import" v="osm_poi_matchmaker"/>
    <tag k="name" v="K&amp;H bank"/>
    <tag k="operator" v="K&amp;H Bank Zrt."/>
    <tag k="source" v="website"/>
    <tag k="source:date" v="2018-07-12"/>
    <tag k="website" v="https://www.kh.hu"/>
  </node>
  <!-- OSM link: https://osm.org/node/1710684420 -->
  <!-- Original coordinates: POINT (47.524771 19.063475) -->
  <!-- Original tags: {'website': 'http://erstebank.hu/', 'brand': 'Erste Bank', 'amenity': 'bank', 'operator': 'Erste Bank Hungary Zrt.', 'name': 'Erste Bank'} -->
  <node action="modify" changeset="1" id="1710684420" lat="47.524771" lon="19.063475" timestamp="2015-03-15T10:14:46Z" uid="4579407" user="KAMI" version="2">
    <tag k="addr:city" v="Budapest"/>
    <tag k="addr:housenumber" v="76"/>
    <tag k="addr:postcode" v="1134"/>
    <tag k="addr:street" v="Váci út"/>
    <tag k="amenity" v="bank"/>
    <tag k="atm" v="yes"/>
    <tag k="bic" v="OKHBHUHB"/>
    <tag k="brand" v="K&amp;H"/>
    <tag k="import" v="osm_poi_matchmaker"/>
    <tag k="name" v="K&amp;H bank"/>
    <tag k="operator" v="K&amp;H Bank Zrt."/>
    <tag k="source" v="website"/>
    <tag k="source:date" v="2018-07-12"/>
    <tag k="website" v="https://www.kh.hu"/>
  </node>
  <!-- OSM link: https://osm.org/node/3197238905 -->
  <!-- Original coordinates: POINT (47.532097 19.081243) -->
  <!-- Original tags: {'atm': 'yes', 'wheelchair': 'yes', 'amenity': 'bank', 'brand': 'K&H Bank', 'name': 'K&H'} -->
  <node action="modify" changeset="1" id="3197238905" lat="47.532097" lon="19.081243" timestamp="2015-11-30T18:10:25Z" uid="4579407" user="KAMI" version="4">
    <tag k="addr:city" v="Budapest"/>
    <tag k="addr:housenumber" v="9"/>
    <tag k="addr:postcode" v="1135"/>
    <tag k="addr:street" v="Béke utca"/>
    <tag k="amenity" v="bank"/>
    <tag k="atm" v="yes"/>
    <tag k="bic" v="OKHBHUHB"/>
    <tag k="brand" v="K&amp;H"/>
    <tag k="import" v="osm_poi_matchmaker"/>
    <tag k="name" v="K&amp;H bank"/>
    <tag k="operator" v="K&amp;H Bank Zrt."/>
    <tag k="source" v="website"/>
    <tag k="source:date" v="2018-07-12"/>
    <tag k="website" v="https://www.kh.hu"/>
    <tag k="wheelchair" v="yes"/>
  </node>
  <!-- Original coordinates: POINT (47.549296 19.073519) -->
  <!-- Original tags: None -->
  <node action="modify" changeset="99999" id="-14" lat="47.549296" lon="19.073519" timestamp="" uid="4579407" user="KAMI" version="99999">
    <tag k="addr:city" v="Budapest"/>
    <tag k="addr:housenumber" v="178"/>
    <tag k="addr:postcode" v="1138"/>
    <tag k="addr:street" v="Váci út"/>
    <tag k="amenity" v="bank"/>
    <tag k="atm" v="yes"/>
    <tag k="bic" v="OKHBHUHB"/>
    <tag k="brand" v="K&amp;H"/>
    <tag k="import" v="osm_poi_matchmaker"/>
    <tag k="name" v="K&amp;H bank"/>
    <tag k="operator" v="K&amp;H Bank Zrt."/>
    <tag k="source" v="website"/>
    <tag k="source:date" v="2018-07-12"/>
    <tag k="website" v="https://www.kh.hu"/>
  </node>
  <!-- OSM link: https://osm.org/node/1715201520 -->
  <!-- Original coordinates: POINT (47.51714 19.107644) -->
  <!-- Original tags: {'atm': 'yes', 'wheelchair': 'yes', 'amenity': 'bank', 'brand': 'K&H', 'name': 'K&H'} -->
  <node action="modify" changeset="1" id="1715201520" lat="47.51714" lon="19.107644" timestamp="2015-11-26T19:50:09Z" uid="4579407" user="KAMI" version="4">
    <tag k="addr:city" v="Budapest"/>
    <tag k="addr:housenumber" v="147"/>
    <tag k="addr:postcode" v="1145"/>
    <tag k="addr:street" v="Róna utca"/>
    <tag k="amenity" v="bank"/>
    <tag k="atm" v="yes"/>
    <tag k="bic" v="OKHBHUHB"/>
    <tag k="brand" v="K&amp;H"/>
    <tag k="import" v="osm_poi_matchmaker"/>
    <tag k="name" v="K&amp;H bank"/>
    <tag k="operator" v="K&amp;H Bank Zrt."/>
    <tag k="source" v="website"/>
    <tag k="source:date" v="2018-07-12"/>
    <tag k="website" v="https://www.kh.hu"/>
    <tag k="wheelchair" v="yes"/>
  </node>
  <!-- OSM link: https://osm.org/node/654036376 -->
  <!-- Original coordinates: POINT (47.514384 19.096032) -->
  <!-- Original tags: {'atm': 'yes', 'wheelchair': 'yes', 'amenity': 'bank', 'operator': 'K&H Bank', 'name': 'K&H Bank Ajtósi Dürer sor'} -->
  <node action="modify" changeset="1" id="654036376" lat="47.514384" lon="19.096032" timestamp="2016-10-06T05:12:08Z" uid="4579407" user="KAMI" version="2">
    <tag k="addr:city" v="Budapest"/>
    <tag k="addr:housenumber" v="10"/>
    <tag k="addr:postcode" v="1146"/>
    <tag k="addr:street" v="Ajtósi Dürer sor"/>
    <tag k="amenity" v="bank"/>
    <tag k="atm" v="yes"/>
    <tag k="bic" v="OKHBHUHB"/>
    <tag k="brand" v="K&amp;H"/>
    <tag k="import" v="osm_poi_matchmaker"/>
    <tag k="name" v="K&amp;H bank"/>
    <tag k="operator" v="K&amp;H Bank Zrt."/>
    <tag k="source" v="website"/>
    <tag k="source:date" v="2018-07-12"/>
    <tag k="website" v="https://www.kh.hu"/>
    <tag k="wheelchair" v="yes"/>
  </node>
  <!-- Original coordinates: POINT (47.504081 19.135939) -->
  <!-- Original tags: None -->
  <node action="modify" changeset="99999" id="-17" lat="47.504081" lon="19.135939" timestamp="" uid="4579407" user="KAMI" version="99999">
    <tag k="addr:city" v="Budapest"/>
    <tag k="addr:housenumber" v="2"/>
    <tag k="addr:postcode" v="1148"/>
    <tag k="addr:street" v="Örs vezér tere"/>
    <tag k="amenity" v="bank"/>
    <tag k="atm" v="yes"/>
    <tag k="bic" v="OKHBHUHB"/>
    <tag k="brand" v="K&amp;H"/>
    <tag k="import" v="osm_poi_matchmaker"/>
    <tag k="name" v="K&amp;H bank"/>
    <tag k="operator" v="K&amp;H Bank Zrt."/>
    <tag k="source" v="website"/>
    <tag k="source:date" v="2018-07-12"/>
    <tag k="website" v="https://www.kh.hu"/>
  </node>
  <!-- OSM link: https://osm.org/node/3018323434 -->
  <!-- Original coordinates: POINT (47.54375 19.138998) -->
  <!-- Original tags: {'website': 'https://www.kh.hu', 'brand': 'K&H Bank', 'amenity': 'bank', 'wheelchair': 'yes', 'name': 'K&H Bank'} -->
  <node action="modify" changeset="1" id="3018323434" lat="47.54375" lon="19.138998" timestamp="2015-03-15T09:39:04Z" uid="4579407" user="KAMI" version="3">
    <tag k="addr:city" v="Budapest"/>
    <tag k="addr:housenumber" v="40-46"/>
    <tag k="addr:postcode" v="1156"/>
    <tag k="addr:street" v="Nyírpalota út"/>
    <tag k="amenity" v="bank"/>
    <tag k="atm" v="yes"/>
    <tag k="bic" v="OKHBHUHB"/>
    <tag k="brand" v="K&amp;H"/>
    <tag k="import" v="osm_poi_matchmaker"/>
    <tag k="name" v="K&amp;H bank"/>
    <tag k="operator" v="K&amp;H Bank Zrt."/>
    <tag k="source" v="website"/>
    <tag k="source:date" v="2018-07-12"/>
    <tag k="website" v="https://www.kh.hu"/>
    <tag k="wheelchair" v="yes"/>
  </node>
  <!-- Original coordinates: POINT (47.437776 19.103309) -->
  <!-- Original tags: None -->
  <node action="modify" changeset="99999" id="-19" lat="47.437776" lon="19.103309" timestamp="" uid="4579407" user="KAMI" version="99999">
    <tag k="addr:city" v="Budapest"/>
    <tag k="addr:housenumber" v="37/b"/>
    <tag k="addr:postcode" v="1201"/>
    <tag k="addr:street" v="Kossuth Lajos utca"/>
    <tag k="amenity" v="bank"/>
    <tag k="atm" v="yes"/>
    <tag k="bic" v="OKHBHUHB"/>
    <tag k="brand" v="K&amp;H"/>
    <tag k="import" v="osm_poi_matchmaker"/>
    <tag k="name" v="K&amp;H bank"/>
    <tag k="operator" v="K&amp;H Bank Zrt."/>
    <tag k="source" v="website"/>
    <tag k="source:date" v="2018-07-12"/>
    <tag k="website" v="https://www.kh.hu"/>
  </node>
  <!-- Original coordinates: POINT (47.425693 19.070165) -->
  <!-- Original tags: None -->
  <node action="modify" changeset="99999" id="-20" lat="47.425693" lon="19.070165" timestamp="" uid="4579407" user="KAMI" version="99999">
    <tag k="addr:city" v="Budapest"/>
    <tag k="addr:housenumber" v="97"/>
    <tag k="addr:postcode" v="1211"/>
    <tag k="addr:street" v="Kossuth Lajos utca"/>
    <tag k="amenity" v="bank"/>
    <tag k="atm" v="yes"/>
    <tag k="bic" v="OKHBHUHB"/>
    <tag k="brand" v="K&amp;H"/>
    <tag k="import" v="osm_poi_matchmaker"/>
    <tag k="name" v="K&amp;H bank"/>
    <tag k="operator" v="K&amp;H Bank Zrt."/>
    <tag k="source" v="website"/>
    <tag k="source:date" v="2018-07-12"/>
    <tag k="website" v="https://www.kh.hu"/>
  </node>
  <!-- Original coordinates: POINT (48.163385 21.199432) -->
  <!-- Original tags: None -->
  <node action="modify" changeset="99999" id="-21" lat="48.163385" lon="21.199432" timestamp="" uid="4579407" user="KAMI" version="99999">
    <tag k="addr:city" v="Szerencs"/>
    <tag k="addr:housenumber" v="1"/>
    <tag k="addr:postcode" v="3900"/>
    <tag k="addr:street" v="Kossuth tér"/>
    <tag k="amenity" v="bank"/>
    <tag k="atm" v="yes"/>
    <tag k="bic" v="OKHBHUHB"/>
    <tag k="brand" v="K&amp;H"/>
    <tag k="import" v="osm_poi_matchmaker"/>
    <tag k="name" v="K&amp;H bank"/>
    <tag k="operator" v="K&amp;H Bank Zrt."/>
    <tag k="source" v="website"/>
    <tag k="source:date" v="2018-07-12"/>
    <tag k="website" v="https://www.kh.hu"/>
  </node>
  <!-- OSM link: https://osm.org/node/1948190487 -->
  <!-- Original coordinates: POINT (47.511061 19.19107) -->
  <!-- Original tags: {'website': 'http://www.cib.hu', 'atm': 'yes', 'amenity': 'bank', 'operator': 'CIB Bank Zrt.', 'name': 'CIB Bank'} -->
  <node action="modify" changeset="1" id="1948190487" lat="47.511061" lon="19.19107" timestamp="2015-03-15T10:10:40Z" uid="4579407" user="KAMI" version="4">
    <tag k="addr:city" v="Budapest"/>
    <tag k="addr:housenumber" v="105-107"/>
    <tag k="addr:postcode" v="1165"/>
    <tag k="addr:street" v="Veres Péter út"/>
    <tag k="amenity" v="bank"/>
    <tag k="atm" v="yes"/>
    <tag k="bic" v="OKHBHUHB"/>
    <tag k="brand" v="K&amp;H"/>
    <tag k="import" v="osm_poi_matchmaker"/>
    <tag k="name" v="K&amp;H bank"/>
    <tag k="operator" v="K&amp;H Bank Zrt."/>
    <tag k="source" v="website"/>
    <tag k="source:date" v="2018-07-12"/>
    <tag k="website" v="https://www.kh.hu"/>
  </node>
  <!-- OSM link: https://osm.org/node/3135968529 -->
  <!-- Original coordinates: POINT (47.47906 19.256897) -->
  <!-- Original tags: {'amenity': 'bank', 'contact:website': 'https://www.raiffeisen.hu', 'operator': 'Raiffeisen Bank Zrt.', 'website': 'https://www.raiffeisen.hu', 'atm': 'yes', 'name': 'Raiffeisen Bank'} -->
  <node action="modify" changeset="1" id="3135968529" lat="47.47906" lon="19.256897" timestamp="2015-03-15T10:08:49Z" uid="4579407" user="KAMI" version="3">
    <tag k="addr:city" v="Budapest"/>
    <tag k="addr:housenumber" v="74"/>
    <tag k="addr:postcode" v="1173"/>
    <tag k="addr:street" v="Ferihegyi út"/>
    <tag k="amenity" v="bank"/>
    <tag k="atm" v="yes"/>
    <tag k="bic" v="OKHBHUHB"/>
    <tag k="brand" v="K&amp;H"/>
    <tag k="contact:website" v="https://www.raiffeisen.hu"/>
    <tag k="import" v="osm_poi_matchmaker"/>
    <tag k="name" v="K&amp;H bank"/>
    <tag k="operator" v="K&amp;H Bank Zrt."/>
    <tag k="source" v="website"/>
    <tag k="source:date" v="2018-07-12"/>
    <tag k="website" v="https://www.kh.hu"/>
  </node>
  <!-- Original coordinates: POINT (47.434363 19.201498) -->
  <!-- Original tags: None -->
  <node action="modify" changeset="99999" id="-24" lat="47.434363" lon="19.201498" timestamp="" uid="4579407" user="KAMI" version="99999">
    <tag k="addr:city" v="Budapest"/>
    <tag k="addr:housenumber" v="661"/>
    <tag k="addr:postcode" v="1182"/>
    <tag k="addr:street" v="Üllői út"/>
    <tag k="amenity" v="bank"/>
    <tag k="atm" v="yes"/>
    <tag k="bic" v="OKHBHUHB"/>
    <tag k="brand" v="K&amp;H"/>
    <tag k="import" v="osm_poi_matchmaker"/>
    <tag k="name" v="K&amp;H bank"/>
    <tag k="operator" v="K&amp;H Bank Zrt."/>
    <tag k="source" v="website"/>
    <tag k="source:date" v="2018-07-12"/>
    <tag k="website" v="https://www.kh.hu"/>
  </node>
  <!-- Original coordinates: POINT (47.457269 19.14541) -->
  <!-- Original tags: None -->
  <node action="modify" changeset="99999" id="-25" lat="47.457269" lon="19.14541" timestamp="" uid="4579407" user="KAMI" version="99999">
    <tag k="addr:city" v="Budapest"/>
    <tag k="addr:housenumber" v="234"/>
    <tag k="addr:postcode" v="1191"/>
    <tag k="addr:street" v="Üllői út"/>
    <tag k="amenity" v="bank"/>
    <tag k="atm" v="yes"/>
    <tag k="bic" v="OKHBHUHB"/>
    <tag k="brand" v="K&amp;H"/>
    <tag k="import" v="osm_poi_matchmaker"/>
    <tag k="name" v="K&amp;H bank"/>
    <tag k="operator" v="K&amp;H Bank Zrt."/>
    <tag k="source" v="website"/>
    <tag k="source:date" v="2018-07-12"/>
    <tag k="website" v="https://www.kh.hu"/>
  </node>
  <!-- OSM link: https://osm.org/node/4553422985 -->
  <!-- Original coordinates: POINT (47.516303 18.999204) -->
  <!-- Original tags: {'operator': 'K&H Bank', 'atm': 'yes', 'amenity': 'bank', 'brand': 'K&H Bank', 'name': 'K&H Bank Budagyöngye'} -->
  <node action="modify" changeset="1" id="4553422985" lat="47.516303" lon="18.999204" timestamp="2016-12-14T06:47:23Z" uid="4579407" user="KAMI" version="1">
    <tag k="addr:city" v="Budapest"/>
    <tag k="addr:housenumber" v="2"/>
    <tag k="addr:postcode" v="1026"/>
    <tag k="addr:street" v="Pázsit utca"/>
    <tag k="amenity" v="bank"/>
    <tag k="atm" v="yes"/>
    <tag k="bic" v="OKHBHUHB"/>
    <tag k="brand" v="K&amp;H"/>
    <tag k="import" v="osm_poi_matchmaker"/>
    <tag k="name" v="K&amp;H bank"/>
    <tag k="operator" v="K&amp;H Bank Zrt."/>
    <tag k="source" v="website"/>
    <tag k="source:date" v="2018-07-12"/>
    <tag k="website" v="https://www.kh.hu"/>
  </node>
  <!-- OSM link: https://osm.org/node/343687012 -->
  <!-- Original coordinates: POINT (47.563575 18.962558) -->
  <!-- Original tags: {'website': 'https://www.unicreditbank.hu/', 'wheelchair': 'yes', 'amenity': 'bank', 'atm': 'yes', 'brand': 'UniCredit Bank', 'name': 'UniCredit Bank'} -->
  <node action="modify" changeset="1" id="343687012" lat="47.563575" lon="18.962558" timestamp="2015-03-15T10:25:00Z" uid="4579407" user="KAMI" version="4">
    <tag k="addr:city" v="Budapest"/>
    <tag k="addr:housenumber" v="167"/>
    <tag k="addr:postcode" v="1028"/>
    <tag k="addr:street" v="Hidegkúti út"/>
    <tag k="amenity" v="bank"/>
    <tag k="atm" v="yes"/>
    <tag k="bic" v="OKHBHUHB"/>
    <tag k="brand" v="K&amp;H"/>
    <tag k="import" v="osm_poi_matchmaker"/>
    <tag k="name" v="K&amp;H bank"/>
    <tag k="operator" v="K&amp;H Bank Zrt."/>
    <tag k="source" v="website"/>
    <tag k="source:date" v="2018-07-12"/>
    <tag k="website" v="https://www.kh.hu"/>
    <tag k="wheelchair" v="yes"/>
  </node>
  <!-- Original coordinates: POINT (47.541392 19.041058) -->
  <!-- Original tags: None -->
  <node action="modify" changeset="99999" id="-28" lat="47.541392" lon="19.041058" timestamp="" uid="4579407" user="KAMI" version="99999">
    <tag k="addr:city" v="Budapest"/>
    <tag k="addr:housenumber" v="1"/>
    <tag k="addr:postcode" v="1035"/>
    <tag k="addr:street" v="Flórián tér"/>
    <tag k="amenity" v="bank"/>
    <tag k="atm" v="yes"/>
    <tag k="bic" v="OKHBHUHB"/>
    <tag k="brand" v="K&amp;H"/>
    <tag k="import" v="osm_poi_matchmaker"/>
    <tag k="name" v="K&amp;H bank"/>
    <tag k="operator" v="K&amp;H Bank Zrt."/>
    <tag k="source" v="website"/>
    <tag k="source:date" v="2018-07-12"/>
    <tag k="website" v="https://www.kh.hu"/>
  </node>
  <!-- OSM link: https://osm.org/node/3465235544 -->
  <!-- Original coordinates: POINT (47.528736 19.038125) -->
  <!-- Original tags: {'source:date': '2012-08-16', 'amenity': 'bank', 'name': 'K&H Bank', 'wheelchair': 'limited', 'atm': 'yes', 'source': 'turistautak.hu', 'url': 'http://turistautak.hu/poi.php?id=140471'} -->
  <node action="modify" changeset="1" id="3465235544" lat="47.528736" lon="19.038125" timestamp="2016-02-07T23:37:12Z" uid="4579407" user="KAMI" version="4">
    <tag k="addr:city" v="Budapest"/>
    <tag k="addr:housenumber" v="57-61"/>
    <tag k="addr:postcode" v="1036"/>
    <tag k="addr:street" v="Bécsi út"/>
    <tag k="amenity" v="bank"/>
    <tag k="atm" v="yes"/>
    <tag k="bic" v="OKHBHUHB"/>
    <tag k="brand" v="K&amp;H"/>
    <tag k="import" v="osm_poi_matchmaker"/>
    <tag k="name" v="K&amp;H bank"/>
    <tag k="operator" v="K&amp;H Bank Zrt."/>
    <tag k="source" v="website"/>
    <tag k="source:date" v="2018-07-12"/>
    <tag k="url" v="http://turistautak.hu/poi.php?id=140471"/>
    <tag k="website" v="https://www.kh.hu"/>
    <tag k="wheelchair" v="limited"/>
  </node>
  <!-- OSM link: https://osm.org/node/1242924500 -->
  <!-- Original coordinates: POINT (47.597412 19.056123) -->
  <!-- Original tags: {'amenity': 'bank', 'name': 'Heltai Bank Center'} -->
  <node action="modify" changeset="1" id="1242924500" lat="47.597412" lon="19.056123" timestamp="2011-04-13T07:58:48Z" uid="4579407" user="KAMI" version="1">
    <tag k="addr:city" v="Budapest"/>
    <tag k="addr:housenumber" v="15"/>
    <tag k="addr:postcode" v="1039"/>
    <tag k="addr:street" v="Heltai Jenő tér"/>
    <tag k="amenity" v="bank"/>
    <tag k="atm" v="yes"/>
    <tag k="bic" v="OKHBHUHB"/>
    <tag k="brand" v="K&amp;H"/>
    <tag k="import" v="osm_poi_matchmaker"/>
    <tag k="name" v="K&amp;H bank"/>
    <tag k="operator" v="K&amp;H Bank Zrt."/>
    <tag k="source" v="website"/>
    <tag k="source:date" v="2018-07-12"/>
    <tag k="website" v="https://www.kh.hu"/>
  </node>
  <!-- OSM link: https://osm.org/node/3328999099 -->
  <!-- Original coordinates: POINT (47.560642 19.098622) -->
  <!-- Original tags: {'amenity': 'bank', 'addr:street': 'Árpád út', 'addr:housenumber': '112', 'atm': 'yes', 'wheelchair': 'no', 'addr:city': 'Budapest', 'website': 'https://www.kh.hu', 'opening_hours': 'Mo 08:00-17:00;Tu-Th 08:00-16:00;Fr 08:00-15:00', 'phone': '+3612722270', 'operator': 'K&H Bank', 'addr:postcode': '1042', 'brand': 'K&H Bank', 'name': 'K&H Bank'} -->
  <node action="modify" changeset="1" id="3328999099" lat="47.560642" lon="19.098622" timestamp="2015-12-05T20:43:07Z" uid="4579407" user="KAMI" version="5">
    <tag k="addr:city" v="Budapest"/>
    <tag k="addr:housenumber" v="112"/>
    <tag k="addr:postcode" v="1042"/>
    <tag k="addr:street" v="Árpád út"/>
    <tag k="amenity" v="bank"/>
    <tag k="atm" v="yes"/>
    <tag k="bic" v="OKHBHUHB"/>
    <tag k="brand" v="K&amp;H"/>
    <tag k="import" v="osm_poi_matchmaker"/>
    <tag k="name" v="K&amp;H bank"/>
    <tag k="opening_hours" v="Mo 08:00-17:00;Tu-Th 08:00-16:00;Fr 08:00-15:00"/>
    <tag k="operator" v="K&amp;H Bank Zrt."/>
    <tag k="phone" v="+3612722270"/>
    <tag k="source" v="website"/>
    <tag k="source:date" v="2018-07-12"/>
    <tag k="website" v="https://www.kh.hu"/>
    <tag k="wheelchair" v="no"/>
  </node>
  <!-- OSM link: https://osm.org/node/1879131372 -->
  <!-- Original coordinates: POINT (47.560361 19.086114) -->
  <!-- Original tags: {'website': 'https://www.kh.hu', 'atm': 'yes', 'amenity': 'bank', 'brand': 'K&H Bank', 'name': 'K&H Bank'} -->
  <node action="modify" changeset="1" id="1879131372" lat="47.560361" lon="19.086114" timestamp="2015-03-15T09:39:05Z" uid="4579407" user="KAMI" version="2">
    <tag k="addr:city" v="Budapest"/>
    <tag k="addr:housenumber" v="41-43"/>
    <tag k="addr:postcode" v="1042"/>
    <tag k="addr:street" v="Árpád út"/>
    <tag k="amenity" v="bank"/>
    <tag k="atm" v="yes"/>
    <tag k="bic" v="OKHBHUHB"/>
    <tag k="brand" v="K&amp;H"/>
    <tag k="import" v="osm_poi_matchmaker"/>
    <tag k="name" v="K&amp;H bank"/>
    <tag k="operator" v="K&amp;H Bank Zrt."/>
    <tag k="source" v="website"/>
    <tag k="source:date" v="2018-07-12"/>
    <tag k="website" v="https://www.kh.hu"/>
  </node>
  <!-- OSM link: https://osm.org/node/260886173 -->
  <!-- Original coordinates: POINT (47.502283 19.050608) -->
  <!-- Original tags: {'website': 'https://www.kh.hu', 'brand': 'K&H Bank', 'amenity': 'bank', 'operator': 'K&H Bank', 'name': 'K&H Bank'} -->
  <node action="modify" changeset="1" id="260886173" lat="47.502283" lon="19.050608" timestamp="2015-03-15T09:39:04Z" uid="4579407" user="KAMI" version="3">
    <tag k="addr:city" v="Budapest"/>
    <tag k="addr:housenumber" v="20"/>
    <tag k="addr:postcode" v="1051"/>
    <tag k="addr:street" v="Arany János utca"/>
    <tag k="amenity" v="bank"/>
    <tag k="atm" v="yes"/>
    <tag k="bic" v="OKHBHUHB"/>
    <tag k="brand" v="K&amp;H"/>
    <tag k="import" v="osm_poi_matchmaker"/>
    <tag k="name" v="K&amp;H bank"/>
    <tag k="operator" v="K&amp;H Bank Zrt."/>
    <tag k="source" v="website"/>
    <tag k="source:date" v="2018-07-12"/>
    <tag k="website" v="https://www.kh.hu"/>
  </node>
  <!-- Original coordinates: POINT (47.499177 19.05367) -->
  <!-- Original tags: None -->
  <node action="modify" changeset="99999" id="-34" lat="47.499177" lon="19.05367" timestamp="" uid="4579407" user="KAMI" version="99999">
    <tag k="addr:city" v="Budapest"/>
    <tag k="addr:housenumber" v="24"/>
    <tag k="addr:postcode" v="1051"/>
    <tag k="addr:street" v="József Attila utca"/>
    <tag k="amenity" v="bank"/>
    <tag k="atm" v="yes"/>
    <tag k="bic" v="OKHBHUHB"/>
    <tag k="brand" v="K&amp;H"/>
    <tag k="import" v="osm_poi_matchmaker"/>
    <tag k="name" v="K&amp;H bank"/>
    <tag k="operator" v="K&amp;H Bank Zrt."/>
    <tag k="source" v="website"/>
    <tag k="source:date" v="2018-07-12"/>
    <tag k="website" v="https://www.kh.hu"/>
  </node>
  <!-- OSM link: https://osm.org/node/1433059882 -->
  <!-- Original coordinates: POINT (47.489279 19.061107) -->
  <!-- Original tags: {'website': 'https://www.kh.hu/', 'amenity': 'bank', 'opening_hours': 'Mo 08:00-17:00; Tu,We,Th 08:00-16:00; Fr 08:00-15:00', 'addr:street': 'Kálvin tér', 'addr:housenumber': '3', 'addr:city': 'Budapest', 'atm': 'yes', 'addr:postcode': '1053', 'wheelchair': 'yes', 'name': 'K&H'} -->
  <node action="modify" changeset="1" id="1433059882" lat="47.489279" lon="19.061107" timestamp="2017-10-10T10:35:26Z" uid="4579407" user="KAMI" version="8">
    <tag k="addr:city" v="Budapest"/>
    <tag k="addr:housenumber" v="3"/>
    <tag k="addr:postcode" v="1053"/>
    <tag k="addr:street" v="Kálvin tér"/>
    <tag k="amenity" v="bank"/>
    <tag k="atm" v="yes"/>
    <tag k="bic" v="OKHBHUHB"/>
    <tag k="brand" v="K&amp;H"/>
    <tag k="import" v="osm_poi_matchmaker"/>
    <tag k="name" v="K&amp;H bank"/>
    <tag k="opening_hours" v="Mo 08:00-17:00; Tu,We,Th 08:00-16:00; Fr 08:00-15:00"/>
    <tag k="operator" v="K&amp;H Bank Zrt."/>
    <tag k="source" v="website"/>
    <tag k="source:date" v="2018-07-12"/>
    <tag k="website" v="https://www.kh.hu"/>
    <tag k="wheelchair" v="yes"/>
  </node>
  <!-- OSM link: https://osm.org/node/260886176 -->
  <!-- Original coordinates: POINT (47.509496 19.045913) -->
  <!-- Original tags: {'website': 'https://www.kh.hu', 'brand': 'K&H Bank', 'amenity': 'bank', 'operator': 'K&H Bank', 'name': 'K&H Bank'} -->
  <node action="modify" changeset="1" id="260886176" lat="47.509496" lon="19.045913" timestamp="2015-03-15T09:39:04Z" uid="4579407" user="KAMI" version="4">
    <tag k="addr:city" v="Budapest"/>
    <tag k="addr:housenumber" v="18"/>
    <tag k="addr:postcode" v="1055"/>
    <tag k="addr:street" v="Kossuth Lajos tér"/>
    <tag k="amenity" v="bank"/>
    <tag k="atm" v="yes"/>
    <tag k="bic" v="OKHBHUHB"/>
    <tag k="brand" v="K&amp;H"/>
    <tag k="import" v="osm_poi_matchmaker"/>
    <tag k="name" v="K&amp;H bank"/>
    <tag k="operator" v="K&amp;H Bank Zrt."/>
    <tag k="source" v="website"/>
    <tag k="source:date" v="2018-07-12"/>
    <tag k="website" v="https://www.kh.hu"/>
  </node>
  <!-- OSM link: https://osm.org/node/888143202 -->
  <!-- Original coordinates: POINT (47.510081 19.054801) -->
  <!-- Original tags: {'amenity': 'bank', 'opening_hours': 'Mo 08:00-17:00; Tu-Th 08:00-16:00; Fr 08:00-15:00', 'operator': 'K&H Bank', 'atm': 'yes', 'wheelchair': 'yes', 'name': 'K&H Nyugati tér'} -->
  <node action="modify" changeset="1" id="888143202" lat="47.510081" lon="19.054801" timestamp="2014-02-28T11:00:09Z" uid="4579407" user="KAMI" version="4">
    <tag k="addr:city" v="Budapest"/>
    <tag k="addr:housenumber" v="9"/>
    <tag k="addr:postcode" v="1055"/>
    <tag k="addr:street" v="Nyugati tér"/>
    <tag k="amenity" v="bank"/>
    <tag k="atm" v="yes"/>
    <tag k="bic" v="OKHBHUHB"/>
    <tag k="brand" v="K&amp;H"/>
    <tag k="import" v="osm_poi_matchmaker"/>
    <tag k="name" v="K&amp;H bank"/>
    <tag k="opening_hours" v="Mo 08:00-17:00; Tu-Th 08:00-16:00; Fr 08:00-15:00"/>
    <tag k="operator" v="K&amp;H Bank Zrt."/>
    <tag k="source" v="website"/>
    <tag k="source:date" v="2018-07-12"/>
    <tag k="website" v="https://www.kh.hu"/>
    <tag k="wheelchair" v="yes"/>
  </node>
  <!-- OSM link: https://osm.org/node/2385679999 -->
  <!-- Original coordinates: POINT (47.504984 19.063276) -->
  <!-- Original tags: {'amenity': 'bank', 'wheelchair': 'no', 'opening_hours': 'Mo 08:00-17:00;Tu 08:00-16:00;We 08:00-18:00;Th 08:00-16:00;Fr 08:00-15:00', 'phone': '+36 1 411 2740', 'website': 'https://www.kh.hu', 'brand': 'K&H Bank', 'name': 'K&H Bank'} -->
  <node action="modify" changeset="1" id="2385679999" lat="47.504984" lon="19.063276" timestamp="2015-04-14T06:28:47Z" uid="4579407" user="KAMI" version="4">
    <tag k="addr:city" v="Budapest"/>
    <tag k="addr:housenumber" v="49"/>
    <tag k="addr:postcode" v="1066"/>
    <tag k="addr:street" v="Andrássy út"/>
    <tag k="amenity" v="bank"/>
    <tag k="atm" v="yes"/>
    <tag k="bic" v="OKHBHUHB"/>
    <tag k="brand" v="K&amp;H"/>
    <tag k="import" v="osm_poi_matchmaker"/>
    <tag k="name" v="K&amp;H bank"/>
    <tag k="opening_hours" v="Mo 08:00-17:00;Tu 08:00-16:00;We 08:00-18:00;Th 08:00-16:00;Fr 08:00-15:00"/>
    <tag k="operator" v="K&amp;H Bank Zrt."/>
    <tag k="phone" v="+36 1 411 2740"/>
    <tag k="source" v="website"/>
    <tag k="source:date" v="2018-07-12"/>
    <tag k="website" v="https://www.kh.hu"/>
    <tag k="wheelchair" v="no"/>
  </node>
  <!-- Original coordinates: POINT (47.51259 19.05794) -->
  <!-- Original tags: None -->
  <node action="modify" changeset="99999" id="-39" lat="47.51259" lon="19.05794" timestamp="" uid="4579407" user="KAMI" version="99999">
    <tag k="addr:city" v="Budapest"/>
    <tag k="addr:housenumber" v="1-3"/>
    <tag k="addr:postcode" v="1062"/>
    <tag k="addr:street" v="Váci út"/>
    <tag k="amenity" v="bank"/>
    <tag k="atm" v="yes"/>
    <tag k="bic" v="OKHBHUHB"/>
    <tag k="brand" v="K&amp;H"/>
    <tag k="import" v="osm_poi_matchmaker"/>
    <tag k="name" v="K&amp;H bank"/>
    <tag k="operator" v="K&amp;H Bank Zrt."/>
    <tag k="source" v="website"/>
    <tag k="source:date" v="2018-07-12"/>
    <tag k="website" v="https://www.kh.hu"/>
  </node>
  <!-- Original coordinates: POINT (47.503613 19.065414) -->
  <!-- Original tags: None -->
  <node action="modify" changeset="99999" id="-40" lat="47.503613" lon="19.065414" timestamp="" uid="4579407" user="KAMI" version="99999">
    <tag k="addr:city" v="Budapest"/>
    <tag k="addr:housenumber" v="1"/>
    <tag k="addr:postcode" v="1068"/>
    <tag k="addr:street" v="Teréz körút"/>
    <tag k="amenity" v="bank"/>
    <tag k="atm" v="yes"/>
    <tag k="bic" v="OKHBHUHB"/>
    <tag k="brand" v="K&amp;H"/>
    <tag k="import" v="osm_poi_matchmaker"/>
    <tag k="name" v="K&amp;H bank"/>
    <tag k="operator" v="K&amp;H Bank Zrt."/>
    <tag k="source" v="website"/>
    <tag k="source:date" v="2018-07-12"/>
    <tag k="website" v="https://www.kh.hu"/>
  </node>
  <!-- OSM link: https://osm.org/node/769107721 -->
  <!-- Original coordinates: POINT (47.497334 19.056083) -->
  <!-- Original tags: {'name:ru': 'Банкомат возможно этот обменик, должна быть вывеска с бегущей строкой и цивильный вход', 'amenity': 'bank', 'operator': 'K&H Bank', 'addr:street': 'Károly körút', 'addr:housenumber': '17-19', 'addr:city': 'Budapest', 'atm': 'yes', 'addr:postcode': '1075', 'wheelchair': 'limited', 'name': 'K&H'} -->
  <node action="modify" changeset="1" id="769107721" lat="47.497334" lon="19.056083" timestamp="2017-07-27T07:07:54Z" uid="4579407" user="KAMI" version="12">
    <tag k="addr:city" v="Budapest"/>
    <tag k="addr:housenumber" v="17-19"/>
    <tag k="addr:postcode" v="1075"/>
    <tag k="addr:street" v="Károly körút"/>
    <tag k="amenity" v="bank"/>
    <tag k="atm" v="yes"/>
    <tag k="bic" v="OKHBHUHB"/>
    <tag k="brand" v="K&amp;H"/>
    <tag k="import" v="osm_poi_matchmaker"/>
    <tag k="name" v="K&amp;H bank"/>
    <tag k="name:ru" v="Банкомат возможно этот обменик, должна быть вывеска с бегущей строкой и цивильный вход"/>
    <tag k="operator" v="K&amp;H Bank Zrt."/>
    <tag k="source" v="website"/>
    <tag k="source:date" v="2018-07-12"/>
    <tag k="website" v="https://www.kh.hu"/>
    <tag k="wheelchair" v="limited"/>
  </node>
  <!-- OSM link: https://osm.org/node/2532627570 -->
  <!-- Original coordinates: POINT (47.48529 19.074741) -->
  <!-- Original tags: {'website': 'https://www.kh.hu', 'atm': 'yes', 'amenity': 'bank', 'brand': 'K&H Bank', 'name': 'K&H Bank'} -->
  <node action="modify" changeset="1" id="2532627570" lat="47.48529" lon="19.074741" timestamp="2015-03-15T09:39:03Z" uid="4579407" user="KAMI" version="3">
    <tag k="addr:city" v="Budapest"/>
    <tag k="addr:housenumber" v="47-53"/>
    <tag k="addr:postcode" v="1082"/>
    <tag k="addr:street" v="Futó utca"/>
    <tag k="amenity" v="bank"/>
    <tag k="atm" v="yes"/>
    <tag k="bic" v="OKHBHUHB"/>
    <tag k="brand" v="K&amp;H"/>
    <tag k="import" v="osm_poi_matchmaker"/>
    <tag k="name" v="K&amp;H bank"/>
    <tag k="operator" v="K&amp;H Bank Zrt."/>
    <tag k="source" v="website"/>
    <tag k="source:date" v="2018-07-12"/>
    <tag k="website" v="https://www.kh.hu"/>
  </node>
  <!-- Original coordinates: POINT (47.508413 19.026097) -->
  <!-- Original tags: None -->
  <node action="modify" changeset="99999" id="-43" lat="47.508413" lon="19.026097" timestamp="" uid="4579407" user="KAMI" version="99999">
    <tag k="addr:city" v="Budapest"/>
    <tag k="addr:housenumber" v="2-6"/>
    <tag k="addr:postcode" v="1024"/>
    <tag k="addr:street" v="Lövőház utca"/>
    <tag k="amenity" v="bank"/>
    <tag k="atm" v="yes"/>
    <tag k="bic" v="OKHBHUHB"/>
    <tag k="brand" v="K&amp;H"/>
    <tag k="import" v="osm_poi_matchmaker"/>
    <tag k="name" v="K&amp;H bank"/>
    <tag k="operator" v="K&amp;H Bank Zrt."/>
    <tag k="source" v="website"/>
    <tag k="source:date" v="2018-07-12"/>
    <tag k="website" v="https://www.kh.hu"/>
  </node>
  <!-- OSM link: https://osm.org/node/654080564 -->
  <!-- Original coordinates: POINT (47.511246 19.032588) -->
  <!-- Original tags: {'atm': 'yes', 'amenity': 'bank', 'operator': 'K&H Bank', 'name': 'K&H'} -->
  <node action="modify" changeset="1" id="654080564" lat="47.511246" lon="19.032588" timestamp="2012-10-06T22:40:02Z" uid="4579407" user="KAMI" version="3">
    <tag k="addr:city" v="Budapest"/>
    <tag k="addr:housenumber" v="43-45"/>
    <tag k="addr:postcode" v="1024"/>
    <tag k="addr:street" v="Margit körút"/>
    <tag k="amenity" v="bank"/>
    <tag k="atm" v="yes"/>
    <tag k="bic" v="OKHBHUHB"/>
    <tag k="brand" v="K&amp;H"/>
    <tag k="import" v="osm_poi_matchmaker"/>
    <tag k="name" v="K&amp;H bank"/>
    <tag k="operator" v="K&amp;H Bank Zrt."/>
    <tag k="source" v="website"/>
    <tag k="source:date" v="2018-07-12"/>
    <tag k="website" v="https://www.kh.hu"/>
  </node>
  <!-- OSM link: https://osm.org/node/890219272 -->
  <!-- Original coordinates: POINT (47.514538 19.037204) -->
  <!-- Original tags: {'atm': 'yes', 'amenity': 'bank', 'operator': 'K & H Bank', 'name': 'K & H Bank'} -->
  <node action="modify" changeset="1" id="890219272" lat="47.514538" lon="19.037204" timestamp="2010-08-31T10:07:26Z" uid="4579407" user="KAMI" version="1">
    <tag k="addr:city" v="Budapest"/>
    <tag k="addr:housenumber" v="5/a"/>
    <tag k="addr:postcode" v="1027"/>
    <tag k="addr:street" v="Margit körút"/>
    <tag k="amenity" v="bank"/>
    <tag k="atm" v="yes"/>
    <tag k="bic" v="OKHBHUHB"/>
    <tag k="brand" v="K&amp;H"/>
    <tag k="import" v="osm_poi_matchmaker"/>
    <tag k="name" v="K&amp;H bank"/>
    <tag k="operator" v="K&amp;H Bank Zrt."/>
    <tag k="source" v="website"/>
    <tag k="source:date" v="2018-07-12"/>
    <tag k="website" v="https://www.kh.hu"/>
  </node>
  <!-- OSM link: https://osm.org/node/2007047114 -->
  <!-- Original coordinates: POINT (47.426577 19.038899) -->
  <!-- Original tags: {'amenity': 'bank', 'operator': 'Erste Bank Hungary Zrt.', 'website': 'http://erstebank.hu/', 'atm': 'yes', 'brand': 'Erste Bank', 'name': 'Erste Bank'} -->
  <node action="modify" changeset="1" id="2007047114" lat="47.426577" lon="19.038899" timestamp="2015-03-15T09:42:00Z" uid="4579407" user="KAMI" version="2">
    <tag k="addr:city" v="Budapest"/>
    <tag k="addr:housenumber" v="25-29"/>
    <tag k="addr:postcode" v="1221"/>
    <tag k="addr:street" v="Kossuth Lajos utca"/>
    <tag k="amenity" v="bank"/>
    <tag k="atm" v="yes"/>
    <tag k="bic" v="OKHBHUHB"/>
    <tag k="brand" v="K&amp;H"/>
    <tag k="import" v="osm_poi_matchmaker"/>
    <tag k="name" v="K&amp;H bank"/>
    <tag k="operator" v="K&amp;H Bank Zrt."/>
    <tag k="source" v="website"/>
    <tag k="source:date" v="2018-07-12"/>
    <tag k="website" v="https://www.kh.hu"/>
  </node>
  <!-- OSM link: https://osm.org/node/2296770519 -->
  <!-- Original coordinates: POINT (47.399138 19.114673) -->
  <!-- Original tags: {'amenity': 'bank', 'opening_hours': 'Mo 07:45-17:00; Tu-Fr 07:45-15:00; PH closed', 'addr:street': 'Grassalkovich út', 'phone': '+36 40 366-388; +36 1 3666-388', 'addr:housenumber': '160', 'addr:city': 'Budapest', 'atm': 'yes', 'addr:postcode': '1238', 'name': 'OTP'} -->
  <node action="modify" changeset="1" id="2296770519" lat="47.399138" lon="19.114673" timestamp="2018-02-18T14:57:35Z" uid="4579407" user="KAMI" version="4">
    <tag k="addr:city" v="Budapest"/>
    <tag k="addr:housenumber" v="14"/>
    <tag k="addr:postcode" v="1239"/>
    <tag k="addr:street" v="Hősök tere"/>
    <tag k="amenity" v="bank"/>
    <tag k="atm" v="yes"/>
    <tag k="bic" v="OKHBHUHB"/>
    <tag k="brand" v="K&amp;H"/>
    <tag k="import" v="osm_poi_matchmaker"/>
    <tag k="name" v="K&amp;H bank"/>
    <tag k="opening_hours" v="Mo 07:45-17:00; Tu-Fr 07:45-15:00; PH closed"/>
    <tag k="operator" v="K&amp;H Bank Zrt."/>
    <tag k="phone" v="+36 40 366-388; +36 1 3666-388"/>
    <tag k="source" v="website"/>
    <tag k="source:date" v="2018-07-12"/>
    <tag k="website" v="https://www.kh.hu"/>
  </node>
  <!-- OSM link: https://osm.org/node/2414512618 -->
  <!-- Original coordinates: POINT (47.667642 19.076022) -->
  <!-- Original tags: {'atm': 'yes', 'amenity': 'bank', 'opening_hours': 'Mo 08:00-17:00, Tu-Th 08:00-16:00, Fr 08:00-15:00', 'name': 'K&H'} -->
  <node action="modify" changeset="1" id="2414512618" lat="47.667642" lon="19.076022" timestamp="2015-01-20T23:00:05Z" uid="4579407" user="KAMI" version="4">
    <tag k="addr:city" v="Szentendre"/>
    <tag k="addr:housenumber" v="10"/>
    <tag k="addr:postcode" v="2000"/>
    <tag k="addr:street" v="Fő tér"/>
    <tag k="amenity" v="bank"/>
    <tag k="atm" v="yes"/>
    <tag k="bic" v="OKHBHUHB"/>
    <tag k="brand" v="K&amp;H"/>
    <tag k="import" v="osm_poi_matchmaker"/>
    <tag k="name" v="K&amp;H bank"/>
    <tag k="opening_hours" v="Mo 08:00-17:00, Tu-Th 08:00-16:00, Fr 08:00-15:00"/>
    <tag k="operator" v="K&amp;H Bank Zrt."/>
    <tag k="source" v="website"/>
    <tag k="source:date" v="2018-07-12"/>
    <tag k="website" v="https://www.kh.hu"/>
  </node>
  <!-- OSM link: https://osm.org/node/2085348930 -->
  <!-- Original coordinates: POINT (47.645852 19.020879) -->
  <!-- Original tags: {'amenity': 'bank', 'opening_hours': 'Mo 08:00-17:00; Tu-Th 08:00-16:00; Fr 08:00-15:00; PH off', 'website': 'https://www.kh.hu', 'atm': 'yes', 'brand': 'K&H Bank', 'name': 'K&H Bank'} -->
  <node action="modify" changeset="1" id="2085348930" lat="47.645852" lon="19.020879" timestamp="2018-03-17T16:19:42Z" uid="4579407" user="KAMI" version="4">
    <tag k="addr:city" v="Pomáz"/>
    <tag k="addr:housenumber" v="25"/>
    <tag k="addr:postcode" v="2013"/>
    <tag k="addr:street" v="Huszár utca"/>
    <tag k="amenity" v="bank"/>
    <tag k="atm" v="yes"/>
    <tag k="bic" v="OKHBHUHB"/>
    <tag k="brand" v="K&amp;H"/>
    <tag k="import" v="osm_poi_matchmaker"/>
    <tag k="name" v="K&amp;H bank"/>
    <tag k="opening_hours" v="Mo 08:00-17:00; Tu-Th 08:00-16:00; Fr 08:00-15:00; PH off"/>
    <tag k="operator" v="K&amp;H Bank Zrt."/>
    <tag k="source" v="website"/>
    <tag k="source:date" v="2018-07-12"/>
    <tag k="website" v="https://www.kh.hu"/>
  </node>
  <!-- OSM link: https://osm.org/node/4109457116 -->
  <!-- Original coordinates: POINT (47.378535 18.924558) -->
  <!-- Original tags: {'atm': 'yes', 'amenity': 'bank', 'brand': 'K&H', 'name': 'K&H'} -->
  <node action="modify" changeset="1" id="4109457116" lat="47.378535" lon="18.924558" timestamp="2018-03-15T11:09:48Z" uid="4579407" user="KAMI" version="2">
    <tag k="addr:city" v="Érd"/>
    <tag k="addr:housenumber" v="26"/>
    <tag k="addr:postcode" v="2030"/>
    <tag k="addr:street" v="Budai út"/>
    <tag k="amenity" v="bank"/>
    <tag k="atm" v="yes"/>
    <tag k="bic" v="OKHBHUHB"/>
    <tag k="brand" v="K&amp;H"/>
    <tag k="import" v="osm_poi_matchmaker"/>
    <tag k="name" v="K&amp;H bank"/>
    <tag k="operator" v="K&amp;H Bank Zrt."/>
    <tag k="source" v="website"/>
    <tag k="source:date" v="2018-07-12"/>
    <tag k="website" v="https://www.kh.hu"/>
  </node>
  <!-- OSM link: https://osm.org/node/760715245 -->
  <!-- Original coordinates: POINT (47.46073 18.959021) -->
  <!-- Original tags: {'amenity': 'bank', 'name': 'K&H Bank', 'addr:street': 'Szabadság út', 'operator': 'K&H', 'addr:housenumber': '47', 'addr:city': 'Budaörs', 'addr:postcode': '2040', 'addr:country': 'HU'} -->
  <node action="modify" changeset="1" id="760715245" lat="47.46073" lon="18.959021" timestamp="2017-10-17T16:48:23Z" uid="4579407" user="KAMI" version="4">
    <tag k="addr:city" v="Budaörs"/>
    <tag k="addr:country" v="HU"/>
    <tag k="addr:housenumber" v="47"/>
    <tag k="addr:postcode" v="2040"/>
    <tag k="addr:street" v="Szabadság út"/>
    <tag k="amenity" v="bank"/>
    <tag k="atm" v="yes"/>
    <tag k="bic" v="OKHBHUHB"/>
    <tag k="brand" v="K&amp;H"/>
    <tag k="import" v="osm_poi_matchmaker"/>
    <tag k="name" v="K&amp;H bank"/>
    <tag k="operator" v="K&amp;H Bank Zrt."/>
    <tag k="source" v="website"/>
    <tag k="source:date" v="2018-07-12"/>
    <tag k="website" v="https://www.kh.hu"/>
  </node>
  <!-- OSM link: https://osm.org/node/1252484819 -->
  <!-- Original coordinates: POINT (47.471038 18.824751) -->
  <!-- Original tags: {'website': 'https://www.kh.hu', 'amenity': 'bank', 'name': 'K&H Bank', 'addr:street': 'Szabadság utca', 'drive_through': 'no', 'addr:housenumber': '76', 'addr:city': 'Biatorbágy', 'atm': 'yes', 'addr:postcode': '2051', 'brand': 'K&H Bank', 'addr:country': 'HU'} -->
  <node action="modify" changeset="1" id="1252484819" lat="47.471038" lon="18.824751" timestamp="2015-08-28T09:23:59Z" uid="4579407" user="KAMI" version="7">
    <tag k="addr:city" v="Biatorbágy"/>
    <tag k="addr:country" v="HU"/>
    <tag k="addr:housenumber" v="76"/>
    <tag k="addr:postcode" v="2051"/>
    <tag k="addr:street" v="Szabadság utca"/>
    <tag k="amenity" v="bank"/>
    <tag k="atm" v="yes"/>
    <tag k="bic" v="OKHBHUHB"/>
    <tag k="brand" v="K&amp;H"/>
    <tag k="drive_through" v="no"/>
    <tag k="import" v="osm_poi_matchmaker"/>
    <tag k="name" v="K&amp;H bank"/>
    <tag k="operator" v="K&amp;H Bank Zrt."/>
    <tag k="source" v="website"/>
    <tag k="source:date" v="2018-07-12"/>
    <tag k="website" v="https://www.kh.hu"/>
  </node>
  <!-- OSM link: https://osm.org/node/4143054257 -->
  <!-- Original coordinates: POINT (47.490786 18.635912) -->
  <!-- Original tags: {'website': 'https://www.kh.hu/', 'amenity': 'bank', 'addr:street': 'Szent István út', 'addr:housenumber': '2', 'addr:city': 'Bicske', 'atm': 'yes', 'addr:postcode': '2060', 'name': 'K&H'} -->
  <node action="modify" changeset="1" id="4143054257" lat="47.490786" lon="18.635912" timestamp="2016-07-23T09:55:30Z" uid="4579407" user="KAMI" version="2">
    <tag k="addr:city" v="Bicske"/>
    <tag k="addr:housenumber" v="2"/>
    <tag k="addr:postcode" v="2060"/>
    <tag k="addr:street" v="Szent István út"/>
    <tag k="amenity" v="bank"/>
    <tag k="atm" v="yes"/>
    <tag k="bic" v="OKHBHUHB"/>
    <tag k="brand" v="K&amp;H"/>
    <tag k="import" v="osm_poi_matchmaker"/>
    <tag k="name" v="K&amp;H bank"/>
    <tag k="operator" v="K&amp;H Bank Zrt."/>
    <tag k="source" v="website"/>
    <tag k="source:date" v="2018-07-12"/>
    <tag k="website" v="https://www.kh.hu"/>
  </node>
  <!-- OSM link: https://osm.org/node/2921941054 -->
  <!-- Original coordinates: POINT (47.61908 18.912723) -->
  <!-- Original tags: {'website': 'https://www.kh.hu', 'brand': 'K&H Bank', 'amenity': 'bank', 'name': 'K&H Bank'} -->
  <node action="modify" changeset="1" id="2921941054" lat="47.61908" lon="18.912723" timestamp="2015-03-15T09:39:05Z" uid="4579407" user="KAMI" version="2">
    <tag k="addr:city" v="Pilisvörösvár"/>
    <tag k="addr:housenumber" v="30"/>
    <tag k="addr:postcode" v="2085"/>
    <tag k="addr:street" v="Fő út"/>
    <tag k="amenity" v="bank"/>
    <tag k="atm" v="yes"/>
    <tag k="bic" v="OKHBHUHB"/>
    <tag k="brand" v="K&amp;H"/>
    <tag k="import" v="osm_poi_matchmaker"/>
    <tag k="name" v="K&amp;H bank"/>
    <tag k="operator" v="K&amp;H Bank Zrt."/>
    <tag k="source" v="website"/>
    <tag k="source:date" v="2018-07-12"/>
    <tag k="website" v="https://www.kh.hu"/>
  </node>
  <!-- OSM link: https://osm.org/node/4274374190 -->
  <!-- Original coordinates: POINT (47.512435 18.931808) -->
  <!-- Original tags: {'website': 'http://www.kh.hu', 'amenity': 'bank', 'addr:street': 'Fő utca', 'addr:housenumber': '128', 'addr:city': 'Budakeszi', 'addr:postcode': '2092', 'name': 'K&H Bank'} -->
  <node action="modify" changeset="1" id="4274374190" lat="47.512435" lon="18.931808" timestamp="2016-07-25T10:54:30Z" uid="4579407" user="KAMI" version="2">
    <tag k="addr:city" v="Budakeszi"/>
    <tag k="addr:housenumber" v="128"/>
    <tag k="addr:postcode" v="2092"/>
    <tag k="addr:street" v="Fő út"/>
    <tag k="amenity" v="bank"/>
    <tag k="atm" v="yes"/>
    <tag k="bic" v="OKHBHUHB"/>
    <tag k="brand" v="K&amp;H"/>
    <tag k="import" v="osm_poi_matchmaker"/>
    <tag k="name" v="K&amp;H bank"/>
    <tag k="operator" v="K&amp;H Bank Zrt."/>
    <tag k="source" v="website"/>
    <tag k="source:date" v="2018-07-12"/>
    <tag k="website" v="https://www.kh.hu"/>
  </node>
  <!-- OSM link: https://osm.org/node/3043482422 -->
  <!-- Original coordinates: POINT (47.599209 19.348688) -->
  <!-- Original tags: {'amenity': 'bank', 'addr:street': 'Szabadság tér', 'addr:housenumber': '6', 'addr:city': 'Gödöllő', 'atm': 'yes', 'addr:postcode': '2100', 'name': 'K&H Bank Gödöllői fiókja'} -->
  <node action="modify" changeset="1" id="3043482422" lat="47.599209" lon="19.348688" timestamp="2017-10-19T09:05:52Z" uid="4579407" user="KAMI" version="3">
    <tag k="addr:city" v="Gödöllő"/>
    <tag k="addr:housenumber" v="6"/>
    <tag k="addr:postcode" v="2100"/>
    <tag k="addr:street" v="Szabadság tér"/>
    <tag k="amenity" v="bank"/>
    <tag k="atm" v="yes"/>
    <tag k="bic" v="OKHBHUHB"/>
    <tag k="brand" v="K&amp;H"/>
    <tag k="import" v="osm_poi_matchmaker"/>
    <tag k="name" v="K&amp;H bank"/>
    <tag k="operator" v="K&amp;H Bank Zrt."/>
    <tag k="source" v="website"/>
    <tag k="source:date" v="2018-07-12"/>
    <tag k="website" v="https://www.kh.hu"/>
  </node>
  <!-- Original coordinates: POINT (47.657254 19.284904) -->
  <!-- Original tags: None -->
  <node action="modify" changeset="99999" id="-57" lat="47.657254" lon="19.284904" timestamp="" uid="4579407" user="KAMI" version="99999">
    <tag k="addr:city" v="Veresegyház"/>
    <tag k="addr:housenumber" v="39"/>
    <tag k="addr:postcode" v="2112"/>
    <tag k="addr:street" v="Fő út"/>
    <tag k="amenity" v="bank"/>
    <tag k="atm" v="yes"/>
    <tag k="bic" v="OKHBHUHB"/>
    <tag k="brand" v="K&amp;H"/>
    <tag k="import" v="osm_poi_matchmaker"/>
    <tag k="name" v="K&amp;H bank"/>
    <tag k="operator" v="K&amp;H Bank Zrt."/>
    <tag k="source" v="website"/>
    <tag k="source:date" v="2018-07-12"/>
    <tag k="website" v="https://www.kh.hu"/>
  </node>
  <!-- OSM link: https://osm.org/node/3470089268 -->
  <!-- Original coordinates: POINT (47.63123 19.128654) -->
  <!-- Original tags: {'source:date': '2013-06-23', 'amenity': 'bank', 'source': 'turistautak.hu', 'name': 'K&H Bank', 'url': 'http://turistautak.hu/poi.php?id=155420'} -->
  <node action="modify" changeset="1" id="3470089268" lat="47.63123" lon="19.128654" timestamp="2015-04-21T19:08:05Z" uid="4579407" user="KAMI" version="1">
    <tag k="addr:city" v="Dunakeszi"/>
    <tag k="addr:housenumber" v="31"/>
    <tag k="addr:postcode" v="2120"/>
    <tag k="addr:street" v="Fő út"/>
    <tag k="amenity" v="bank"/>
    <tag k="atm" v="yes"/>
    <tag k="bic" v="OKHBHUHB"/>
    <tag k="brand" v="K&amp;H"/>
    <tag k="import" v="osm_poi_matchmaker"/>
    <tag k="name" v="K&amp;H bank"/>
    <tag k="operator" v="K&amp;H Bank Zrt."/>
    <tag k="source" v="website"/>
    <tag k="source:date" v="2018-07-12"/>
    <tag k="url" v="http://turistautak.hu/poi.php?id=155420"/>
    <tag k="website" v="https://www.kh.hu"/>
  </node>
  <!-- OSM link: https://osm.org/node/3384503545 -->
  <!-- Original coordinates: POINT (47.678592 19.13333) -->
  <!-- Original tags: {'amenity': 'bank', 'opening_hours': '24/7', 'name': 'K&H'} -->
  <node action="modify" changeset="1" id="3384503545" lat="47.678592" lon="19.13333" timestamp="2015-08-11T23:37:34Z" uid="4579407" user="KAMI" version="2">
    <tag k="addr:city" v="Göd"/>
    <tag k="addr:housenumber" v="46"/>
    <tag k="addr:postcode" v="2131"/>
    <tag k="addr:street" v="Pesti út"/>
    <tag k="amenity" v="bank"/>
    <tag k="atm" v="yes"/>
    <tag k="bic" v="OKHBHUHB"/>
    <tag k="brand" v="K&amp;H"/>
    <tag k="import" v="osm_poi_matchmaker"/>
    <tag k="name" v="K&amp;H bank"/>
    <tag k="opening_hours" v="24/7"/>
    <tag k="operator" v="K&amp;H Bank Zrt."/>
    <tag k="source" v="website"/>
    <tag k="source:date" v="2018-07-12"/>
    <tag k="website" v="https://www.kh.hu"/>
  </node>
  <!-- Original coordinates: POINT (47.610952 19.193867) -->
  <!-- Original tags: None -->
  <node action="modify" changeset="99999" id="-60" lat="47.610952" lon="19.193867" timestamp="" uid="4579407" user="KAMI" version="99999">
    <tag k="addr:city" v="Fót"/>
    <tag k="addr:housenumber" v="18"/>
    <tag k="addr:postcode" v="2151"/>
    <tag k="addr:street" v="Dózsa György út"/>
    <tag k="amenity" v="bank"/>
    <tag k="atm" v="yes"/>
    <tag k="bic" v="OKHBHUHB"/>
    <tag k="brand" v="K&amp;H"/>
    <tag k="import" v="osm_poi_matchmaker"/>
    <tag k="name" v="K&amp;H bank"/>
    <tag k="operator" v="K&amp;H Bank Zrt."/>
    <tag k="source" v="website"/>
    <tag k="source:date" v="2018-07-12"/>
    <tag k="website" v="https://www.kh.hu"/>
  </node>
  <!-- OSM link: https://osm.org/node/4799784477 -->
  <!-- Original coordinates: POINT (47.651317 19.478429) -->
  <!-- Original tags: {'atm': 'yes', 'amenity': 'bank', 'name': 'K&H Bank'} -->
  <node action="modify" changeset="1" id="4799784477" lat="47.651317" lon="19.478429" timestamp="2017-04-17T20:57:55Z" uid="4579407" user="KAMI" version="1">
    <tag k="addr:city" v="Aszód"/>
    <tag k="addr:housenumber" v="27"/>
    <tag k="addr:postcode" v="2170"/>
    <tag k="addr:street" v="Kossuth Lajos út"/>
    <tag k="amenity" v="bank"/>
    <tag k="atm" v="yes"/>
    <tag k="bic" v="OKHBHUHB"/>
    <tag k="brand" v="K&amp;H"/>
    <tag k="import" v="osm_poi_matchmaker"/>
    <tag k="name" v="K&amp;H bank"/>
    <tag k="operator" v="K&amp;H Bank Zrt."/>
    <tag k="source" v="website"/>
    <tag k="source:date" v="2018-07-12"/>
    <tag k="website" v="https://www.kh.hu"/>
  </node>
  <!-- Original coordinates: POINT (47.351381 19.445375) -->
  <!-- Original tags: None -->
  <node action="modify" changeset="99999" id="-62" lat="47.351381" lon="19.445375" timestamp="" uid="4579407" user="KAMI" version="99999">
    <tag k="addr:city" v="Monor"/>
    <tag k="addr:housenumber" v="71/a"/>
    <tag k="addr:postcode" v="2200"/>
    <tag k="addr:street" v="Kossuth Lajos utca"/>
    <tag k="amenity" v="bank"/>
    <tag k="atm" v="yes"/>
    <tag k="bic" v="OKHBHUHB"/>
    <tag k="brand" v="K&amp;H"/>
    <tag k="import" v="osm_poi_matchmaker"/>
    <tag k="name" v="K&amp;H bank"/>
    <tag k="operator" v="K&amp;H Bank Zrt."/>
    <tag k="source" v="website"/>
    <tag k="source:date" v="2018-07-12"/>
    <tag k="website" v="https://www.kh.hu"/>
  </node>
  <!-- OSM link: https://osm.org/node/2935684625 -->
  <!-- Original coordinates: POINT (47.413805 19.263971) -->
  <!-- Original tags: {'website': 'https://www.kh.hu', 'atm': 'yes', 'amenity': 'bank', 'brand': 'K&H Bank', 'name': 'K&H Bank'} -->
  <node action="modify" changeset="1" id="2935684625" lat="47.413805" lon="19.263971" timestamp="2017-03-12T22:54:32Z" uid="4579407" user="KAMI" version="3">
    <tag k="addr:city" v="Vecsés"/>
    <tag k="addr:housenumber" v="183"/>
    <tag k="addr:postcode" v="2220"/>
    <tag k="addr:street" v="Fő út"/>
    <tag k="amenity" v="bank"/>
    <tag k="atm" v="yes"/>
    <tag k="bic" v="OKHBHUHB"/>
    <tag k="brand" v="K&amp;H"/>
    <tag k="import" v="osm_poi_matchmaker"/>
    <tag k="name" v="K&amp;H bank"/>
    <tag k="operator" v="K&amp;H Bank Zrt."/>
    <tag k="source" v="website"/>
    <tag k="source:date" v="2018-07-12"/>
    <tag k="website" v="https://www.kh.hu"/>
  </node>
  <!-- OSM link: https://osm.org/way/337173446 -->
  <!-- Original coordinates: POINT (47.421692 19.392549) -->
  <!-- Original tags: {'building': 'yes', 'amenity': 'bank', 'operator': 'Kereskedelmi és Hitel Bank', 'addr:street': 'Szent István út', 'addr:housenumber': '20', 'addr:city': 'Gyömrő', 'atm': 'yes', 'addr:postcode': '2230', 'name': 'K&H fiók és ATM'} -->
  <way action="modify" changeset="1" id="337173446" timestamp="2015-04-07T12:48:10Z" uid="4579407" user="KAMI" version="2">
    <nd ref="3442720244"/>
    <nd ref="3442720245"/>
    <nd ref="3442720246"/>
    <nd ref="3442720318"/>
    <nd ref="3442720247"/>
    <nd ref="3442720244"/>
    <tag k="addr:city" v="Gyömrő"/>
    <tag k="addr:housenumber" v="20/a"/>
    <tag k="addr:postcode" v="2230"/>
    <tag k="addr:street" v="Szent István út"/>
    <tag k="amenity" v="bank"/>
    <tag k="atm" v="yes"/>
    <tag k="bic" v="OKHBHUHB"/>
    <tag k="brand" v="K&amp;H"/>
    <tag k="building" v="yes"/>
    <tag k="import" v="osm_poi_matchmaker"/>
    <tag k="name" v="K&amp;H bank"/>
    <tag k="operator" v="K&amp;H Bank Zrt."/>
    <tag k="source" v="website"/>
    <tag k="source:date" v="2018-07-12"/>
    <tag k="website" v="https://www.kh.hu"/>
  </way>
  <!-- OSM link: https://osm.org/node/3260325662 -->
  <!-- Original coordinates: POINT (47.158374 18.944536) -->
  <!-- Original tags: {'website': 'https://www.kh.hu', 'brand': 'K&H Bank', 'amenity': 'bank', 'name': 'K&H Bank', 'phone': '+36 24 523-280'} -->
  <node action="modify" changeset="1" id="3260325662" lat="47.158374" lon="18.944536" timestamp="2018-02-18T15:55:01Z" uid="4579407" user="KAMI" version="3">
    <tag k="addr:city" v="Ráckeve"/>
    <tag k="addr:housenumber" v="7"/>
    <tag k="addr:postcode" v="2300"/>
    <tag k="addr:street" v="Móricz Zsigmond utca"/>
    <tag k="amenity" v="bank"/>
    <tag k="atm" v="yes"/>
    <tag k="bic" v="OKHBHUHB"/>
    <tag k="brand" v="K&amp;H"/>
    <tag k="import" v="osm_poi_matchmaker"/>
    <tag k="name" v="K&amp;H bank"/>
    <tag k="operator" v="K&amp;H Bank Zrt."/>
    <tag k="phone" v="+36 24 523-280"/>
    <tag k="source" v="website"/>
    <tag k="source:date" v="2018-07-12"/>
    <tag k="website" v="https://www.kh.hu"/>
  </node>
  <!-- OSM link: https://osm.org/node/1654296162 -->
  <!-- Original coordinates: POINT (47.342273 19.040905) -->
  <!-- Original tags: {'website': 'https://www.otpbank.hu', 'wheelchair': 'yes', 'amenity': 'bank', 'atm': 'yes', 'brand': 'OTP Bank', 'name': 'OTP Bank'} -->
  <node action="modify" changeset="1" id="1654296162" lat="47.342273" lon="19.040905" timestamp="2015-12-02T18:16:55Z" uid="4579407" user="KAMI" version="5">
    <tag k="addr:city" v="Szigetszentmiklós"/>
    <tag k="addr:housenumber" v="16"/>
    <tag k="addr:postcode" v="2310"/>
    <tag k="addr:street" v="Ifjúság utca"/>
    <tag k="amenity" v="bank"/>
    <tag k="atm" v="yes"/>
    <tag k="bic" v="OKHBHUHB"/>
    <tag k="brand" v="K&amp;H"/>
    <tag k="import" v="osm_poi_matchmaker"/>
    <tag k="name" v="K&amp;H bank"/>
    <tag k="operator" v="K&amp;H Bank Zrt."/>
    <tag k="source" v="website"/>
    <tag k="source:date" v="2018-07-12"/>
    <tag k="website" v="https://www.kh.hu"/>
    <tag k="wheelchair" v="yes"/>
  </node>
  <!-- OSM link: https://osm.org/node/3755995702 -->
  <!-- Original coordinates: POINT (47.353999 19.09152) -->
  <!-- Original tags: {'amenity': 'bank', 'opening_hours': 'Mo 08:00-17:00; Tu-Th 08:00-16:00; Fr 08:00-15:00; PH closed', 'addr:housenumber': '47', 'drive_through': 'no', 'atm': 'yes', 'addr:city': 'Dunaharaszti', 'operator': 'K&H Bank', 'phone': '+36 24 526 180', 'fax': '+36 24 526 190', 'addr:postcode': '2330', 'addr:street': 'Dózsa György utca', 'name': 'K&H Bank'} -->
  <node action="modify" changeset="1" id="3755995702" lat="47.353999" lon="19.09152" timestamp="2018-02-17T21:41:11Z" uid="4579407" user="KAMI" version="4">
    <tag k="addr:city" v="Dunaharaszti"/>
    <tag k="addr:housenumber" v="47"/>
    <tag k="addr:postcode" v="2330"/>
    <tag k="addr:street" v="Dózsa György út"/>
    <tag k="amenity" v="bank"/>
    <tag k="atm" v="yes"/>
    <tag k="bic" v="OKHBHUHB"/>
    <tag k="brand" v="K&amp;H"/>
    <tag k="drive_through" v="no"/>
    <tag k="fax" v="+36 24 526 190"/>
    <tag k="import" v="osm_poi_matchmaker"/>
    <tag k="name" v="K&amp;H bank"/>
    <tag k="opening_hours" v="Mo 08:00-17:00; Tu-Th 08:00-16:00; Fr 08:00-15:00; PH closed"/>
    <tag k="operator" v="K&amp;H Bank Zrt."/>
    <tag k="phone" v="+36 24 526 180"/>
    <tag k="source" v="website"/>
    <tag k="source:date" v="2018-07-12"/>
    <tag k="website" v="https://www.kh.hu"/>
  </node>
  <!-- Original coordinates: POINT (47.188281 19.321595) -->
  <!-- Original tags: None -->
  <node action="modify" changeset="99999" id="-68" lat="47.188281" lon="19.321595" timestamp="" uid="4579407" user="KAMI" version="99999">
    <tag k="addr:city" v="Dabas"/>
    <tag k="addr:housenumber" v="2"/>
    <tag k="addr:postcode" v="2370"/>
    <tag k="addr:street" v="Szent István tér"/>
    <tag k="amenity" v="bank"/>
    <tag k="atm" v="yes"/>
    <tag k="bic" v="OKHBHUHB"/>
    <tag k="brand" v="K&amp;H"/>
    <tag k="import" v="osm_poi_matchmaker"/>
    <tag k="name" v="K&amp;H bank"/>
    <tag k="operator" v="K&amp;H Bank Zrt."/>
    <tag k="source" v="website"/>
    <tag k="source:date" v="2018-07-12"/>
    <tag k="website" v="https://www.kh.hu"/>
  </node>
  <!-- OSM link: https://osm.org/node/3454478608 -->
  <!-- Original coordinates: POINT (46.963634 18.940928) -->
  <!-- Original tags: {'source:date': '2013-01-19', 'amenity': 'bank', 'source': 'turistautak.hu', 'name': 'Raiffeisen Bank', 'url': 'http://turistautak.hu/poi.php?id=118023'} -->
  <node action="modify" changeset="1" id="3454478608" lat="46.963634" lon="18.940928" timestamp="2016-01-29T11:31:30Z" uid="4579407" user="KAMI" version="3">
    <tag k="addr:city" v="Dunaújváros"/>
    <tag k="addr:housenumber" v="39"/>
    <tag k="addr:postcode" v="2400"/>
    <tag k="addr:street" v="Vasmű út"/>
    <tag k="amenity" v="bank"/>
    <tag k="atm" v="yes"/>
    <tag k="bic" v="OKHBHUHB"/>
    <tag k="brand" v="K&amp;H"/>
    <tag k="import" v="osm_poi_matchmaker"/>
    <tag k="name" v="K&amp;H bank"/>
    <tag k="operator" v="K&amp;H Bank Zrt."/>
    <tag k="source" v="website"/>
    <tag k="source:date" v="2018-07-12"/>
    <tag k="url" v="http://turistautak.hu/poi.php?id=118023"/>
    <tag k="website" v="https://www.kh.hu"/>
  </node>
  <!-- Original coordinates: POINT (47.313236 18.788031) -->
  <!-- Original tags: None -->
  <node action="modify" changeset="99999" id="-70" lat="47.313236" lon="18.788031" timestamp="" uid="4579407" user="KAMI" version="99999">
    <tag k="addr:city" v="Martonvásár"/>
    <tag k="addr:housenumber" v="1/a"/>
    <tag k="addr:postcode" v="2462"/>
    <tag k="addr:street" v="Fehérvár utca"/>
    <tag k="amenity" v="bank"/>
    <tag k="atm" v="yes"/>
    <tag k="bic" v="OKHBHUHB"/>
    <tag k="brand" v="K&amp;H"/>
    <tag k="import" v="osm_poi_matchmaker"/>
    <tag k="name" v="K&amp;H bank"/>
    <tag k="operator" v="K&amp;H Bank Zrt."/>
    <tag k="source" v="website"/>
    <tag k="source:date" v="2018-07-12"/>
    <tag k="website" v="https://www.kh.hu"/>
  </node>
  <!-- OSM link: https://osm.org/node/282958053 -->
  <!-- Original coordinates: POINT (47.207513 18.627994) -->
  <!-- Original tags: {'atm': 'yes', 'wheelchair': 'yes', 'amenity': 'bank', 'toilets:wheelchair': 'no', 'name': 'K&H'} -->
  <node action="modify" changeset="1" id="282958053" lat="47.207513" lon="18.627994" timestamp="2017-01-12T10:23:49Z" uid="4579407" user="KAMI" version="3">
    <tag k="addr:city" v="Gárdony"/>
    <tag k="addr:housenumber" v="5"/>
    <tag k="addr:postcode" v="2483"/>
    <tag k="addr:street" v="Szabadság utca"/>
    <tag k="amenity" v="bank"/>
    <tag k="atm" v="yes"/>
    <tag k="bic" v="OKHBHUHB"/>
    <tag k="brand" v="K&amp;H"/>
    <tag k="import" v="osm_poi_matchmaker"/>
    <tag k="name" v="K&amp;H bank"/>
    <tag k="operator" v="K&amp;H Bank Zrt."/>
    <tag k="source" v="website"/>
    <tag k="source:date" v="2018-07-12"/>
    <tag k="toilets:wheelchair" v="no"/>
    <tag k="website" v="https://www.kh.hu"/>
    <tag k="wheelchair" v="yes"/>
  </node>
  <!-- OSM link: https://osm.org/way/399322459 -->
  <!-- Original coordinates: POINT (47.793257 18.74195) -->
  <!-- Original tags: {'building': 'retail', 'amenity': 'bank', 'name': 'K&H Bank'} -->
  <way action="modify" changeset="1" id="399322459" timestamp="2018-03-11T14:19:50Z" uid="4579407" user="KAMI" version="5">
    <nd ref="4020576355"/>
    <nd ref="4020576356"/>
    <nd ref="4020576357"/>
    <nd ref="5111706551"/>
    <nd ref="4020576358"/>
    <nd ref="4020576359"/>
    <nd ref="5111706560"/>
    <nd ref="4020576355"/>
    <tag k="addr:city" v="Esztergom"/>
    <tag k="addr:housenumber" v="1-3"/>
    <tag k="addr:postcode" v="2500"/>
    <tag k="addr:street" v="Rákóczi tér"/>
    <tag k="amenity" v="bank"/>
    <tag k="atm" v="yes"/>
    <tag k="bic" v="OKHBHUHB"/>
    <tag k="brand" v="K&amp;H"/>
    <tag k="building" v="retail"/>
    <tag k="import" v="osm_poi_matchmaker"/>
    <tag k="name" v="K&amp;H bank"/>
    <tag k="operator" v="K&amp;H Bank Zrt."/>
    <tag k="source" v="website"/>
    <tag k="source:date" v="2018-07-12"/>
    <tag k="website" v="https://www.kh.hu"/>
  </way>
  <!-- OSM link: https://osm.org/node/3454423000 -->
  <!-- Original coordinates: POINT (47.717698 18.732752) -->
  <!-- Original tags: {'source:date': '2011-02-25', 'amenity': 'bank', 'name': 'K&H Bank', 'description': 'Dorogi K&H bank és ATM.', 'atm': 'yes', 'source': 'turistautak.hu', 'url': 'http://turistautak.hu/poi.php?id=65348'} -->
  <node action="modify" changeset="1" id="3454423000" lat="47.717698" lon="18.732752" timestamp="2015-04-13T18:52:00Z" uid="4579407" user="KAMI" version="1">
    <tag k="addr:city" v="Dorog"/>
    <tag k="addr:housenumber" v="45"/>
    <tag k="addr:postcode" v="2510"/>
    <tag k="addr:street" v="Bécsi út"/>
    <tag k="amenity" v="bank"/>
    <tag k="atm" v="yes"/>
    <tag k="bic" v="OKHBHUHB"/>
    <tag k="brand" v="K&amp;H"/>
    <tag k="description" v="Dorogi K&amp;H bank és ATM."/>
    <tag k="import" v="osm_poi_matchmaker"/>
    <tag k="name" v="K&amp;H bank"/>
    <tag k="operator" v="K&amp;H Bank Zrt."/>
    <tag k="source" v="website"/>
    <tag k="source:date" v="2018-07-12"/>
    <tag k="url" v="http://turistautak.hu/poi.php?id=65348"/>
    <tag k="website" v="https://www.kh.hu"/>
  </node>
  <!-- OSM link: https://osm.org/node/4274305389 -->
  <!-- Original coordinates: POINT (47.781352 19.1319) -->
  <!-- Original tags: {'amenity': 'bank', 'name': 'K&H Bank'} -->
  <node action="modify" changeset="1" id="4274305389" lat="47.781352" lon="19.1319" timestamp="2016-06-30T20:44:40Z" uid="4579407" user="KAMI" version="1">
    <tag k="addr:city" v="Vác"/>
    <tag k="addr:housenumber" v="34"/>
    <tag k="addr:postcode" v="2600"/>
    <tag k="addr:street" v="Széchenyi utca"/>
    <tag k="amenity" v="bank"/>
    <tag k="atm" v="yes"/>
    <tag k="bic" v="OKHBHUHB"/>
    <tag k="brand" v="K&amp;H"/>
    <tag k="import" v="osm_poi_matchmaker"/>
    <tag k="name" v="K&amp;H bank"/>
    <tag k="operator" v="K&amp;H Bank Zrt."/>
    <tag k="source" v="website"/>
    <tag k="source:date" v="2018-07-12"/>
    <tag k="website" v="https://www.kh.hu"/>
  </node>
  <!-- Original coordinates: POINT (48.079834 19.29816) -->
  <!-- Original tags: None -->
  <node action="modify" changeset="99999" id="-75" lat="48.079834" lon="19.29816" timestamp="" uid="4579407" user="KAMI" version="99999">
    <tag k="addr:city" v="Balassagyarmat"/>
    <tag k="addr:housenumber" v="46"/>
    <tag k="addr:postcode" v="2660"/>
    <tag k="addr:street" v="Rákóczi fejedelem út"/>
    <tag k="amenity" v="bank"/>
    <tag k="atm" v="yes"/>
    <tag k="bic" v="OKHBHUHB"/>
    <tag k="brand" v="K&amp;H"/>
    <tag k="import" v="osm_poi_matchmaker"/>
    <tag k="name" v="K&amp;H bank"/>
    <tag k="operator" v="K&amp;H Bank Zrt."/>
    <tag k="source" v="website"/>
    <tag k="source:date" v="2018-07-12"/>
    <tag k="website" v="https://www.kh.hu"/>
  </node>
  <!-- OSM link: https://osm.org/node/2450604563 -->
  <!-- Original coordinates: POINT (47.171308 19.797733) -->
  <!-- Original tags: {'atm': 'yes', 'amenity': 'bank', 'name': 'Budapest Bank'} -->
  <node action="modify" changeset="1" id="2450604563" lat="47.171308" lon="19.797733" timestamp="2013-09-08T14:59:10Z" uid="4579407" user="KAMI" version="1">
    <tag k="addr:city" v="Cegléd"/>
    <tag k="addr:housenumber" v="1"/>
    <tag k="addr:postcode" v="2700"/>
    <tag k="addr:street" v="Szabadság tér"/>
    <tag k="amenity" v="bank"/>
    <tag k="atm" v="yes"/>
    <tag k="bic" v="OKHBHUHB"/>
    <tag k="brand" v="K&amp;H"/>
    <tag k="import" v="osm_poi_matchmaker"/>
    <tag k="name" v="K&amp;H bank"/>
    <tag k="operator" v="K&amp;H Bank Zrt."/>
    <tag k="source" v="website"/>
    <tag k="source:date" v="2018-07-12"/>
    <tag k="website" v="https://www.kh.hu"/>
  </node>
  <!-- Original coordinates: POINT (47.033026 19.781191) -->
  <!-- Original tags: None -->
  <node action="modify" changeset="99999" id="-77" lat="47.033026" lon="19.781191" timestamp="" uid="4579407" user="KAMI" version="99999">
    <tag k="addr:city" v="Nagykőrös"/>
    <tag k="addr:housenumber" v="1"/>
    <tag k="addr:postcode" v="2750"/>
    <tag k="addr:street" v="Deák tér"/>
    <tag k="amenity" v="bank"/>
    <tag k="atm" v="yes"/>
    <tag k="bic" v="OKHBHUHB"/>
    <tag k="brand" v="K&amp;H"/>
    <tag k="import" v="osm_poi_matchmaker"/>
    <tag k="name" v="K&amp;H bank"/>
    <tag k="operator" v="K&amp;H Bank Zrt."/>
    <tag k="source" v="website"/>
    <tag k="source:date" v="2018-07-12"/>
    <tag k="website" v="https://www.kh.hu"/>
  </node>
  <!-- OSM link: https://osm.org/node/1975866241 -->
  <!-- Original coordinates: POINT (47.580454 18.399673) -->
  <!-- Original tags: {'amenity': 'bank', 'addr:street': 'Szent Borbála tér', 'name:it': 'Unicredit', 'website': 'https://www.unicreditbank.hu/', 'atm': 'yes', 'addr:postcode': '2800', 'brand': 'UniCredit Bank', 'name': 'UniCredit Bank'} -->
  <node action="modify" changeset="1" id="1975866241" lat="47.580454" lon="18.399673" timestamp="2018-01-02T17:25:58Z" uid="4579407" user="KAMI" version="5">
    <tag k="addr:city" v="Tatabánya"/>
    <tag k="addr:housenumber" v="2"/>
    <tag k="addr:postcode" v="2800"/>
    <tag k="addr:street" v="Szent Borbála tér"/>
    <tag k="amenity" v="bank"/>
    <tag k="atm" v="yes"/>
    <tag k="bic" v="OKHBHUHB"/>
    <tag k="brand" v="K&amp;H"/>
    <tag k="import" v="osm_poi_matchmaker"/>
    <tag k="name" v="K&amp;H bank"/>
    <tag k="name:it" v="Unicredit"/>
    <tag k="operator" v="K&amp;H Bank Zrt."/>
    <tag k="source" v="website"/>
    <tag k="source:date" v="2018-07-12"/>
    <tag k="website" v="https://www.kh.hu"/>
  </node>
  <!-- OSM link: https://osm.org/node/3487700678 -->
  <!-- Original coordinates: POINT (47.488202 18.31669) -->
  <!-- Original tags: {'source:date': '2012-01-10', 'amenity': 'bank', 'name': 'K&H Bank', 'wheelchair': 'yes', 'source': 'turistautak.hu', 'url': 'http://turistautak.hu/poi.php?id=131830'} -->
  <node action="modify" changeset="1" id="3487700678" lat="47.488202" lon="18.31669" timestamp="2015-11-25T15:54:45Z" uid="4579407" user="KAMI" version="2">
    <tag k="addr:city" v="Oroszlány"/>
    <tag k="addr:housenumber" v="80"/>
    <tag k="addr:postcode" v="2840"/>
    <tag k="addr:street" v="Rákóczi út"/>
    <tag k="amenity" v="bank"/>
    <tag k="atm" v="yes"/>
    <tag k="bic" v="OKHBHUHB"/>
    <tag k="brand" v="K&amp;H"/>
    <tag k="import" v="osm_poi_matchmaker"/>
    <tag k="name" v="K&amp;H bank"/>
    <tag k="operator" v="K&amp;H Bank Zrt."/>
    <tag k="source" v="website"/>
    <tag k="source:date" v="2018-07-12"/>
    <tag k="url" v="http://turistautak.hu/poi.php?id=131830"/>
    <tag k="website" v="https://www.kh.hu"/>
    <tag k="wheelchair" v="yes"/>
  </node>
  <!-- Original coordinates: POINT (47.502496 18.025462) -->
  <!-- Original tags: None -->
  <node action="modify" changeset="99999" id="-80" lat="47.502496" lon="18.025462" timestamp="" uid="4579407" user="KAMI" version="99999">
    <tag k="addr:city" v="Kisbér"/>
    <tag k="addr:housenumber" v="5"/>
    <tag k="addr:postcode" v="2870"/>
    <tag k="addr:street" v="Kossuth Lajos utca"/>
    <tag k="amenity" v="bank"/>
    <tag k="atm" v="yes"/>
    <tag k="bic" v="OKHBHUHB"/>
    <tag k="brand" v="K&amp;H"/>
    <tag k="import" v="osm_poi_matchmaker"/>
    <tag k="name" v="K&amp;H bank"/>
    <tag k="operator" v="K&amp;H Bank Zrt."/>
    <tag k="source" v="website"/>
    <tag k="source:date" v="2018-07-12"/>
    <tag k="website" v="https://www.kh.hu"/>
  </node>
  <!-- OSM link: https://osm.org/node/3474633393 -->
  <!-- Original coordinates: POINT (47.651159 18.324704) -->
  <!-- Original tags: {'website': 'http://www.otp.hu/', 'amenity': 'bank', 'opening_hours': 'Mo 07:45-17:00; Tu-Fr 07:45-16:00', 'addr:street': 'Ady Endre utca', 'addr:housenumber': '1', 'addr:city': 'Tata', 'wheelchair:description': 'Bejárat szélessége: 0,95 m, nehezen nyíló;lépcső: 16-14-15 cm, szél.: 3,00 m;rámpa: 5,20 m hosszú, 1,50 m szél.;kb. 8,6% lejtésű, 2 oldali korlát;az ak. parkoló messze (kb. 50 m);az ajtón a kilincs 1,07 m m.;van lehetőség ak. ügyintézésre', 'addr:postcode': '2890', 'wheelchair': 'yes', 'name': 'OTP Bank'} -->
  <node action="modify" changeset="1" id="3474633393" lat="47.651159" lon="18.324704" timestamp="2016-03-03T12:51:58Z" uid="4579407" user="KAMI" version="4">
    <tag k="addr:city" v="Tata"/>
    <tag k="addr:housenumber" v="3"/>
    <tag k="addr:postcode" v="2890"/>
    <tag k="addr:street" v="Ady Endre utca"/>
    <tag k="amenity" v="bank"/>
    <tag k="atm" v="yes"/>
    <tag k="bic" v="OKHBHUHB"/>
    <tag k="brand" v="K&amp;H"/>
    <tag k="import" v="osm_poi_matchmaker"/>
    <tag k="name" v="K&amp;H bank"/>
    <tag k="opening_hours" v="Mo 07:45-17:00; Tu-Fr 07:45-16:00"/>
    <tag k="operator" v="K&amp;H Bank Zrt."/>
    <tag k="source" v="website"/>
    <tag k="source:date" v="2018-07-12"/>
    <tag k="website" v="https://www.kh.hu"/>
    <tag k="wheelchair" v="yes"/>
    <tag k="wheelchair:description" v="Bejárat szélessége: 0,95 m, nehezen nyíló;lépcső: 16-14-15 cm, szél.: 3,00 m;rámpa: 5,20 m hosszú, 1,50 m szél.;kb. 8,6% lejtésű, 2 oldali korlát;az ak. parkoló messze (kb. 50 m);az ajtón a kilincs 1,07 m m.;van lehetőség ak. ügyintézésre"/>
  </node>
  <!-- Original coordinates: POINT (47.743534 18.118264) -->
  <!-- Original tags: None -->
  <node action="modify" changeset="99999" id="-82" lat="47.743534" lon="18.118264" timestamp="" uid="4579407" user="KAMI" version="99999">
    <tag k="addr:city" v="Komárom"/>
    <tag k="addr:housenumber" v="3"/>
    <tag k="addr:postcode" v="2900"/>
    <tag k="addr:street" v="Klapka György utca"/>
    <tag k="amenity" v="bank"/>
    <tag k="atm" v="yes"/>
    <tag k="bic" v="OKHBHUHB"/>
    <tag k="brand" v="K&amp;H"/>
    <tag k="import" v="osm_poi_matchmaker"/>
    <tag k="name" v="K&amp;H bank"/>
    <tag k="operator" v="K&amp;H Bank Zrt."/>
    <tag k="source" v="website"/>
    <tag k="source:date" v="2018-07-12"/>
    <tag k="website" v="https://www.kh.hu"/>
  </node>
  <!-- OSM link: https://osm.org/node/1941093319 -->
  <!-- Original coordinates: POINT (47.709377 18.014248) -->
  <!-- Original tags: {'amenity': 'bank', 'name': 'Takarék Bank', 'addr:street': 'Posta köz', 'addr:housenumber': '2', 'addr:city': 'Ács', 'atm': 'yes', 'addr:postcode': '2941', 'addr:country': 'HU'} -->
  <node action="modify" changeset="1" id="1941093319" lat="47.709377" lon="18.014248" timestamp="2018-06-02T12:09:02Z" uid="4579407" user="KAMI" version="4">
    <tag k="addr:city" v="Ács"/>
    <tag k="addr:country" v="HU"/>
    <tag k="addr:housenumber" v="9"/>
    <tag k="addr:postcode" v="2941"/>
    <tag k="addr:street" v="Fő út"/>
    <tag k="amenity" v="bank"/>
    <tag k="atm" v="yes"/>
    <tag k="bic" v="OKHBHUHB"/>
    <tag k="brand" v="K&amp;H"/>
    <tag k="import" v="osm_poi_matchmaker"/>
    <tag k="name" v="K&amp;H bank"/>
    <tag k="operator" v="K&amp;H Bank Zrt."/>
    <tag k="source" v="website"/>
    <tag k="source:date" v="2018-07-12"/>
    <tag k="website" v="https://www.kh.hu"/>
  </node>
  <!-- OSM link: https://osm.org/node/4799784472 -->
  <!-- Original coordinates: POINT (47.667923 19.681215) -->
  <!-- Original tags: {'atm': 'yes', 'amenity': 'bank', 'name': 'K&H Bank'} -->
  <node action="modify" changeset="1" id="4799784472" lat="47.667923" lon="19.681215" timestamp="2017-04-17T20:57:55Z" uid="4579407" user="KAMI" version="1">
    <tag k="addr:city" v="Hatvan"/>
    <tag k="addr:housenumber" v="3-5"/>
    <tag k="addr:postcode" v="3000"/>
    <tag k="addr:street" v="Grassalkovich utca"/>
    <tag k="amenity" v="bank"/>
    <tag k="atm" v="yes"/>
    <tag k="bic" v="OKHBHUHB"/>
    <tag k="brand" v="K&amp;H"/>
    <tag k="import" v="osm_poi_matchmaker"/>
    <tag k="name" v="K&amp;H bank"/>
    <tag k="operator" v="K&amp;H Bank Zrt."/>
    <tag k="source" v="website"/>
    <tag k="source:date" v="2018-07-12"/>
    <tag k="website" v="https://www.kh.hu"/>
  </node>
  <!-- OSM link: https://osm.org/node/5618327171 -->
  <!-- Original coordinates: POINT (47.920213 19.697326) -->
  <!-- Original tags: {'atm': 'yes', 'amenity': 'bank', 'source': 'survey', 'name': 'K&H', 'survey:date': '2018-05-12'} -->
  <node action="modify" changeset="1" id="5618327171" lat="47.920213" lon="19.697326" timestamp="2018-05-14T20:40:46Z" uid="4579407" user="KAMI" version="1">
    <tag k="addr:city" v="Pásztó"/>
    <tag k="addr:housenumber" v="4"/>
    <tag k="addr:postcode" v="3060"/>
    <tag k="addr:street" v="Kölcsey út"/>
    <tag k="amenity" v="bank"/>
    <tag k="atm" v="yes"/>
    <tag k="bic" v="OKHBHUHB"/>
    <tag k="brand" v="K&amp;H"/>
    <tag k="import" v="osm_poi_matchmaker"/>
    <tag k="name" v="K&amp;H bank"/>
    <tag k="operator" v="K&amp;H Bank Zrt."/>
    <tag k="source" v="website"/>
    <tag k="source:date" v="2018-07-12"/>
    <tag k="survey:date" v="2018-05-12"/>
    <tag k="website" v="https://www.kh.hu"/>
  </node>
  <!-- OSM link: https://osm.org/node/3686955644 -->
  <!-- Original coordinates: POINT (48.104375 19.808052) -->
  <!-- Original tags: {'atm': 'yes', 'wheelchair': 'yes', 'amenity': 'bank', 'operator': 'K&H Bank Zrt.', 'name': 'K&H'} -->
  <node action="modify" changeset="1" id="3686955644" lat="48.104375" lon="19.808052" timestamp="2017-12-15T19:24:12Z" uid="4579407" user="KAMI" version="3">
    <tag k="addr:city" v="Salgótarján"/>
    <tag k="addr:housenumber" v="4"/>
    <tag k="addr:postcode" v="3100"/>
    <tag k="addr:street" v="Fő tér"/>
    <tag k="amenity" v="bank"/>
    <tag k="atm" v="yes"/>
    <tag k="bic" v="OKHBHUHB"/>
    <tag k="brand" v="K&amp;H"/>
    <tag k="import" v="osm_poi_matchmaker"/>
    <tag k="name" v="K&amp;H bank"/>
    <tag k="operator" v="K&amp;H Bank Zrt."/>
    <tag k="source" v="website"/>
    <tag k="source:date" v="2018-07-12"/>
    <tag k="website" v="https://www.kh.hu"/>
    <tag k="wheelchair" v="yes"/>
  </node>
  <!-- OSM link: https://osm.org/node/3468116051 -->
  <!-- Original coordinates: POINT (47.783473 19.926379) -->
  <!-- Original tags: {'contact:phone': '+36 37 505120', 'amenity': 'bank', 'name': 'K&H Bank', 'source:date': '2012-02-10', 'atm': 'yes', 'source': 'turistautak.hu', 'url': 'http://turistautak.hu/poi.php?id=133632'} -->
  <node action="modify" changeset="1" id="3468116051" lat="47.783473" lon="19.926379" timestamp="2017-12-28T22:20:47Z" uid="4579407" user="KAMI" version="3">
    <tag k="addr:city" v="Gyöngyös"/>
    <tag k="addr:housenumber" v="6"/>
    <tag k="addr:postcode" v="3200"/>
    <tag k="addr:street" v="Bugát Pál tér"/>
    <tag k="amenity" v="bank"/>
    <tag k="atm" v="yes"/>
    <tag k="bic" v="OKHBHUHB"/>
    <tag k="brand" v="K&amp;H"/>
    <tag k="contact:phone" v="+36 37 505120"/>
    <tag k="import" v="osm_poi_matchmaker"/>
    <tag k="name" v="K&amp;H bank"/>
    <tag k="operator" v="K&amp;H Bank Zrt."/>
    <tag k="source" v="website"/>
    <tag k="source:date" v="2018-07-12"/>
    <tag k="url" v="http://turistautak.hu/poi.php?id=133632"/>
    <tag k="website" v="https://www.kh.hu"/>
  </node>
  <!-- OSM link: https://osm.org/node/4274317490 -->
  <!-- Original coordinates: POINT (47.900345 20.370201) -->
  <!-- Original tags: {'amenity': 'bank', 'name': 'K&H Bank'} -->
  <node action="modify" changeset="1" id="4274317490" lat="47.900345" lon="20.370201" timestamp="2016-06-30T20:50:58Z" uid="4579407" user="KAMI" version="1">
    <tag k="addr:city" v="Eger"/>
    <tag k="addr:housenumber" v="3"/>
    <tag k="addr:postcode" v="3300"/>
    <tag k="addr:street" v="Barkóczy utca"/>
    <tag k="amenity" v="bank"/>
    <tag k="atm" v="yes"/>
    <tag k="bic" v="OKHBHUHB"/>
    <tag k="brand" v="K&amp;H"/>
    <tag k="import" v="osm_poi_matchmaker"/>
    <tag k="name" v="K&amp;H bank"/>
    <tag k="operator" v="K&amp;H Bank Zrt."/>
    <tag k="source" v="website"/>
    <tag k="source:date" v="2018-07-12"/>
    <tag k="website" v="https://www.kh.hu"/>
  </node>
  <!-- OSM link: https://osm.org/node/2229315647 -->
  <!-- Original coordinates: POINT (47.901207 20.374565) -->
  <!-- Original tags: {'website': 'https://www.kh.hu', 'brand': 'K&H Bank', 'amenity': 'bank', 'name': 'K&H Bank'} -->
  <node action="modify" changeset="1" id="2229315647" lat="47.901207" lon="20.374565" timestamp="2015-03-15T09:39:06Z" uid="4579407" user="KAMI" version="2">
    <tag k="addr:city" v="Eger"/>
    <tag k="addr:housenumber" v="4"/>
    <tag k="addr:postcode" v="3300"/>
    <tag k="addr:street" v="Széchenyi utca"/>
    <tag k="amenity" v="bank"/>
    <tag k="atm" v="yes"/>
    <tag k="bic" v="OKHBHUHB"/>
    <tag k="brand" v="K&amp;H"/>
    <tag k="import" v="osm_poi_matchmaker"/>
    <tag k="name" v="K&amp;H bank"/>
    <tag k="operator" v="K&amp;H Bank Zrt."/>
    <tag k="source" v="website"/>
    <tag k="source:date" v="2018-07-12"/>
    <tag k="website" v="https://www.kh.hu"/>
  </node>
  <!-- Original coordinates: POINT (47.593561 20.283407) -->
  <!-- Original tags: None -->
  <node action="modify" changeset="99999" id="-90" lat="47.593561" lon="20.283407" timestamp="" uid="4579407" user="KAMI" version="99999">
    <tag k="addr:city" v="Heves"/>
    <tag k="addr:housenumber" v="8"/>
    <tag k="addr:postcode" v="3360"/>
    <tag k="addr:street" v="Fő út"/>
    <tag k="amenity" v="bank"/>
    <tag k="atm" v="yes"/>
    <tag k="bic" v="OKHBHUHB"/>
    <tag k="brand" v="K&amp;H"/>
    <tag k="import" v="osm_poi_matchmaker"/>
    <tag k="name" v="K&amp;H bank"/>
    <tag k="operator" v="K&amp;H Bank Zrt."/>
    <tag k="source" v="website"/>
    <tag k="source:date" v="2018-07-12"/>
    <tag k="website" v="https://www.kh.hu"/>
  </node>
  <!-- Original coordinates: POINT (47.80764 20.566917) -->
  <!-- Original tags: None -->
  <node action="modify" changeset="99999" id="-91" lat="47.80764" lon="20.566917" timestamp="" uid="4579407" user="KAMI" version="99999">
    <tag k="addr:city" v="Mezőkövesd"/>
    <tag k="addr:housenumber" v="91-93"/>
    <tag k="addr:postcode" v="3400"/>
    <tag k="addr:street" v="Mátyás király utca"/>
    <tag k="amenity" v="bank"/>
    <tag k="atm" v="yes"/>
    <tag k="bic" v="OKHBHUHB"/>
    <tag k="brand" v="K&amp;H"/>
    <tag k="import" v="osm_poi_matchmaker"/>
    <tag k="name" v="K&amp;H bank"/>
    <tag k="operator" v="K&amp;H Bank Zrt."/>
    <tag k="source" v="website"/>
    <tag k="source:date" v="2018-07-12"/>
    <tag k="website" v="https://www.kh.hu"/>
  </node>
  <!-- Original coordinates: POINT (48.102825 20.78015) -->
  <!-- Original tags: None -->
  <node action="modify" changeset="99999" id="-92" lat="48.102825" lon="20.78015" timestamp="" uid="4579407" user="KAMI" version="99999">
    <tag k="addr:city" v="Miskolc"/>
    <tag k="addr:housenumber" v="3-9"/>
    <tag k="addr:postcode" v="3530"/>
    <tag k="addr:street" v="Széchenyi István út"/>
    <tag k="amenity" v="bank"/>
    <tag k="atm" v="yes"/>
    <tag k="bic" v="OKHBHUHB"/>
    <tag k="brand" v="K&amp;H"/>
    <tag k="import" v="osm_poi_matchmaker"/>
    <tag k="name" v="K&amp;H bank"/>
    <tag k="operator" v="K&amp;H Bank Zrt."/>
    <tag k="source" v="website"/>
    <tag k="source:date" v="2018-07-12"/>
    <tag k="website" v="https://www.kh.hu"/>
  </node>
  <!-- OSM link: https://osm.org/node/3437149517 -->
  <!-- Original coordinates: POINT (48.103041 20.790767) -->
  <!-- Original tags: {'source:date': '2013-12-02', 'amenity': 'bank', 'name': 'K&H Bank + ATM', 'atm': 'yes', 'source': 'turistautak.hu', 'url': 'http://turistautak.hu/poi.php?id=56490'} -->
  <node action="modify" changeset="1" id="3437149517" lat="48.103041" lon="20.790767" timestamp="2015-04-04T12:16:48Z" uid="4579407" user="KAMI" version="1">
    <tag k="addr:city" v="Miskolc"/>
    <tag k="addr:housenumber" v="88"/>
    <tag k="addr:postcode" v="3530"/>
    <tag k="addr:street" v="Széchenyi István út"/>
    <tag k="amenity" v="bank"/>
    <tag k="atm" v="yes"/>
    <tag k="bic" v="OKHBHUHB"/>
    <tag k="brand" v="K&amp;H"/>
    <tag k="import" v="osm_poi_matchmaker"/>
    <tag k="name" v="K&amp;H bank"/>
    <tag k="operator" v="K&amp;H Bank Zrt."/>
    <tag k="source" v="website"/>
    <tag k="source:date" v="2018-07-12"/>
    <tag k="url" v="http://turistautak.hu/poi.php?id=56490"/>
    <tag k="website" v="https://www.kh.hu"/>
  </node>
  <!-- OSM link: https://osm.org/node/2954290022 -->
  <!-- Original coordinates: POINT (47.930778 21.033954) -->
  <!-- Original tags: {'website': 'https://www.kh.hu', 'amenity': 'bank', 'addr:street': 'Szent István út', 'addr:housenumber': '4B', 'addr:city': 'Tiszaújváros', 'atm': 'yes', 'addr:postcode': '3580', 'brand': 'K&H Bank', 'name': 'K&H Bank'} -->
  <node action="modify" changeset="1" id="2954290022" lat="47.930778" lon="21.033954" timestamp="2015-03-15T09:39:06Z" uid="4579407" user="KAMI" version="8">
    <tag k="addr:city" v="Tiszaújváros"/>
    <tag k="addr:housenumber" v="4/b"/>
    <tag k="addr:postcode" v="3580"/>
    <tag k="addr:street" v="Szent István utca"/>
    <tag k="amenity" v="bank"/>
    <tag k="atm" v="yes"/>
    <tag k="bic" v="OKHBHUHB"/>
    <tag k="brand" v="K&amp;H"/>
    <tag k="import" v="osm_poi_matchmaker"/>
    <tag k="name" v="K&amp;H bank"/>
    <tag k="operator" v="K&amp;H Bank Zrt."/>
    <tag k="source" v="website"/>
    <tag k="source:date" v="2018-07-12"/>
    <tag k="website" v="https://www.kh.hu"/>
  </node>
  <!-- OSM link: https://osm.org/node/5270801808 -->
  <!-- Original coordinates: POINT (48.219328 20.284294) -->
  <!-- Original tags: {'amenity': 'bank', 'name': 'K&H Bank'} -->
  <node action="modify" changeset="1" id="5270801808" lat="48.219328" lon="20.284294" timestamp="2017-12-10T02:46:01Z" uid="4579407" user="KAMI" version="2">
    <tag k="addr:city" v="Ózd"/>
    <tag k="addr:housenumber" v="48"/>
    <tag k="addr:postcode" v="3600"/>
    <tag k="addr:street" v="Vasvár utca"/>
    <tag k="amenity" v="bank"/>
    <tag k="atm" v="yes"/>
    <tag k="bic" v="OKHBHUHB"/>
    <tag k="brand" v="K&amp;H"/>
    <tag k="import" v="osm_poi_matchmaker"/>
    <tag k="name" v="K&amp;H bank"/>
    <tag k="operator" v="K&amp;H Bank Zrt."/>
    <tag k="source" v="website"/>
    <tag k="source:date" v="2018-07-12"/>
    <tag k="website" v="https://www.kh.hu"/>
  </node>
  <!-- Original coordinates: POINT (48.251988 20.622337) -->
  <!-- Original tags: None -->
  <node action="modify" changeset="99999" id="-96" lat="48.251988" lon="20.622337" timestamp="" uid="4579407" user="KAMI" version="99999">
    <tag k="addr:city" v="Kazincbarcika"/>
    <tag k="addr:housenumber" v="46/a"/>
    <tag k="addr:postcode" v="3700"/>
    <tag k="addr:street" v="Egressy Béni út"/>
    <tag k="amenity" v="bank"/>
    <tag k="atm" v="yes"/>
    <tag k="bic" v="OKHBHUHB"/>
    <tag k="brand" v="K&amp;H"/>
    <tag k="import" v="osm_poi_matchmaker"/>
    <tag k="name" v="K&amp;H bank"/>
    <tag k="operator" v="K&amp;H Bank Zrt."/>
    <tag k="source" v="website"/>
    <tag k="source:date" v="2018-07-12"/>
    <tag k="website" v="https://www.kh.hu"/>
  </node>
  <!-- Original coordinates: POINT (48.333059 21.115392) -->
  <!-- Original tags: None -->
  <node action="modify" changeset="99999" id="-97" lat="48.333059" lon="21.115392" timestamp="" uid="4579407" user="KAMI" version="99999">
    <tag k="addr:city" v="Encs"/>
    <tag k="addr:housenumber" v="63-65"/>
    <tag k="addr:postcode" v="3860"/>
    <tag k="addr:street" v="Petőfi Sándor út"/>
    <tag k="amenity" v="bank"/>
    <tag k="atm" v="yes"/>
    <tag k="bic" v="OKHBHUHB"/>
    <tag k="brand" v="K&amp;H"/>
    <tag k="import" v="osm_poi_matchmaker"/>
    <tag k="name" v="K&amp;H bank"/>
    <tag k="operator" v="K&amp;H Bank Zrt."/>
    <tag k="source" v="website"/>
    <tag k="source:date" v="2018-07-12"/>
    <tag k="website" v="https://www.kh.hu"/>
  </node>
  <!-- OSM link: https://osm.org/node/2395184760 -->
  <!-- Original coordinates: POINT (48.32057 21.566981) -->
  <!-- Original tags: {'website': 'https://www.kh.hu', 'wheelchair': 'limited', 'amenity': 'bank', 'atm': 'yes', 'brand': 'K&H Bank', 'name': 'K&H Bank'} -->
  <node action="modify" changeset="1" id="2395184760" lat="48.32057" lon="21.566981" timestamp="2015-11-30T09:28:49Z" uid="4579407" user="KAMI" version="4">
    <tag k="addr:city" v="Sárospatak"/>
    <tag k="addr:housenumber" v="3"/>
    <tag k="addr:postcode" v="3950"/>
    <tag k="addr:street" v="Hild tér"/>
    <tag k="amenity" v="bank"/>
    <tag k="atm" v="yes"/>
    <tag k="bic" v="OKHBHUHB"/>
    <tag k="brand" v="K&amp;H"/>
    <tag k="import" v="osm_poi_matchmaker"/>
    <tag k="name" v="K&amp;H bank"/>
    <tag k="operator" v="K&amp;H Bank Zrt."/>
    <tag k="source" v="website"/>
    <tag k="source:date" v="2018-07-12"/>
    <tag k="website" v="https://www.kh.hu"/>
    <tag k="wheelchair" v="limited"/>
  </node>
  <!-- OSM link: https://osm.org/node/3608387490 -->
  <!-- Original coordinates: POINT (48.396803 21.655393) -->
  <!-- Original tags: {'atm': 'yes', 'amenity': 'bank', 'wheelchair': 'limited', 'name': 'Raiffeisen Bank'} -->
  <node action="modify" changeset="1" id="3608387490" lat="48.396803" lon="21.655393" timestamp="2016-09-27T09:31:13Z" uid="4579407" user="KAMI" version="3">
    <tag k="addr:city" v="Sátoraljaújhely"/>
    <tag k="addr:housenumber" v="3"/>
    <tag k="addr:postcode" v="3980"/>
    <tag k="addr:street" v="Petőfi utca"/>
    <tag k="amenity" v="bank"/>
    <tag k="atm" v="yes"/>
    <tag k="bic" v="OKHBHUHB"/>
    <tag k="brand" v="K&amp;H"/>
    <tag k="import" v="osm_poi_matchmaker"/>
    <tag k="name" v="K&amp;H bank"/>
    <tag k="operator" v="K&amp;H Bank Zrt."/>
    <tag k="source" v="website"/>
    <tag k="source:date" v="2018-07-12"/>
    <tag k="website" v="https://www.kh.hu"/>
    <tag k="wheelchair" v="limited"/>
  </node>
  <!-- OSM link: https://osm.org/node/3184420674 -->
  <!-- Original coordinates: POINT (47.526459 21.626586) -->
  <!-- Original tags: {'amenity': 'bank', 'wheelchair': 'yes', 'addr:street': 'Piac utca', 'website': 'https://www.kh.hu', 'brand': 'K&H Bank', 'addr:city': 'Debrecen', 'name': 'K&H Bank'} -->
  <node action="modify" changeset="1" id="3184420674" lat="47.526459" lon="21.626586" timestamp="2015-03-15T09:39:04Z" uid="4579407" user="KAMI" version="2">
    <tag k="addr:city" v="Debrecen"/>
    <tag k="addr:housenumber" v="52"/>
    <tag k="addr:postcode" v="4024"/>
    <tag k="addr:street" v="Piac utca"/>
    <tag k="amenity" v="bank"/>
    <tag k="atm" v="yes"/>
    <tag k="bic" v="OKHBHUHB"/>
    <tag k="brand" v="K&amp;H"/>
    <tag k="import" v="osm_poi_matchmaker"/>
    <tag k="name" v="K&amp;H bank"/>
    <tag k="operator" v="K&amp;H Bank Zrt."/>
    <tag k="source" v="website"/>
    <tag k="source:date" v="2018-07-12"/>
    <tag k="website" v="https://www.kh.hu"/>
    <tag k="wheelchair" v="yes"/>
  </node>
  <!-- Original coordinates: POINT (47.532632 21.626012) -->
  <!-- Original tags: None -->
  <node action="modify" changeset="99999" id="-101" lat="47.532632" lon="21.626012" timestamp="" uid="4579407" user="KAMI" version="99999">
    <tag k="addr:city" v="Debrecen"/>
    <tag k="addr:housenumber" v="8"/>
    <tag k="addr:postcode" v="4026"/>
    <tag k="addr:street" v="Kálvin tér"/>
    <tag k="amenity" v="bank"/>
    <tag k="atm" v="yes"/>
    <tag k="bic" v="OKHBHUHB"/>
    <tag k="brand" v="K&amp;H"/>
    <tag k="import" v="osm_poi_matchmaker"/>
    <tag k="name" v="K&amp;H bank"/>
    <tag k="operator" v="K&amp;H Bank Zrt."/>
    <tag k="source" v="website"/>
    <tag k="source:date" v="2018-07-12"/>
    <tag k="website" v="https://www.kh.hu"/>
  </node>
  <!-- Original coordinates: POINT (47.612794 21.34217) -->
  <!-- Original tags: None -->
  <node action="modify" changeset="99999" id="-102" lat="47.612794" lon="21.34217" timestamp="" uid="4579407" user="KAMI" version="99999">
    <tag k="addr:city" v="Balmazújváros"/>
    <tag k="addr:housenumber" v="1"/>
    <tag k="addr:postcode" v="4060"/>
    <tag k="addr:street" v="Kossuth tér"/>
    <tag k="amenity" v="bank"/>
    <tag k="atm" v="yes"/>
    <tag k="bic" v="OKHBHUHB"/>
    <tag k="brand" v="K&amp;H"/>
    <tag k="import" v="osm_poi_matchmaker"/>
    <tag k="name" v="K&amp;H bank"/>
    <tag k="operator" v="K&amp;H Bank Zrt."/>
    <tag k="source" v="website"/>
    <tag k="source:date" v="2018-07-12"/>
    <tag k="website" v="https://www.kh.hu"/>
  </node>
  <!-- Original coordinates: POINT (47.843121 21.428865) -->
  <!-- Original tags: None -->
  <node action="modify" changeset="99999" id="-103" lat="47.843121" lon="21.428865" timestamp="" uid="4579407" user="KAMI" version="99999">
    <tag k="addr:city" v="Hajdúnánás"/>
    <tag k="addr:housenumber" v="2"/>
    <tag k="addr:postcode" v="4080"/>
    <tag k="addr:street" v="Bocskai út"/>
    <tag k="amenity" v="bank"/>
    <tag k="atm" v="yes"/>
    <tag k="bic" v="OKHBHUHB"/>
    <tag k="brand" v="K&amp;H"/>
    <tag k="import" v="osm_poi_matchmaker"/>
    <tag k="name" v="K&amp;H bank"/>
    <tag k="operator" v="K&amp;H Bank Zrt."/>
    <tag k="source" v="website"/>
    <tag k="source:date" v="2018-07-12"/>
    <tag k="website" v="https://www.kh.hu"/>
  </node>
  <!-- OSM link: https://osm.org/node/3432034678 -->
  <!-- Original coordinates: POINT (47.220725 21.536162) -->
  <!-- Original tags: {'amenity': 'bank', 'source': 'turistautak.hu', 'name': 'K&H Bank', 'url': 'http://turistautak.hu/poi.php?id=54493'} -->
  <node action="modify" changeset="1" id="3432034678" lat="47.220725" lon="21.536162" timestamp="2015-04-02T19:49:04Z" uid="4579407" user="KAMI" version="1">
    <tag k="addr:city" v="Berettyóújfalu"/>
    <tag k="addr:housenumber" v="15-17"/>
    <tag k="addr:postcode" v="4100"/>
    <tag k="addr:street" v="Dózsa György út"/>
    <tag k="amenity" v="bank"/>
    <tag k="atm" v="yes"/>
    <tag k="bic" v="OKHBHUHB"/>
    <tag k="brand" v="K&amp;H"/>
    <tag k="import" v="osm_poi_matchmaker"/>
    <tag k="name" v="K&amp;H bank"/>
    <tag k="operator" v="K&amp;H Bank Zrt."/>
    <tag k="source" v="website"/>
    <tag k="source:date" v="2018-07-12"/>
    <tag k="url" v="http://turistautak.hu/poi.php?id=54493"/>
    <tag k="website" v="https://www.kh.hu"/>
  </node>
  <!-- OSM link: https://osm.org/node/3456352602 -->
  <!-- Original coordinates: POINT (47.315225 21.114432) -->
  <!-- Original tags: {'source:date': '2010-03-26', 'amenity': 'bank', 'name': 'K&H Bank', 'wheelchair': 'yes', 'source': 'turistautak.hu', 'url': 'http://turistautak.hu/poi.php?id=71425'} -->
  <node action="modify" changeset="1" id="3456352602" lat="47.315225" lon="21.114432" timestamp="2015-12-03T12:20:42Z" uid="4579407" user="KAMI" version="2">
    <tag k="addr:city" v="Püspökladány"/>
    <tag k="addr:housenumber" v="22"/>
    <tag k="addr:postcode" v="4150"/>
    <tag k="addr:street" v="Kossuth Lajos utca"/>
    <tag k="amenity" v="bank"/>
    <tag k="atm" v="yes"/>
    <tag k="bic" v="OKHBHUHB"/>
    <tag k="brand" v="K&amp;H"/>
    <tag k="import" v="osm_poi_matchmaker"/>
    <tag k="name" v="K&amp;H bank"/>
    <tag k="operator" v="K&amp;H Bank Zrt."/>
    <tag k="source" v="website"/>
    <tag k="source:date" v="2018-07-12"/>
    <tag k="url" v="http://turistautak.hu/poi.php?id=71425"/>
    <tag k="website" v="https://www.kh.hu"/>
    <tag k="wheelchair" v="yes"/>
  </node>
  <!-- OSM link: https://osm.org/way/323629560 -->
  <!-- Original coordinates: POINT (47.44638 21.394199) -->
  <!-- Original tags: {'amenity': 'bank', 'wheelchair': 'no', 'addr:housenumber': '10', 'atm': 'yes', 'addr:city': 'Hajdúszoboszló', 'toilets:wheelchair': 'no', 'building': 'yes', 'website': 'https://www.kh.hu', 'addr:street': 'Szilfákalja', 'addr:postcode': '4200', 'brand': 'K&H Bank', 'name': 'K&H Bank'} -->
  <way action="modify" changeset="1" id="323629560" timestamp="2017-02-09T15:23:22Z" uid="4579407" user="KAMI" version="5">
    <nd ref="3304099604"/>
    <nd ref="3304099605"/>
    <nd ref="3304099606"/>
    <nd ref="3304099607"/>
    <nd ref="3304099604"/>
    <tag k="addr:city" v="Hajdúszoboszló"/>
    <tag k="addr:housenumber" v="10-12"/>
    <tag k="addr:postcode" v="4200"/>
    <tag k="addr:street" v="Szilfákalja utca"/>
    <tag k="amenity" v="bank"/>
    <tag k="atm" v="yes"/>
    <tag k="bic" v="OKHBHUHB"/>
    <tag k="brand" v="K&amp;H"/>
    <tag k="building" v="yes"/>
    <tag k="import" v="osm_poi_matchmaker"/>
    <tag k="name" v="K&amp;H bank"/>
    <tag k="operator" v="K&amp;H Bank Zrt."/>
    <tag k="source" v="website"/>
    <tag k="source:date" v="2018-07-12"/>
    <tag k="toilets:wheelchair" v="no"/>
    <tag k="website" v="https://www.kh.hu"/>
    <tag k="wheelchair" v="no"/>
  </way>
  <!-- Original coordinates: POINT (47.671297 21.513277) -->
  <!-- Original tags: None -->
  <node action="modify" changeset="99999" id="-107" lat="47.671297" lon="21.513277" timestamp="" uid="4579407" user="KAMI" version="99999">
    <tag k="addr:city" v="Hajdúböszörmény"/>
    <tag k="addr:housenumber" v="14"/>
    <tag k="addr:postcode" v="4220"/>
    <tag k="addr:street" v="Korpona utca"/>
    <tag k="amenity" v="bank"/>
    <tag k="atm" v="yes"/>
    <tag k="bic" v="OKHBHUHB"/>
    <tag k="brand" v="K&amp;H"/>
    <tag k="import" v="osm_poi_matchmaker"/>
    <tag k="name" v="K&amp;H bank"/>
    <tag k="operator" v="K&amp;H Bank Zrt."/>
    <tag k="source" v="website"/>
    <tag k="source:date" v="2018-07-12"/>
    <tag k="website" v="https://www.kh.hu"/>
  </node>
  <!-- Original coordinates: POINT (47.835294 22.13012) -->
  <!-- Original tags: None -->
  <node action="modify" changeset="99999" id="-108" lat="47.835294" lon="22.13012" timestamp="" uid="4579407" user="KAMI" version="99999">
    <tag k="addr:city" v="Nyírbátor"/>
    <tag k="addr:housenumber" v="6"/>
    <tag k="addr:postcode" v="4300"/>
    <tag k="addr:street" v="Zrínyi Ilona út"/>
    <tag k="amenity" v="bank"/>
    <tag k="atm" v="yes"/>
    <tag k="bic" v="OKHBHUHB"/>
    <tag k="brand" v="K&amp;H"/>
    <tag k="import" v="osm_poi_matchmaker"/>
    <tag k="name" v="K&amp;H bank"/>
    <tag k="operator" v="K&amp;H Bank Zrt."/>
    <tag k="source" v="website"/>
    <tag k="source:date" v="2018-07-12"/>
    <tag k="website" v="https://www.kh.hu"/>
  </node>
  <!-- Original coordinates: POINT (47.95398 21.717496) -->
  <!-- Original tags: None -->
  <node action="modify" changeset="99999" id="-109" lat="47.95398" lon="21.717496" timestamp="" uid="4579407" user="KAMI" version="99999">
    <tag k="addr:city" v="Nyíregyháza"/>
    <tag k="addr:housenumber" v="3"/>
    <tag k="addr:postcode" v="4400"/>
    <tag k="addr:street" v="Luther utca"/>
    <tag k="amenity" v="bank"/>
    <tag k="atm" v="yes"/>
    <tag k="bic" v="OKHBHUHB"/>
    <tag k="brand" v="K&amp;H"/>
    <tag k="import" v="osm_poi_matchmaker"/>
    <tag k="name" v="K&amp;H bank"/>
    <tag k="operator" v="K&amp;H Bank Zrt."/>
    <tag k="source" v="website"/>
    <tag k="source:date" v="2018-07-12"/>
    <tag k="website" v="https://www.kh.hu"/>
  </node>
  <!-- OSM link: https://osm.org/node/2396801772 -->
  <!-- Original coordinates: POINT (47.955706 21.359475) -->
  <!-- Original tags: {'website': 'https://www.kh.hu', 'atm': 'yes', 'amenity': 'bank', 'brand': 'K&H Bank', 'name': 'K&H Bank'} -->
  <node action="modify" changeset="1" id="2396801772" lat="47.955706" lon="21.359475" timestamp="2015-03-15T09:39:07Z" uid="4579407" user="KAMI" version="2">
    <tag k="addr:city" v="Tiszavasvári"/>
    <tag k="addr:housenumber" v="17"/>
    <tag k="addr:postcode" v="4440"/>
    <tag k="addr:street" v="Kossuth Lajos utca"/>
    <tag k="amenity" v="bank"/>
    <tag k="atm" v="yes"/>
    <tag k="bic" v="OKHBHUHB"/>
    <tag k="brand" v="K&amp;H"/>
    <tag k="import" v="osm_poi_matchmaker"/>
    <tag k="name" v="K&amp;H bank"/>
    <tag k="operator" v="K&amp;H Bank Zrt."/>
    <tag k="source" v="website"/>
    <tag k="source:date" v="2018-07-12"/>
    <tag k="website" v="https://www.kh.hu"/>
  </node>
  <!-- Original coordinates: POINT (48.223486 22.076522) -->
  <!-- Original tags: None -->
  <node action="modify" changeset="99999" id="-111" lat="48.223486" lon="22.076522" timestamp="" uid="4579407" user="KAMI" version="99999">
    <tag k="addr:city" v="Kisvárda"/>
    <tag k="addr:housenumber" v="11"/>
    <tag k="addr:postcode" v="4600"/>
    <tag k="addr:street" v="Somogyi Rezső utca"/>
    <tag k="amenity" v="bank"/>
    <tag k="atm" v="yes"/>
    <tag k="bic" v="OKHBHUHB"/>
    <tag k="brand" v="K&amp;H"/>
    <tag k="import" v="osm_poi_matchmaker"/>
    <tag k="name" v="K&amp;H bank"/>
    <tag k="operator" v="K&amp;H Bank Zrt."/>
    <tag k="source" v="website"/>
    <tag k="source:date" v="2018-07-12"/>
    <tag k="website" v="https://www.kh.hu"/>
  </node>
  <!-- OSM link: https://osm.org/way/237799889 -->
  <!-- Original coordinates: POINT (47.954767 22.322943) -->
  <!-- Original tags: {'atm': 'yes', 'building': 'yes', 'amenity': 'bank'} -->
  <way action="modify" changeset="1" id="237799889" timestamp="2013-09-13T10:43:20Z" uid="4579407" user="KAMI" version="1">
    <nd ref="2456715959"/>
    <nd ref="2456715943"/>
    <nd ref="2456715956"/>
    <nd ref="2456715966"/>
    <nd ref="2456715959"/>
    <tag k="addr:city" v="Mátészalka"/>
    <tag k="addr:housenumber" v="1"/>
    <tag k="addr:postcode" v="4700"/>
    <tag k="addr:street" v="Kálvin tér"/>
    <tag k="amenity" v="bank"/>
    <tag k="atm" v="yes"/>
    <tag k="bic" v="OKHBHUHB"/>
    <tag k="brand" v="K&amp;H"/>
    <tag k="building" v="yes"/>
    <tag k="import" v="osm_poi_matchmaker"/>
    <tag k="name" v="K&amp;H bank"/>
    <tag k="operator" v="K&amp;H Bank Zrt."/>
    <tag k="source" v="website"/>
    <tag k="source:date" v="2018-07-12"/>
    <tag k="website" v="https://www.kh.hu"/>
  </way>
  <!-- Original coordinates: POINT (48.130748 22.31627) -->
  <!-- Original tags: None -->
  <node action="modify" changeset="99999" id="-113" lat="48.130748" lon="22.31627" timestamp="" uid="4579407" user="KAMI" version="99999">
    <tag k="addr:city" v="Vásárosnamény"/>
    <tag k="addr:housenumber" v="32"/>
    <tag k="addr:postcode" v="4800"/>
    <tag k="addr:street" v="Szabadság tér"/>
    <tag k="amenity" v="bank"/>
    <tag k="atm" v="yes"/>
    <tag k="bic" v="OKHBHUHB"/>
    <tag k="brand" v="K&amp;H"/>
    <tag k="import" v="osm_poi_matchmaker"/>
    <tag k="name" v="K&amp;H bank"/>
    <tag k="operator" v="K&amp;H Bank Zrt."/>
    <tag k="source" v="website"/>
    <tag k="source:date" v="2018-07-12"/>
    <tag k="website" v="https://www.kh.hu"/>
  </node>
  <!-- Original coordinates: POINT (47.988825 22.514101) -->
  <!-- Original tags: None -->
  <node action="modify" changeset="99999" id="-114" lat="47.988825" lon="22.514101" timestamp="" uid="4579407" user="KAMI" version="99999">
    <tag k="addr:city" v="Fehérgyarmat"/>
    <tag k="addr:housenumber" v="2"/>
    <tag k="addr:postcode" v="4900"/>
    <tag k="addr:street" v="Móricz Zsigmond utca"/>
    <tag k="amenity" v="bank"/>
    <tag k="atm" v="yes"/>
    <tag k="bic" v="OKHBHUHB"/>
    <tag k="brand" v="K&amp;H"/>
    <tag k="import" v="osm_poi_matchmaker"/>
    <tag k="name" v="K&amp;H bank"/>
    <tag k="operator" v="K&amp;H Bank Zrt."/>
    <tag k="source" v="website"/>
    <tag k="source:date" v="2018-07-12"/>
    <tag k="website" v="https://www.kh.hu"/>
  </node>
  <!-- OSM link: https://osm.org/node/3439428442 -->
  <!-- Original coordinates: POINT (47.173911 20.193582) -->
  <!-- Original tags: {'amenity': 'bank', 'opening_hours': 'Mo 08:00-17:00;Tu-Th 08:00-16:00;Fr 08:00-15:30', 'addr:street': 'Szapáry utca', 'operator': 'Raiffeisen', 'addr:housenumber': '20', 'addr:city': 'Szolnok', 'atm': 'yes', 'addr:postcode': '5000', 'wheelchair': 'yes', 'name': 'Raiffeisen bank'} -->
  <node action="modify" changeset="1" id="3439428442" lat="47.173911" lon="20.193582" timestamp="2017-07-27T14:06:17Z" uid="4579407" user="KAMI" version="4">
    <tag k="addr:city" v="Szolnok"/>
    <tag k="addr:housenumber" v="25-29"/>
    <tag k="addr:postcode" v="5000"/>
    <tag k="addr:street" v="Szapáry utca"/>
    <tag k="amenity" v="bank"/>
    <tag k="atm" v="yes"/>
    <tag k="bic" v="OKHBHUHB"/>
    <tag k="brand" v="K&amp;H"/>
    <tag k="import" v="osm_poi_matchmaker"/>
    <tag k="name" v="K&amp;H bank"/>
    <tag k="opening_hours" v="Mo 08:00-17:00;Tu-Th 08:00-16:00;Fr 08:00-15:30"/>
    <tag k="operator" v="K&amp;H Bank Zrt."/>
    <tag k="source" v="website"/>
    <tag k="source:date" v="2018-07-12"/>
    <tag k="website" v="https://www.kh.hu"/>
    <tag k="wheelchair" v="yes"/>
  </node>
  <!-- OSM link: https://osm.org/node/4806562789 -->
  <!-- Original coordinates: POINT (47.500375 19.913957) -->
  <!-- Original tags: {'atm': 'yes', 'amenity': 'bank', 'brand': 'Erste', 'name': 'Erste'} -->
  <node action="modify" changeset="1" id="4806562789" lat="47.500375" lon="19.913957" timestamp="2017-04-20T21:27:25Z" uid="4579407" user="KAMI" version="1">
    <tag k="addr:city" v="Jászberény"/>
    <tag k="addr:housenumber" v="1"/>
    <tag k="addr:postcode" v="5100"/>
    <tag k="addr:street" v="Szabadság tér"/>
    <tag k="amenity" v="bank"/>
    <tag k="atm" v="yes"/>
    <tag k="bic" v="OKHBHUHB"/>
    <tag k="brand" v="K&amp;H"/>
    <tag k="import" v="osm_poi_matchmaker"/>
    <tag k="name" v="K&amp;H bank"/>
    <tag k="operator" v="K&amp;H Bank Zrt."/>
    <tag k="source" v="website"/>
    <tag k="source:date" v="2018-07-12"/>
    <tag k="website" v="https://www.kh.hu"/>
  </node>
  <!-- OSM link: https://osm.org/node/931815060 -->
  <!-- Original coordinates: POINT (47.179684 20.412166) -->
  <!-- Original tags: {'atm': 'yes', 'amenity': 'bank', 'name': 'K&H'} -->
  <node action="modify" changeset="1" id="931815060" lat="47.179684" lon="20.412166" timestamp="2018-05-08T10:11:52Z" uid="4579407" user="KAMI" version="2">
    <tag k="addr:city" v="Törökszentmiklós"/>
    <tag k="addr:housenumber" v="125"/>
    <tag k="addr:postcode" v="5200"/>
    <tag k="addr:street" v="Kossuth Lajos utca"/>
    <tag k="amenity" v="bank"/>
    <tag k="atm" v="yes"/>
    <tag k="bic" v="OKHBHUHB"/>
    <tag k="brand" v="K&amp;H"/>
    <tag k="import" v="osm_poi_matchmaker"/>
    <tag k="name" v="K&amp;H bank"/>
    <tag k="operator" v="K&amp;H Bank Zrt."/>
    <tag k="source" v="website"/>
    <tag k="source:date" v="2018-07-12"/>
    <tag k="website" v="https://www.kh.hu"/>
  </node>
  <!-- OSM link: https://osm.org/node/3841856809 -->
  <!-- Original coordinates: POINT (47.318476 20.922785) -->
  <!-- Original tags: {'wheelchair': 'limited', 'amenity': 'bank', 'toilets:wheelchair': 'limited', 'name': 'K&H'} -->
  <node action="modify" changeset="1" id="3841856809" lat="47.318476" lon="20.922785" timestamp="2017-08-04T09:54:56Z" uid="4579407" user="KAMI" version="2">
    <tag k="addr:city" v="Karcag"/>
    <tag k="addr:housenumber" v="2-3"/>
    <tag k="addr:postcode" v="5300"/>
    <tag k="addr:street" v="Kossuth tér"/>
    <tag k="amenity" v="bank"/>
    <tag k="atm" v="yes"/>
    <tag k="bic" v="OKHBHUHB"/>
    <tag k="brand" v="K&amp;H"/>
    <tag k="import" v="osm_poi_matchmaker"/>
    <tag k="name" v="K&amp;H bank"/>
    <tag k="operator" v="K&amp;H Bank Zrt."/>
    <tag k="source" v="website"/>
    <tag k="source:date" v="2018-07-12"/>
    <tag k="toilets:wheelchair" v="limited"/>
    <tag k="website" v="https://www.kh.hu"/>
    <tag k="wheelchair" v="limited"/>
  </node>
  <!-- OSM link: https://osm.org/node/1454653185 -->
  <!-- Original coordinates: POINT (47.217385 20.757479) -->
  <!-- Original tags: {'website': 'https://www.otpbank.hu', 'atm': 'yes', 'amenity': 'bank', 'brand': 'OTP Bank', 'name': 'OTP Bank'} -->
  <node action="modify" changeset="1" id="1454653185" lat="47.217385" lon="20.757479" timestamp="2015-03-15T09:05:31Z" uid="4579407" user="KAMI" version="3">
    <tag k="addr:city" v="Kisújszállás"/>
    <tag k="addr:housenumber" v="1"/>
    <tag k="addr:postcode" v="5310"/>
    <tag k="addr:street" v="Szabadság utca"/>
    <tag k="amenity" v="bank"/>
    <tag k="atm" v="yes"/>
    <tag k="bic" v="OKHBHUHB"/>
    <tag k="brand" v="K&amp;H"/>
    <tag k="import" v="osm_poi_matchmaker"/>
    <tag k="name" v="K&amp;H bank"/>
    <tag k="operator" v="K&amp;H Bank Zrt."/>
    <tag k="source" v="website"/>
    <tag k="source:date" v="2018-07-12"/>
    <tag k="website" v="https://www.kh.hu"/>
  </node>
  <!-- OSM link: https://osm.org/node/2360430471 -->
  <!-- Original coordinates: POINT (47.617453 20.75732) -->
  <!-- Original tags: {'atm': 'yes', 'amenity': 'bank', 'name': 'K&H'} -->
  <node action="modify" changeset="1" id="2360430471" lat="47.617453" lon="20.75732" timestamp="2017-04-20T21:27:33Z" uid="4579407" user="KAMI" version="3">
    <tag k="addr:city" v="Tiszafüred"/>
    <tag k="addr:housenumber" v="1"/>
    <tag k="addr:postcode" v="5350"/>
    <tag k="addr:street" v="Örvényi út"/>
    <tag k="amenity" v="bank"/>
    <tag k="atm" v="yes"/>
    <tag k="bic" v="OKHBHUHB"/>
    <tag k="brand" v="K&amp;H"/>
    <tag k="import" v="osm_poi_matchmaker"/>
    <tag k="name" v="K&amp;H bank"/>
    <tag k="operator" v="K&amp;H Bank Zrt."/>
    <tag k="source" v="website"/>
    <tag k="source:date" v="2018-07-12"/>
    <tag k="website" v="https://www.kh.hu"/>
  </node>
  <!-- Original coordinates: POINT (47.001313 20.629443) -->
  <!-- Original tags: None -->
  <node action="modify" changeset="99999" id="-121" lat="47.001313" lon="20.629443" timestamp="" uid="4579407" user="KAMI" version="99999">
    <tag k="addr:city" v="Mezőtúr"/>
    <tag k="addr:housenumber" v="3-5"/>
    <tag k="addr:postcode" v="5400"/>
    <tag k="addr:street" v="Kossuth Lajos tér"/>
    <tag k="amenity" v="bank"/>
    <tag k="atm" v="yes"/>
    <tag k="bic" v="OKHBHUHB"/>
    <tag k="brand" v="K&amp;H"/>
    <tag k="import" v="osm_poi_matchmaker"/>
    <tag k="name" v="K&amp;H bank"/>
    <tag k="operator" v="K&amp;H Bank Zrt."/>
    <tag k="source" v="website"/>
    <tag k="source:date" v="2018-07-12"/>
    <tag k="website" v="https://www.kh.hu"/>
  </node>
  <!-- Original coordinates: POINT (46.979467 20.255244) -->
  <!-- Original tags: None -->
  <node action="modify" changeset="99999" id="-122" lat="46.979467" lon="20.255244" timestamp="" uid="4579407" user="KAMI" version="99999">
    <tag k="addr:city" v="Tiszaföldvár"/>
    <tag k="addr:housenumber" v="132"/>
    <tag k="addr:postcode" v="5430"/>
    <tag k="addr:street" v="Kossuth Lajos út"/>
    <tag k="amenity" v="bank"/>
    <tag k="atm" v="yes"/>
    <tag k="bic" v="OKHBHUHB"/>
    <tag k="brand" v="K&amp;H"/>
    <tag k="import" v="osm_poi_matchmaker"/>
    <tag k="name" v="K&amp;H bank"/>
    <tag k="operator" v="K&amp;H Bank Zrt."/>
    <tag k="source" v="website"/>
    <tag k="source:date" v="2018-07-12"/>
    <tag k="website" v="https://www.kh.hu"/>
  </node>
  <!-- OSM link: https://osm.org/node/1868901943 -->
  <!-- Original coordinates: POINT (47.020516 21.177264) -->
  <!-- Original tags: {'website': 'https://www.kh.hu', 'atm': 'yes', 'amenity': 'bank', 'brand': 'K&H Bank', 'name': 'K&H Bank'} -->
  <node action="modify" changeset="1" id="1868901943" lat="47.020516" lon="21.177264" timestamp="2015-03-15T09:39:01Z" uid="4579407" user="KAMI" version="3">
    <tag k="addr:city" v="Szeghalom"/>
    <tag k="addr:housenumber" v="2"/>
    <tag k="addr:postcode" v="5520"/>
    <tag k="addr:street" v="Szabadság tér"/>
    <tag k="amenity" v="bank"/>
    <tag k="atm" v="yes"/>
    <tag k="bic" v="OKHBHUHB"/>
    <tag k="brand" v="K&amp;H"/>
    <tag k="import" v="osm_poi_matchmaker"/>
    <tag k="name" v="K&amp;H bank"/>
    <tag k="operator" v="K&amp;H Bank Zrt."/>
    <tag k="source" v="website"/>
    <tag k="source:date" v="2018-07-12"/>
    <tag k="website" v="https://www.kh.hu"/>
  </node>
  <!-- Original coordinates: POINT (46.862705 20.548333) -->
  <!-- Original tags: None -->
  <node action="modify" changeset="99999" id="-124" lat="46.862705" lon="20.548333" timestamp="" uid="4579407" user="KAMI" version="99999">
    <tag k="addr:city" v="Szarvas"/>
    <tag k="addr:housenumber" v="30"/>
    <tag k="addr:postcode" v="5540"/>
    <tag k="addr:street" v="Szabadság utca"/>
    <tag k="amenity" v="bank"/>
    <tag k="atm" v="yes"/>
    <tag k="bic" v="OKHBHUHB"/>
    <tag k="brand" v="K&amp;H"/>
    <tag k="import" v="osm_poi_matchmaker"/>
    <tag k="name" v="K&amp;H bank"/>
    <tag k="operator" v="K&amp;H Bank Zrt."/>
    <tag k="source" v="website"/>
    <tag k="source:date" v="2018-07-12"/>
    <tag k="website" v="https://www.kh.hu"/>
  </node>
  <!-- Original coordinates: POINT (46.679155 21.09623) -->
  <!-- Original tags: None -->
  <node action="modify" changeset="99999" id="-125" lat="46.679155" lon="21.09623" timestamp="" uid="4579407" user="KAMI" version="99999">
    <tag k="addr:city" v="Békéscsaba"/>
    <tag k="addr:housenumber" v="37-43"/>
    <tag k="addr:postcode" v="5600"/>
    <tag k="addr:street" v="Andrássy út"/>
    <tag k="amenity" v="bank"/>
    <tag k="atm" v="yes"/>
    <tag k="bic" v="OKHBHUHB"/>
    <tag k="brand" v="K&amp;H"/>
    <tag k="import" v="osm_poi_matchmaker"/>
    <tag k="name" v="K&amp;H bank"/>
    <tag k="operator" v="K&amp;H Bank Zrt."/>
    <tag k="source" v="website"/>
    <tag k="source:date" v="2018-07-12"/>
    <tag k="website" v="https://www.kh.hu"/>
  </node>
  <!-- OSM link: https://osm.org/node/1279194973 -->
  <!-- Original coordinates: POINT (46.680482 21.098583) -->
  <!-- Original tags: {'website': 'https://www.kh.hu', 'brand': 'K&H Bank', 'amenity': 'bank', 'name': 'K&H Bank'} -->
  <node action="modify" changeset="1" id="1279194973" lat="46.680482" lon="21.098583" timestamp="2015-03-15T09:38:59Z" uid="4579407" user="KAMI" version="4">
    <tag k="addr:city" v="Békéscsaba"/>
    <tag k="addr:housenumber" v="5"/>
    <tag k="addr:postcode" v="5600"/>
    <tag k="addr:street" v="Szent István tér"/>
    <tag k="amenity" v="bank"/>
    <tag k="atm" v="yes"/>
    <tag k="bic" v="OKHBHUHB"/>
    <tag k="brand" v="K&amp;H"/>
    <tag k="import" v="osm_poi_matchmaker"/>
    <tag k="name" v="K&amp;H bank"/>
    <tag k="operator" v="K&amp;H Bank Zrt."/>
    <tag k="source" v="website"/>
    <tag k="source:date" v="2018-07-12"/>
    <tag k="website" v="https://www.kh.hu"/>
  </node>
  <!-- Original coordinates: POINT (46.771972 21.132634) -->
  <!-- Original tags: None -->
  <node action="modify" changeset="99999" id="-127" lat="46.771972" lon="21.132634" timestamp="" uid="4579407" user="KAMI" version="99999">
    <tag k="addr:city" v="Békés"/>
    <tag k="addr:housenumber" v="4"/>
    <tag k="addr:postcode" v="5630"/>
    <tag k="addr:street" v="Széchenyi tér"/>
    <tag k="amenity" v="bank"/>
    <tag k="atm" v="yes"/>
    <tag k="bic" v="OKHBHUHB"/>
    <tag k="brand" v="K&amp;H"/>
    <tag k="import" v="osm_poi_matchmaker"/>
    <tag k="name" v="K&amp;H bank"/>
    <tag k="operator" v="K&amp;H Bank Zrt."/>
    <tag k="source" v="website"/>
    <tag k="source:date" v="2018-07-12"/>
    <tag k="website" v="https://www.kh.hu"/>
  </node>
  <!-- OSM link: https://osm.org/node/895744870 -->
  <!-- Original coordinates: POINT (46.645195 21.276384) -->
  <!-- Original tags: {'amenity': 'bank', 'name': 'K&H'} -->
  <node action="modify" changeset="1" id="895744870" lat="46.645195" lon="21.276384" timestamp="2012-03-19T14:46:09Z" uid="4579407" user="KAMI" version="2">
    <tag k="addr:city" v="Gyula"/>
    <tag k="addr:housenumber" v="17-19"/>
    <tag k="addr:postcode" v="5700"/>
    <tag k="addr:street" v="Városház utca"/>
    <tag k="amenity" v="bank"/>
    <tag k="atm" v="yes"/>
    <tag k="bic" v="OKHBHUHB"/>
    <tag k="brand" v="K&amp;H"/>
    <tag k="import" v="osm_poi_matchmaker"/>
    <tag k="name" v="K&amp;H bank"/>
    <tag k="operator" v="K&amp;H Bank Zrt."/>
    <tag k="source" v="website"/>
    <tag k="source:date" v="2018-07-12"/>
    <tag k="website" v="https://www.kh.hu"/>
  </node>
  <!-- OSM link: https://osm.org/way/235633829 -->
  <!-- Original coordinates: POINT (46.40659 20.920208) -->
  <!-- Original tags: {'building': 'yes', 'amenity': 'bank', 'addr:street': 'Árpád utca', 'addr:housenumber': '160', 'addr:city': 'Mezőkovácsháza', 'atm': 'yes', 'addr:postcode': '5800'} -->
  <way action="modify" changeset="1" id="235633829" timestamp="2013-08-29T13:00:55Z" uid="4579407" user="KAMI" version="1">
    <nd ref="2437071610"/>
    <nd ref="2437071612"/>
    <nd ref="2437071614"/>
    <nd ref="2437071616"/>
    <nd ref="2437071618"/>
    <nd ref="2437071620"/>
    <nd ref="2437071610"/>
    <tag k="addr:city" v="Mezőkovácsháza"/>
    <tag k="addr:housenumber" v="160"/>
    <tag k="addr:postcode" v="5800"/>
    <tag k="addr:street" v="Árpád út"/>
    <tag k="amenity" v="bank"/>
    <tag k="atm" v="yes"/>
    <tag k="bic" v="OKHBHUHB"/>
    <tag k="brand" v="K&amp;H"/>
    <tag k="building" v="yes"/>
    <tag k="import" v="osm_poi_matchmaker"/>
    <tag k="name" v="K&amp;H bank"/>
    <tag k="operator" v="K&amp;H Bank Zrt."/>
    <tag k="source" v="website"/>
    <tag k="source:date" v="2018-07-12"/>
    <tag k="website" v="https://www.kh.hu"/>
  </way>
  <!-- Original coordinates: POINT (46.557552 20.666029) -->
  <!-- Original tags: None -->
  <node action="modify" changeset="99999" id="-130" lat="46.557552" lon="20.666029" timestamp="" uid="4579407" user="KAMI" version="99999">
    <tag k="addr:city" v="Orosháza"/>
    <tag k="addr:housenumber" v="5"/>
    <tag k="addr:postcode" v="5900"/>
    <tag k="addr:street" v="Rákóczi út"/>
    <tag k="amenity" v="bank"/>
    <tag k="atm" v="yes"/>
    <tag k="bic" v="OKHBHUHB"/>
    <tag k="brand" v="K&amp;H"/>
    <tag k="import" v="osm_poi_matchmaker"/>
    <tag k="name" v="K&amp;H bank"/>
    <tag k="operator" v="K&amp;H Bank Zrt."/>
    <tag k="source" v="website"/>
    <tag k="source:date" v="2018-07-12"/>
    <tag k="website" v="https://www.kh.hu"/>
  </node>
  <!-- OSM link: https://osm.org/node/1289495589 -->
  <!-- Original coordinates: POINT (46.904353 19.689603) -->
  <!-- Original tags: {'amenity': 'bank', 'addr:street': 'Dobó István körút', 'addr:housenumber': '9', 'atm': 'yes', 'wheelchair': 'yes', 'addr:city': 'Kecskemét', 'source': 'https://www.kh.hu/publish/kh/hu/lakossag/elerhetosegek.html', 'website': 'https://www.kh.hu', 'opening_hours': 'Mo 8:00 - 17:00; Tu-Th 8:00 - 16:00; Fr 8:00 - 15:00', 'phone': '+36 76 502 380', 'addr:postcode': '6000', 'brand': 'K&H Bank', 'name': 'K&H Bank'} -->
  <node action="modify" changeset="1" id="1289495589" lat="46.904353" lon="19.689603" timestamp="2015-03-15T09:39:00Z" uid="4579407" user="KAMI" version="4">
    <tag k="addr:city" v="Kecskemét"/>
    <tag k="addr:housenumber" v="9"/>
    <tag k="addr:postcode" v="6000"/>
    <tag k="addr:street" v="Dobó István körút"/>
    <tag k="amenity" v="bank"/>
    <tag k="atm" v="yes"/>
    <tag k="bic" v="OKHBHUHB"/>
    <tag k="brand" v="K&amp;H"/>
    <tag k="import" v="osm_poi_matchmaker"/>
    <tag k="name" v="K&amp;H bank"/>
    <tag k="opening_hours" v="Mo 8:00 - 17:00; Tu-Th 8:00 - 16:00; Fr 8:00 - 15:00"/>
    <tag k="operator" v="K&amp;H Bank Zrt."/>
    <tag k="phone" v="+36 76 502 380"/>
    <tag k="source" v="website"/>
    <tag k="source:date" v="2018-07-12"/>
    <tag k="website" v="https://www.kh.hu"/>
    <tag k="wheelchair" v="yes"/>
  </node>
  <!-- OSM link: https://osm.org/node/1296409794 -->
  <!-- Original coordinates: POINT (46.910453 19.694357) -->
  <!-- Original tags: {'amenity': 'bank', 'addr:street': 'Nagykőrösi út', 'addr:housenumber': '9/a', 'atm': 'yes', 'wheelchair': 'yes', 'addr:city': 'Kecskemét', 'source': 'https://www.kh.hu/publish/kh/hu/lakossag/elerhetosegek.html', 'website': 'https://www.kh.hu', 'opening_hours': 'Mo 8:00 - 17:00; Tu-Th 8:00 - 16:00; Fr 8:00 - 15:00', 'phone': '+36 76 511 900', 'addr:postcode': '6000', 'brand': 'K&H Bank', 'name': 'K&H Bank'} -->
  <node action="modify" changeset="1" id="1296409794" lat="46.910453" lon="19.694357" timestamp="2015-03-15T09:39:00Z" uid="4579407" user="KAMI" version="3">
    <tag k="addr:city" v="Kecskemét"/>
    <tag k="addr:housenumber" v="9/a"/>
    <tag k="addr:postcode" v="6000"/>
    <tag k="addr:street" v="Nagykőrösi út"/>
    <tag k="amenity" v="bank"/>
    <tag k="atm" v="yes"/>
    <tag k="bic" v="OKHBHUHB"/>
    <tag k="brand" v="K&amp;H"/>
    <tag k="import" v="osm_poi_matchmaker"/>
    <tag k="name" v="K&amp;H bank"/>
    <tag k="opening_hours" v="Mo 8:00 - 17:00; Tu-Th 8:00 - 16:00; Fr 8:00 - 15:00"/>
    <tag k="operator" v="K&amp;H Bank Zrt."/>
    <tag k="phone" v="+36 76 511 900"/>
    <tag k="source" v="website"/>
    <tag k="source:date" v="2018-07-12"/>
    <tag k="website" v="https://www.kh.hu"/>
    <tag k="wheelchair" v="yes"/>
  </node>
  <!-- Original coordinates: POINT (47.025524 19.558446) -->
  <!-- Original tags: None -->
  <node action="modify" changeset="99999" id="-133" lat="47.025524" lon="19.558446" timestamp="" uid="4579407" user="KAMI" version="99999">
    <tag k="addr:city" v="Lajosmizse"/>
    <tag k="addr:housenumber" v="10"/>
    <tag k="addr:postcode" v="6050"/>
    <tag k="addr:street" v="Szabadság tér"/>
    <tag k="amenity" v="bank"/>
    <tag k="atm" v="yes"/>
    <tag k="bic" v="OKHBHUHB"/>
    <tag k="brand" v="K&amp;H"/>
    <tag k="import" v="osm_poi_matchmaker"/>
    <tag k="name" v="K&amp;H bank"/>
    <tag k="operator" v="K&amp;H Bank Zrt."/>
    <tag k="source" v="website"/>
    <tag k="source:date" v="2018-07-12"/>
    <tag k="website" v="https://www.kh.hu"/>
  </node>
  <!-- OSM link: https://osm.org/node/4579769988 -->
  <!-- Original coordinates: POINT (46.932295 20.095714) -->
  <!-- Original tags: {'amenity': 'bank', 'opening_hours': 'Mo 08:00-17:00; Tu-Th 08:00-16:00; Fr 08:00-15:00', 'internet_access': 'wlan', 'atm': 'yes', 'internet_access:fee': 'no', 'name': 'K & H'} -->
  <node action="modify" changeset="1" id="4579769988" lat="46.932295" lon="20.095714" timestamp="2017-10-22T15:38:40Z" uid="4579407" user="KAMI" version="3">
    <tag k="addr:city" v="Tiszakécske"/>
    <tag k="addr:housenumber" v="6"/>
    <tag k="addr:postcode" v="6060"/>
    <tag k="addr:street" v="Béke tér"/>
    <tag k="amenity" v="bank"/>
    <tag k="atm" v="yes"/>
    <tag k="bic" v="OKHBHUHB"/>
    <tag k="brand" v="K&amp;H"/>
    <tag k="import" v="osm_poi_matchmaker"/>
    <tag k="internet_access" v="wlan"/>
    <tag k="internet_access:fee" v="no"/>
    <tag k="name" v="K&amp;H bank"/>
    <tag k="opening_hours" v="Mo 08:00-17:00; Tu-Th 08:00-16:00; Fr 08:00-15:00"/>
    <tag k="operator" v="K&amp;H Bank Zrt."/>
    <tag k="source" v="website"/>
    <tag k="source:date" v="2018-07-12"/>
    <tag k="website" v="https://www.kh.hu"/>
  </node>
  <!-- OSM link: https://osm.org/node/2973712323 -->
  <!-- Original coordinates: POINT (46.712764 19.850377) -->
  <!-- Original tags: {'website': 'https://www.kh.hu', 'atm': 'yes', 'amenity': 'bank', 'brand': 'K&H Bank', 'name': 'K&H Bank'} -->
  <node action="modify" changeset="1" id="2973712323" lat="46.712764" lon="19.850377" timestamp="2015-03-15T09:38:59Z" uid="4579407" user="KAMI" version="3">
    <tag k="addr:city" v="Kiskunfélegyháza"/>
    <tag k="addr:housenumber" v="2"/>
    <tag k="addr:postcode" v="6100"/>
    <tag k="addr:street" v="Petőfi tér"/>
    <tag k="amenity" v="bank"/>
    <tag k="atm" v="yes"/>
    <tag k="bic" v="OKHBHUHB"/>
    <tag k="brand" v="K&amp;H"/>
    <tag k="import" v="osm_poi_matchmaker"/>
    <tag k="name" v="K&amp;H bank"/>
    <tag k="operator" v="K&amp;H Bank Zrt."/>
    <tag k="source" v="website"/>
    <tag k="source:date" v="2018-07-12"/>
    <tag k="website" v="https://www.kh.hu"/>
  </node>
  <!-- OSM link: https://osm.org/node/1134418960 -->
  <!-- Original coordinates: POINT (46.492212 19.736342) -->
  <!-- Original tags: {'atm': 'no', 'amenity': 'bank', 'name': 'K&H'} -->
  <node action="modify" changeset="1" id="1134418960" lat="46.492212" lon="19.736342" timestamp="2011-02-03T21:35:38Z" uid="4579407" user="KAMI" version="1">
    <tag k="addr:city" v="Kiskunmajsa"/>
    <tag k="addr:housenumber" v="67"/>
    <tag k="addr:postcode" v="6120"/>
    <tag k="addr:street" v="Fő utca"/>
    <tag k="amenity" v="bank"/>
    <tag k="atm" v="yes"/>
    <tag k="bic" v="OKHBHUHB"/>
    <tag k="brand" v="K&amp;H"/>
    <tag k="import" v="osm_poi_matchmaker"/>
    <tag k="name" v="K&amp;H bank"/>
    <tag k="operator" v="K&amp;H Bank Zrt."/>
    <tag k="source" v="website"/>
    <tag k="source:date" v="2018-07-12"/>
    <tag k="website" v="https://www.kh.hu"/>
  </node>
  <!-- OSM link: https://osm.org/node/3474965033 -->
  <!-- Original coordinates: POINT (46.619999 19.284153) -->
  <!-- Original tags: {'source:date': '2014-07-09', 'amenity': 'bank', 'source': 'turistautak.hu', 'name': 'MKB', 'url': 'http://turistautak.hu/poi.php?id=169901'} -->
  <node action="modify" changeset="1" id="3474965033" lat="46.619999" lon="19.284153" timestamp="2015-04-24T12:53:11Z" uid="4579407" user="KAMI" version="1">
    <tag k="addr:city" v="Kiskőrös"/>
    <tag k="addr:housenumber" v="2"/>
    <tag k="addr:postcode" v="6200"/>
    <tag k="addr:street" v="Petőfi tér"/>
    <tag k="amenity" v="bank"/>
    <tag k="atm" v="yes"/>
    <tag k="bic" v="OKHBHUHB"/>
    <tag k="brand" v="K&amp;H"/>
    <tag k="import" v="osm_poi_matchmaker"/>
    <tag k="name" v="K&amp;H bank"/>
    <tag k="operator" v="K&amp;H Bank Zrt."/>
    <tag k="source" v="website"/>
    <tag k="source:date" v="2018-07-12"/>
    <tag k="url" v="http://turistautak.hu/poi.php?id=169901"/>
    <tag k="website" v="https://www.kh.hu"/>
  </node>
  <!-- OSM link: https://osm.org/node/2421929677 -->
  <!-- Original coordinates: POINT (46.581182 19.390012) -->
  <!-- Original tags: {'atm': 'yes', 'amenity': 'bank', 'source': 'survey', 'name': 'K&H bank és biztosítás'} -->
  <node action="modify" changeset="1" id="2421929677" lat="46.581182" lon="19.390012" timestamp="2013-08-17T14:06:13Z" uid="4579407" user="KAMI" version="1">
    <tag k="addr:city" v="Soltvadkert"/>
    <tag k="addr:housenumber" v="21"/>
    <tag k="addr:postcode" v="6230"/>
    <tag k="addr:street" v="Kossuth Lajos utca"/>
    <tag k="amenity" v="bank"/>
    <tag k="atm" v="yes"/>
    <tag k="bic" v="OKHBHUHB"/>
    <tag k="brand" v="K&amp;H"/>
    <tag k="import" v="osm_poi_matchmaker"/>
    <tag k="name" v="K&amp;H bank"/>
    <tag k="operator" v="K&amp;H Bank Zrt."/>
    <tag k="source" v="website"/>
    <tag k="source:date" v="2018-07-12"/>
    <tag k="website" v="https://www.kh.hu"/>
  </node>
  <!-- Original coordinates: POINT (46.526626 18.977531) -->
  <!-- Original tags: None -->
  <node action="modify" changeset="99999" id="-139" lat="46.526626" lon="18.977531" timestamp="" uid="4579407" user="KAMI" version="99999">
    <tag k="addr:city" v="Kalocsa"/>
    <tag k="addr:housenumber" v="28"/>
    <tag k="addr:postcode" v="6300"/>
    <tag k="addr:street" v="Szent István út"/>
    <tag k="amenity" v="bank"/>
    <tag k="atm" v="yes"/>
    <tag k="bic" v="OKHBHUHB"/>
    <tag k="brand" v="K&amp;H"/>
    <tag k="import" v="osm_poi_matchmaker"/>
    <tag k="name" v="K&amp;H bank"/>
    <tag k="operator" v="K&amp;H Bank Zrt."/>
    <tag k="source" v="website"/>
    <tag k="source:date" v="2018-07-12"/>
    <tag k="website" v="https://www.kh.hu"/>
  </node>
  <!-- Original coordinates: POINT (46.429954 19.479846) -->
  <!-- Original tags: None -->
  <node action="modify" changeset="99999" id="-140" lat="46.429954" lon="19.479846" timestamp="" uid="4579407" user="KAMI" version="99999">
    <tag k="addr:city" v="Kiskunhalas"/>
    <tag k="addr:housenumber" v="1"/>
    <tag k="addr:postcode" v="6400"/>
    <tag k="addr:street" v="Sétáló utca"/>
    <tag k="amenity" v="bank"/>
    <tag k="atm" v="yes"/>
    <tag k="bic" v="OKHBHUHB"/>
    <tag k="brand" v="K&amp;H"/>
    <tag k="import" v="osm_poi_matchmaker"/>
    <tag k="name" v="K&amp;H bank"/>
    <tag k="operator" v="K&amp;H Bank Zrt."/>
    <tag k="source" v="website"/>
    <tag k="source:date" v="2018-07-12"/>
    <tag k="website" v="https://www.kh.hu"/>
  </node>
  <!-- OSM link: https://osm.org/node/1948915786 -->
  <!-- Original coordinates: POINT (46.297881 19.326512) -->
  <!-- Original tags: {'amenity': 'bank'} -->
  <node action="modify" changeset="1" id="1948915786" lat="46.297881" lon="19.326512" timestamp="2012-10-06T10:35:56Z" uid="4579407" user="KAMI" version="1">
    <tag k="addr:city" v="Jánoshalma"/>
    <tag k="addr:housenumber" v="10"/>
    <tag k="addr:postcode" v="6440"/>
    <tag k="addr:street" v="Rákóczi út"/>
    <tag k="amenity" v="bank"/>
    <tag k="atm" v="yes"/>
    <tag k="bic" v="OKHBHUHB"/>
    <tag k="brand" v="K&amp;H"/>
    <tag k="import" v="osm_poi_matchmaker"/>
    <tag k="name" v="K&amp;H bank"/>
    <tag k="operator" v="K&amp;H Bank Zrt."/>
    <tag k="source" v="website"/>
    <tag k="source:date" v="2018-07-12"/>
    <tag k="website" v="https://www.kh.hu"/>
  </node>
  <!-- Original coordinates: POINT (46.178009 18.950688) -->
  <!-- Original tags: None -->
  <node action="modify" changeset="99999" id="-142" lat="46.178009" lon="18.950688" timestamp="" uid="4579407" user="KAMI" version="99999">
    <tag k="addr:city" v="Baja"/>
    <tag k="addr:housenumber" v="8-10"/>
    <tag k="addr:postcode" v="6500"/>
    <tag k="addr:street" v="Szentháromság tér"/>
    <tag k="amenity" v="bank"/>
    <tag k="atm" v="yes"/>
    <tag k="bic" v="OKHBHUHB"/>
    <tag k="brand" v="K&amp;H"/>
    <tag k="import" v="osm_poi_matchmaker"/>
    <tag k="name" v="K&amp;H bank"/>
    <tag k="operator" v="K&amp;H Bank Zrt."/>
    <tag k="source" v="website"/>
    <tag k="source:date" v="2018-07-12"/>
    <tag k="website" v="https://www.kh.hu"/>
  </node>
  <!-- Original coordinates: POINT (46.651444 20.262536) -->
  <!-- Original tags: None -->
  <node action="modify" changeset="99999" id="-143" lat="46.651444" lon="20.262536" timestamp="" uid="4579407" user="KAMI" version="99999">
    <tag k="addr:city" v="Szentes"/>
    <tag k="addr:housenumber" v="13"/>
    <tag k="addr:postcode" v="6600"/>
    <tag k="addr:street" v="Kossuth Lajos utca"/>
    <tag k="amenity" v="bank"/>
    <tag k="atm" v="yes"/>
    <tag k="bic" v="OKHBHUHB"/>
    <tag k="brand" v="K&amp;H"/>
    <tag k="import" v="osm_poi_matchmaker"/>
    <tag k="name" v="K&amp;H bank"/>
    <tag k="operator" v="K&amp;H Bank Zrt."/>
    <tag k="source" v="website"/>
    <tag k="source:date" v="2018-07-12"/>
    <tag k="website" v="https://www.kh.hu"/>
  </node>
  <!-- Original coordinates: POINT (46.707211 20.147681) -->
  <!-- Original tags: None -->
  <node action="modify" changeset="99999" id="-144" lat="46.707211" lon="20.147681" timestamp="" uid="4579407" user="KAMI" version="99999">
    <tag k="addr:city" v="Csongrád"/>
    <tag k="addr:housenumber" v="10-16"/>
    <tag k="addr:postcode" v="6640"/>
    <tag k="addr:street" v="Hunyadi tér"/>
    <tag k="amenity" v="bank"/>
    <tag k="atm" v="yes"/>
    <tag k="bic" v="OKHBHUHB"/>
    <tag k="brand" v="K&amp;H"/>
    <tag k="import" v="osm_poi_matchmaker"/>
    <tag k="name" v="K&amp;H bank"/>
    <tag k="operator" v="K&amp;H Bank Zrt."/>
    <tag k="source" v="website"/>
    <tag k="source:date" v="2018-07-12"/>
    <tag k="website" v="https://www.kh.hu"/>
  </node>
  <!-- OSM link: https://osm.org/node/4879891161 -->
  <!-- Original coordinates: POINT (46.252187 20.14752) -->
  <!-- Original tags: {'amenity': 'bank', 'name': 'K&H'} -->
  <node action="modify" changeset="1" id="4879891161" lat="46.252187" lon="20.14752" timestamp="2017-05-27T10:00:20Z" uid="4579407" user="KAMI" version="1">
    <tag k="addr:city" v="Szeged"/>
    <tag k="addr:housenumber" v="5"/>
    <tag k="addr:postcode" v="6720"/>
    <tag k="addr:street" v="Klauzál tér"/>
    <tag k="amenity" v="bank"/>
    <tag k="atm" v="yes"/>
    <tag k="bic" v="OKHBHUHB"/>
    <tag k="brand" v="K&amp;H"/>
    <tag k="import" v="osm_poi_matchmaker"/>
    <tag k="name" v="K&amp;H bank"/>
    <tag k="operator" v="K&amp;H Bank Zrt."/>
    <tag k="source" v="website"/>
    <tag k="source:date" v="2018-07-12"/>
    <tag k="website" v="https://www.kh.hu"/>
  </node>
  <!-- OSM link: https://osm.org/node/5062699788 -->
  <!-- Original coordinates: POINT (46.254718 20.148376) -->
  <!-- Original tags: {'atm': 'yes', 'amenity': 'bank', 'opening_hours': 'Mo 08:00-17:00; Tu-Th 08:00-16:00; Fr 08:00-15:00', 'name': 'K&H Bank'} -->
  <node action="modify" changeset="1" id="5062699788" lat="46.254718" lon="20.148376" timestamp="2017-08-27T19:10:57Z" uid="4579407" user="KAMI" version="1">
    <tag k="addr:city" v="Szeged"/>
    <tag k="addr:housenumber" v="9"/>
    <tag k="addr:postcode" v="6720"/>
    <tag k="addr:street" v="Széchenyi tér"/>
    <tag k="amenity" v="bank"/>
    <tag k="atm" v="yes"/>
    <tag k="bic" v="OKHBHUHB"/>
    <tag k="brand" v="K&amp;H"/>
    <tag k="import" v="osm_poi_matchmaker"/>
    <tag k="name" v="K&amp;H bank"/>
    <tag k="opening_hours" v="Mo 08:00-17:00; Tu-Th 08:00-16:00; Fr 08:00-15:00"/>
    <tag k="operator" v="K&amp;H Bank Zrt."/>
    <tag k="source" v="website"/>
    <tag k="source:date" v="2018-07-12"/>
    <tag k="website" v="https://www.kh.hu"/>
  </node>
  <!-- Original coordinates: POINT (46.470695 19.979498) -->
  <!-- Original tags: None -->
  <node action="modify" changeset="99999" id="-147" lat="46.470695" lon="19.979498" timestamp="" uid="4579407" user="KAMI" version="99999">
    <tag k="addr:city" v="Kistelek"/>
    <tag k="addr:housenumber" v="6-8"/>
    <tag k="addr:postcode" v="6760"/>
    <tag k="addr:street" v="Kossuth Lajos utca"/>
    <tag k="amenity" v="bank"/>
    <tag k="atm" v="yes"/>
    <tag k="bic" v="OKHBHUHB"/>
    <tag k="brand" v="K&amp;H"/>
    <tag k="import" v="osm_poi_matchmaker"/>
    <tag k="name" v="K&amp;H bank"/>
    <tag k="operator" v="K&amp;H Bank Zrt."/>
    <tag k="source" v="website"/>
    <tag k="source:date" v="2018-07-12"/>
    <tag k="website" v="https://www.kh.hu"/>
  </node>
  <!-- OSM link: https://osm.org/node/1866146832 -->
  <!-- Original coordinates: POINT (46.415089 20.317484) -->
  <!-- Original tags: {'website': 'https://www.kh.hu', 'brand': 'K&H Bank', 'amenity': 'bank', 'wheelchair': 'yes', 'name': 'K&H Bank'} -->
  <node action="modify" changeset="1" id="1866146832" lat="46.415089" lon="20.317484" timestamp="2018-01-12T20:53:32Z" uid="4579407" user="KAMI" version="3">
    <tag k="addr:city" v="Hódmezővásárhely"/>
    <tag k="addr:housenumber" v="5"/>
    <tag k="addr:postcode" v="6800"/>
    <tag k="addr:street" v="Kossuth tér"/>
    <tag k="amenity" v="bank"/>
    <tag k="atm" v="yes"/>
    <tag k="bic" v="OKHBHUHB"/>
    <tag k="brand" v="K&amp;H"/>
    <tag k="import" v="osm_poi_matchmaker"/>
    <tag k="name" v="K&amp;H bank"/>
    <tag k="operator" v="K&amp;H Bank Zrt."/>
    <tag k="source" v="website"/>
    <tag k="source:date" v="2018-07-12"/>
    <tag k="website" v="https://www.kh.hu"/>
    <tag k="wheelchair" v="yes"/>
  </node>
  <!-- Original coordinates: POINT (46.214909 20.475924) -->
  <!-- Original tags: None -->
  <node action="modify" changeset="99999" id="-149" lat="46.214909" lon="20.475924" timestamp="" uid="4579407" user="KAMI" version="99999">
    <tag k="addr:city" v="Makó"/>
    <tag k="addr:housenumber" v="13-15"/>
    <tag k="addr:postcode" v="6900"/>
    <tag k="addr:street" v="Széchenyi tér"/>
    <tag k="amenity" v="bank"/>
    <tag k="atm" v="yes"/>
    <tag k="bic" v="OKHBHUHB"/>
    <tag k="brand" v="K&amp;H"/>
    <tag k="import" v="osm_poi_matchmaker"/>
    <tag k="name" v="K&amp;H bank"/>
    <tag k="operator" v="K&amp;H Bank Zrt."/>
    <tag k="source" v="website"/>
    <tag k="source:date" v="2018-07-12"/>
    <tag k="website" v="https://www.kh.hu"/>
  </node>
  <!-- Original coordinates: POINT (46.885766 18.620328) -->
  <!-- Original tags: None -->
  <node action="modify" changeset="99999" id="-150" lat="46.885766" lon="18.620328" timestamp="" uid="4579407" user="KAMI" version="99999">
    <tag k="addr:city" v="Sárbogárd"/>
    <tag k="addr:housenumber" v="162"/>
    <tag k="addr:postcode" v="7000"/>
    <tag k="addr:street" v="Ady Endre utca"/>
    <tag k="amenity" v="bank"/>
    <tag k="atm" v="yes"/>
    <tag k="bic" v="OKHBHUHB"/>
    <tag k="brand" v="K&amp;H"/>
    <tag k="import" v="osm_poi_matchmaker"/>
    <tag k="name" v="K&amp;H bank"/>
    <tag k="operator" v="K&amp;H Bank Zrt."/>
    <tag k="source" v="website"/>
    <tag k="source:date" v="2018-07-12"/>
    <tag k="website" v="https://www.kh.hu"/>
  </node>
  <!-- OSM link: https://osm.org/node/4544540895 -->
  <!-- Original coordinates: POINT (46.80606 18.924166) -->
  <!-- Original tags: {'atm': 'yes', 'amenity': 'bank', 'opening_hours': 'Mo 8:00-17:00; Tu-Th 8:00-16:00; Fr 8:00-15:00', 'name': 'K&H'} -->
  <node action="modify" changeset="1" id="4544540895" lat="46.80606" lon="18.924166" timestamp="2016-12-08T09:32:43Z" uid="4579407" user="KAMI" version="1">
    <tag k="addr:city" v="Dunaföldvár"/>
    <tag k="addr:housenumber" v="13"/>
    <tag k="addr:postcode" v="7020"/>
    <tag k="addr:street" v="Béke tér"/>
    <tag k="amenity" v="bank"/>
    <tag k="atm" v="yes"/>
    <tag k="bic" v="OKHBHUHB"/>
    <tag k="brand" v="K&amp;H"/>
    <tag k="import" v="osm_poi_matchmaker"/>
    <tag k="name" v="K&amp;H bank"/>
    <tag k="opening_hours" v="Mo 8:00-17:00; Tu-Th 8:00-16:00; Fr 8:00-15:00"/>
    <tag k="operator" v="K&amp;H Bank Zrt."/>
    <tag k="source" v="website"/>
    <tag k="source:date" v="2018-07-12"/>
    <tag k="website" v="https://www.kh.hu"/>
  </node>
  <!-- OSM link: https://osm.org/node/3452835556 -->
  <!-- Original coordinates: POINT (46.62559 18.863329) -->
  <!-- Original tags: {'source:date': '2012-01-01', 'amenity': 'bank', 'source': 'turistautak.hu', 'name': 'K&H Bank', 'url': 'http://turistautak.hu/poi.php?id=130402'} -->
  <node action="modify" changeset="1" id="3452835556" lat="46.62559" lon="18.863329" timestamp="2017-01-13T04:50:15Z" uid="4579407" user="KAMI" version="2">
    <tag k="addr:city" v="Paks"/>
    <tag k="addr:housenumber" v="21"/>
    <tag k="addr:postcode" v="7030"/>
    <tag k="addr:street" v="Dózsa György utca"/>
    <tag k="amenity" v="bank"/>
    <tag k="atm" v="yes"/>
    <tag k="bic" v="OKHBHUHB"/>
    <tag k="brand" v="K&amp;H"/>
    <tag k="import" v="osm_poi_matchmaker"/>
    <tag k="name" v="K&amp;H bank"/>
    <tag k="operator" v="K&amp;H Bank Zrt."/>
    <tag k="source" v="website"/>
    <tag k="source:date" v="2018-07-12"/>
    <tag k="url" v="http://turistautak.hu/poi.php?id=130402"/>
    <tag k="website" v="https://www.kh.hu"/>
  </node>
  <!-- Original coordinates: POINT (46.633506 18.280932) -->
  <!-- Original tags: None -->
  <node action="modify" changeset="99999" id="-153" lat="46.633506" lon="18.280932" timestamp="" uid="4579407" user="KAMI" version="99999">
    <tag k="addr:city" v="Tamási"/>
    <tag k="addr:housenumber" v="1"/>
    <tag k="addr:postcode" v="7090"/>
    <tag k="addr:street" v="Garai utca"/>
    <tag k="amenity" v="bank"/>
    <tag k="atm" v="yes"/>
    <tag k="bic" v="OKHBHUHB"/>
    <tag k="brand" v="K&amp;H"/>
    <tag k="import" v="osm_poi_matchmaker"/>
    <tag k="name" v="K&amp;H bank"/>
    <tag k="operator" v="K&amp;H Bank Zrt."/>
    <tag k="source" v="website"/>
    <tag k="source:date" v="2018-07-12"/>
    <tag k="website" v="https://www.kh.hu"/>
  </node>
  <!-- Original coordinates: POINT (46.35044 18.70194) -->
  <!-- Original tags: None -->
  <node action="modify" changeset="99999" id="-154" lat="46.35044" lon="18.70194" timestamp="" uid="4579407" user="KAMI" version="99999">
    <tag k="addr:city" v="Szekszárd"/>
    <tag k="addr:housenumber" v="18-20"/>
    <tag k="addr:postcode" v="7100"/>
    <tag k="addr:street" v="Széchenyi utca"/>
    <tag k="amenity" v="bank"/>
    <tag k="atm" v="yes"/>
    <tag k="bic" v="OKHBHUHB"/>
    <tag k="brand" v="K&amp;H"/>
    <tag k="import" v="osm_poi_matchmaker"/>
    <tag k="name" v="K&amp;H bank"/>
    <tag k="operator" v="K&amp;H Bank Zrt."/>
    <tag k="source" v="website"/>
    <tag k="source:date" v="2018-07-12"/>
    <tag k="website" v="https://www.kh.hu"/>
  </node>
  <!-- OSM link: https://osm.org/node/5298489125 -->
  <!-- Original coordinates: POINT (46.422682 18.788425) -->
  <!-- Original tags: {'amenity': 'bank', 'name': 'OTP'} -->
  <node action="modify" changeset="1" id="5298489125" lat="46.422682" lon="18.788425" timestamp="2017-12-21T23:18:35Z" uid="4579407" user="KAMI" version="1">
    <tag k="addr:city" v="Tolna"/>
    <tag k="addr:housenumber" v="33"/>
    <tag k="addr:postcode" v="7130"/>
    <tag k="addr:street" v="Kossuth Lajos utca"/>
    <tag k="amenity" v="bank"/>
    <tag k="atm" v="yes"/>
    <tag k="bic" v="OKHBHUHB"/>
    <tag k="brand" v="K&amp;H"/>
    <tag k="import" v="osm_poi_matchmaker"/>
    <tag k="name" v="K&amp;H bank"/>
    <tag k="operator" v="K&amp;H Bank Zrt."/>
    <tag k="source" v="website"/>
    <tag k="source:date" v="2018-07-12"/>
    <tag k="website" v="https://www.kh.hu"/>
  </node>
  <!-- OSM link: https://osm.org/node/3268898712 -->
  <!-- Original coordinates: POINT (46.296942 18.528974) -->
  <!-- Original tags: {'atm': 'yes', 'amenity': 'bank', 'operator': 'K&H', 'name': 'K&H'} -->
  <node action="modify" changeset="1" id="3268898712" lat="46.296942" lon="18.528974" timestamp="2015-01-04T14:18:21Z" uid="4579407" user="KAMI" version="1">
    <tag k="addr:city" v="Bonyhád"/>
    <tag k="addr:housenumber" v="20"/>
    <tag k="addr:postcode" v="7150"/>
    <tag k="addr:street" v="Perczel Mór utca"/>
    <tag k="amenity" v="bank"/>
    <tag k="atm" v="yes"/>
    <tag k="bic" v="OKHBHUHB"/>
    <tag k="brand" v="K&amp;H"/>
    <tag k="import" v="osm_poi_matchmaker"/>
    <tag k="name" v="K&amp;H bank"/>
    <tag k="operator" v="K&amp;H Bank Zrt."/>
    <tag k="source" v="website"/>
    <tag k="source:date" v="2018-07-12"/>
    <tag k="website" v="https://www.kh.hu"/>
  </node>
  <!-- OSM link: https://osm.org/node/3207813419 -->
  <!-- Original coordinates: POINT (46.374971 18.13) -->
  <!-- Original tags: {'amenity': 'bank', 'addr:street': 'Hunyadi tér', 'addr:housenumber': '12', 'addr:city': 'Dombóvár', 'atm': 'yes', 'addr:postcode': '7200', 'name': 'K&H'} -->
  <node action="modify" changeset="1" id="3207813419" lat="46.374971" lon="18.13" timestamp="2015-05-07T16:36:01Z" uid="4579407" user="KAMI" version="2">
    <tag k="addr:city" v="Dombóvár"/>
    <tag k="addr:housenumber" v="12"/>
    <tag k="addr:postcode" v="7200"/>
    <tag k="addr:street" v="Hunyadi tér"/>
    <tag k="amenity" v="bank"/>
    <tag k="atm" v="yes"/>
    <tag k="bic" v="OKHBHUHB"/>
    <tag k="brand" v="K&amp;H"/>
    <tag k="import" v="osm_poi_matchmaker"/>
    <tag k="name" v="K&amp;H bank"/>
    <tag k="operator" v="K&amp;H Bank Zrt."/>
    <tag k="source" v="website"/>
    <tag k="source:date" v="2018-07-12"/>
    <tag k="website" v="https://www.kh.hu"/>
  </node>
  <!-- OSM link: https://osm.org/node/2694382455 -->
  <!-- Original coordinates: POINT (46.190889 18.260449) -->
  <!-- Original tags: {'atm': 'yes', 'amenity': 'bank', 'wheelchair': 'no', 'name': 'KHB'} -->
  <node action="modify" changeset="1" id="2694382455" lat="46.190889" lon="18.260449" timestamp="2014-08-09T21:31:13Z" uid="4579407" user="KAMI" version="3">
    <tag k="addr:city" v="Komló"/>
    <tag k="addr:housenumber" v="1"/>
    <tag k="addr:postcode" v="7300"/>
    <tag k="addr:street" v="Városház tér"/>
    <tag k="amenity" v="bank"/>
    <tag k="atm" v="yes"/>
    <tag k="bic" v="OKHBHUHB"/>
    <tag k="brand" v="K&amp;H"/>
    <tag k="import" v="osm_poi_matchmaker"/>
    <tag k="name" v="K&amp;H bank"/>
    <tag k="operator" v="K&amp;H Bank Zrt."/>
    <tag k="source" v="website"/>
    <tag k="source:date" v="2018-07-12"/>
    <tag k="website" v="https://www.kh.hu"/>
    <tag k="wheelchair" v="no"/>
  </node>
  <!-- OSM link: https://osm.org/node/4145231043 -->
  <!-- Original coordinates: POINT (46.357092 17.794633) -->
  <!-- Original tags: {'amenity': 'bank', 'addr:street': 'Széchenyi tér', 'drive_through': 'no', 'addr:housenumber': '2', 'addr:city': 'Kaposvár', 'atm': 'yes', 'addr:postcode': '7400', 'brand': 'OTP Bank', 'name': 'OTP Bank'} -->
  <node action="modify" changeset="1" id="4145231043" lat="46.357092" lon="17.794633" timestamp="2016-04-24T22:19:48Z" uid="4579407" user="KAMI" version="1">
    <tag k="addr:city" v="Kaposvár"/>
    <tag k="addr:housenumber" v="8"/>
    <tag k="addr:postcode" v="7400"/>
    <tag k="addr:street" v="Széchenyi tér"/>
    <tag k="amenity" v="bank"/>
    <tag k="atm" v="yes"/>
    <tag k="bic" v="OKHBHUHB"/>
    <tag k="brand" v="K&amp;H"/>
    <tag k="drive_through" v="no"/>
    <tag k="import" v="osm_poi_matchmaker"/>
    <tag k="name" v="K&amp;H bank"/>
    <tag k="operator" v="K&amp;H Bank Zrt."/>
    <tag k="source" v="website"/>
    <tag k="source:date" v="2018-07-12"/>
    <tag k="website" v="https://www.kh.hu"/>
  </node>
  <!-- Original coordinates: POINT (46.23036 17.360868) -->
  <!-- Original tags: None -->
  <node action="modify" changeset="99999" id="-160" lat="46.23036" lon="17.360868" timestamp="" uid="4579407" user="KAMI" version="99999">
    <tag k="addr:city" v="Nagyatád"/>
    <tag k="addr:housenumber" v="1/a"/>
    <tag k="addr:postcode" v="7500"/>
    <tag k="addr:street" v="Bajcsy-Zsilinszky utca"/>
    <tag k="amenity" v="bank"/>
    <tag k="atm" v="yes"/>
    <tag k="bic" v="OKHBHUHB"/>
    <tag k="brand" v="K&amp;H"/>
    <tag k="import" v="osm_poi_matchmaker"/>
    <tag k="name" v="K&amp;H bank"/>
    <tag k="operator" v="K&amp;H Bank Zrt."/>
    <tag k="source" v="website"/>
    <tag k="source:date" v="2018-07-12"/>
    <tag k="website" v="https://www.kh.hu"/>
  </node>
  <!-- OSM link: https://osm.org/node/255523113 -->
  <!-- Original coordinates: POINT (45.959325 17.465509) -->
  <!-- Original tags: {'atm': 'yes', 'amenity': 'bank', 'wheelchair': 'yes', 'name': 'Dél-dunántúli Takarékszövetkezet'} -->
  <node action="modify" changeset="1" id="255523113" lat="45.959325" lon="17.465509" timestamp="2018-06-01T13:03:16Z" uid="4579407" user="KAMI" version="9">
    <tag k="addr:city" v="Barcs"/>
    <tag k="addr:housenumber" v="79"/>
    <tag k="addr:postcode" v="7570"/>
    <tag k="addr:street" v="Bajcsy-Zsilinszky utca"/>
    <tag k="amenity" v="bank"/>
    <tag k="atm" v="yes"/>
    <tag k="bic" v="OKHBHUHB"/>
    <tag k="brand" v="K&amp;H"/>
    <tag k="import" v="osm_poi_matchmaker"/>
    <tag k="name" v="K&amp;H bank"/>
    <tag k="operator" v="K&amp;H Bank Zrt."/>
    <tag k="source" v="website"/>
    <tag k="source:date" v="2018-07-12"/>
    <tag k="website" v="https://www.kh.hu"/>
    <tag k="wheelchair" v="yes"/>
  </node>
  <!-- Original coordinates: POINT (46.075138 18.228827) -->
  <!-- Original tags: None -->
  <node action="modify" changeset="99999" id="-162" lat="46.075138" lon="18.228827" timestamp="" uid="4579407" user="KAMI" version="99999">
    <tag k="addr:city" v="Pécs"/>
    <tag k="addr:housenumber" v="2"/>
    <tag k="addr:postcode" v="7621"/>
    <tag k="addr:street" v="Irgalmasok utcája"/>
    <tag k="amenity" v="bank"/>
    <tag k="atm" v="yes"/>
    <tag k="bic" v="OKHBHUHB"/>
    <tag k="brand" v="K&amp;H"/>
    <tag k="import" v="osm_poi_matchmaker"/>
    <tag k="name" v="K&amp;H bank"/>
    <tag k="operator" v="K&amp;H Bank Zrt."/>
    <tag k="source" v="website"/>
    <tag k="source:date" v="2018-07-12"/>
    <tag k="website" v="https://www.kh.hu"/>
  </node>
  <!-- OSM link: https://osm.org/node/5287715048 -->
  <!-- Original coordinates: POINT (46.07653 18.237702) -->
  <!-- Original tags: {'amenity': 'bank', 'addr:street': 'Búza tér', 'addr:housenumber': '6/A', 'addr:city': 'Pécs', 'atm': 'yes', 'addr:postcode': '7626', 'name': 'K&H Bank'} -->
  <node action="modify" changeset="1" id="5287715048" lat="46.07653" lon="18.237702" timestamp="2017-12-16T15:42:27Z" uid="4579407" user="KAMI" version="1">
    <tag k="addr:city" v="Pécs"/>
    <tag k="addr:housenumber" v="6/a"/>
    <tag k="addr:postcode" v="7626"/>
    <tag k="addr:street" v="Búza tér"/>
    <tag k="amenity" v="bank"/>
    <tag k="atm" v="yes"/>
    <tag k="bic" v="OKHBHUHB"/>
    <tag k="brand" v="K&amp;H"/>
    <tag k="import" v="osm_poi_matchmaker"/>
    <tag k="name" v="K&amp;H bank"/>
    <tag k="operator" v="K&amp;H Bank Zrt."/>
    <tag k="source" v="website"/>
    <tag k="source:date" v="2018-07-12"/>
    <tag k="website" v="https://www.kh.hu"/>
  </node>
  <!-- OSM link: https://osm.org/node/3464291504 -->
  <!-- Original coordinates: POINT (45.991772 18.69201) -->
  <!-- Original tags: {'source:date': '2014-04-18', 'amenity': 'bank', 'name': 'K&H Bank', 'lastcheck': '2016-08-14', 'atm': 'yes', 'source': 'turistautak.hu', 'url': 'http://turistautak.hu/poi.php?id=167759'} -->
  <node action="modify" changeset="1" id="3464291504" lat="45.991772" lon="18.69201" timestamp="2016-08-14T07:11:34Z" uid="4579407" user="KAMI" version="3">
    <tag k="addr:city" v="Mohács"/>
    <tag k="addr:housenumber" v="1-3"/>
    <tag k="addr:postcode" v="7700"/>
    <tag k="addr:street" v="Szentháromság utca"/>
    <tag k="amenity" v="bank"/>
    <tag k="atm" v="yes"/>
    <tag k="bic" v="OKHBHUHB"/>
    <tag k="brand" v="K&amp;H"/>
    <tag k="import" v="osm_poi_matchmaker"/>
    <tag k="lastcheck" v="2016-08-14"/>
    <tag k="name" v="K&amp;H bank"/>
    <tag k="operator" v="K&amp;H Bank Zrt."/>
    <tag k="source" v="website"/>
    <tag k="source:date" v="2018-07-12"/>
    <tag k="url" v="http://turistautak.hu/poi.php?id=167759"/>
    <tag k="website" v="https://www.kh.hu"/>
  </node>
  <!-- OSM link: https://osm.org/node/3445424834 -->
  <!-- Original coordinates: POINT (45.85495 18.296921) -->
  <!-- Original tags: {'source:date': '2008-05-21', 'fixme': 'resurvey (source was old)', 'source': 'turistautak.hu', 'description': 'K&H bank és a hozzá tartozó ATM automata Siklós belvárosában.', 'amenity': 'bank', 'atm': 'yes', 'name': 'K&H Bank', 'url': 'http://turistautak.hu/poi.php?id=13170'} -->
  <node action="modify" changeset="1" id="3445424834" lat="45.85495" lon="18.296921" timestamp="2015-04-08T19:49:11Z" uid="4579407" user="KAMI" version="1">
    <tag k="addr:city" v="Siklós"/>
    <tag k="addr:housenumber" v="42"/>
    <tag k="addr:postcode" v="7800"/>
    <tag k="addr:street" v="Felszabadulás utca"/>
    <tag k="amenity" v="bank"/>
    <tag k="atm" v="yes"/>
    <tag k="bic" v="OKHBHUHB"/>
    <tag k="brand" v="K&amp;H"/>
    <tag k="description" v="K&amp;H bank és a hozzá tartozó ATM automata Siklós belvárosában."/>
    <tag k="fixme" v="resurvey (source was old)"/>
    <tag k="import" v="osm_poi_matchmaker"/>
    <tag k="name" v="K&amp;H bank"/>
    <tag k="operator" v="K&amp;H Bank Zrt."/>
    <tag k="source" v="website"/>
    <tag k="source:date" v="2018-07-12"/>
    <tag k="url" v="http://turistautak.hu/poi.php?id=13170"/>
    <tag k="website" v="https://www.kh.hu"/>
  </node>
  <!-- OSM link: https://osm.org/node/3542700365 -->
  <!-- Original coordinates: POINT (46.047327 17.798305) -->
  <!-- Original tags: {'amenity': 'bank', 'name': 'K&H Bank'} -->
  <node action="modify" changeset="1" id="3542700365" lat="46.047327" lon="17.798305" timestamp="2015-09-28T18:15:18Z" uid="4579407" user="KAMI" version="2">
    <tag k="addr:city" v="Szigetvár"/>
    <tag k="addr:housenumber" v="4"/>
    <tag k="addr:postcode" v="7900"/>
    <tag k="addr:street" v="Széchenyi utca"/>
    <tag k="amenity" v="bank"/>
    <tag k="atm" v="yes"/>
    <tag k="bic" v="OKHBHUHB"/>
    <tag k="brand" v="K&amp;H"/>
    <tag k="import" v="osm_poi_matchmaker"/>
    <tag k="name" v="K&amp;H bank"/>
    <tag k="operator" v="K&amp;H Bank Zrt."/>
    <tag k="source" v="website"/>
    <tag k="source:date" v="2018-07-12"/>
    <tag k="website" v="https://www.kh.hu"/>
  </node>
  <!-- OSM link: https://osm.org/node/1623849311 -->
  <!-- Original coordinates: POINT (47.193444 18.40913) -->
  <!-- Original tags: {'website': 'https://www.kh.hu', 'amenity': 'bank', 'toilets:wheelchair': 'no', 'addr:street': 'Ady Endre utca', 'addr:housenumber': '2', 'addr:city': 'Székesfehérvár', 'atm': 'yes', 'wheelchair': 'no', 'addr:postcode': '8000', 'brand': 'K&H Bank', 'name': 'K&H Bank'} -->
  <node action="modify" changeset="1" id="1623849311" lat="47.193444" lon="18.40913" timestamp="2017-02-21T15:49:21Z" uid="4579407" user="KAMI" version="7">
    <tag k="addr:city" v="Székesfehérvár"/>
    <tag k="addr:housenumber" v="2"/>
    <tag k="addr:postcode" v="8000"/>
    <tag k="addr:street" v="Ady Endre utca"/>
    <tag k="amenity" v="bank"/>
    <tag k="atm" v="yes"/>
    <tag k="bic" v="OKHBHUHB"/>
    <tag k="brand" v="K&amp;H"/>
    <tag k="import" v="osm_poi_matchmaker"/>
    <tag k="name" v="K&amp;H bank"/>
    <tag k="operator" v="K&amp;H Bank Zrt."/>
    <tag k="source" v="website"/>
    <tag k="source:date" v="2018-07-12"/>
    <tag k="toilets:wheelchair" v="no"/>
    <tag k="website" v="https://www.kh.hu"/>
    <tag k="wheelchair" v="no"/>
  </node>
  <!-- OSM link: https://osm.org/node/2334658589 -->
  <!-- Original coordinates: POINT (47.193966 18.410035) -->
  <!-- Original tags: {'atm': 'no', 'amenity': 'bank', 'wheelchair': 'no', 'name': 'Budapest Bank'} -->
  <node action="modify" changeset="1" id="2334658589" lat="47.193966" lon="18.410035" timestamp="2015-11-07T21:10:33Z" uid="4579407" user="KAMI" version="2">
    <tag k="addr:city" v="Székesfehérvár"/>
    <tag k="addr:housenumber" v="5"/>
    <tag k="addr:postcode" v="8000"/>
    <tag k="addr:street" v="Dózsa György út"/>
    <tag k="amenity" v="bank"/>
    <tag k="atm" v="yes"/>
    <tag k="bic" v="OKHBHUHB"/>
    <tag k="brand" v="K&amp;H"/>
    <tag k="import" v="osm_poi_matchmaker"/>
    <tag k="name" v="K&amp;H bank"/>
    <tag k="operator" v="K&amp;H Bank Zrt."/>
    <tag k="source" v="website"/>
    <tag k="source:date" v="2018-07-12"/>
    <tag k="website" v="https://www.kh.hu"/>
    <tag k="wheelchair" v="no"/>
  </node>
  <!-- OSM link: https://osm.org/node/4170281666 -->
  <!-- Original coordinates: POINT (47.190048 18.408203) -->
  <!-- Original tags: {'amenity': 'bank', 'opening_hours': 'Mo 08:00-17:00; Tu-Th 08:00-16:00; Fr 08:00-15:00', 'addr:street': 'Liszt Ferenc utca', 'addr:housenumber': '11', 'addr:city': 'Székesfehérvár', 'atm': 'yes', 'addr:postcode': '8000', 'name': 'K&H Bank'} -->
  <node action="modify" changeset="1" id="4170281666" lat="47.190048" lon="18.408203" timestamp="2016-12-20T11:40:27Z" uid="4579407" user="KAMI" version="2">
    <tag k="addr:city" v="Székesfehérvár"/>
    <tag k="addr:housenumber" v="11"/>
    <tag k="addr:postcode" v="8000"/>
    <tag k="addr:street" v="Liszt Ferenc utca"/>
    <tag k="amenity" v="bank"/>
    <tag k="atm" v="yes"/>
    <tag k="bic" v="OKHBHUHB"/>
    <tag k="brand" v="K&amp;H"/>
    <tag k="import" v="osm_poi_matchmaker"/>
    <tag k="name" v="K&amp;H bank"/>
    <tag k="opening_hours" v="Mo 08:00-17:00; Tu-Th 08:00-16:00; Fr 08:00-15:00"/>
    <tag k="operator" v="K&amp;H Bank Zrt."/>
    <tag k="source" v="website"/>
    <tag k="source:date" v="2018-07-12"/>
    <tag k="website" v="https://www.kh.hu"/>
  </node>
  <!-- Original coordinates: POINT (47.373966 18.212845) -->
  <!-- Original tags: None -->
  <node action="modify" changeset="99999" id="-170" lat="47.373966" lon="18.212845" timestamp="" uid="4579407" user="KAMI" version="99999">
    <tag k="addr:city" v="Mór"/>
    <tag k="addr:housenumber" v="10"/>
    <tag k="addr:postcode" v="8060"/>
    <tag k="addr:street" v="Bajcsy-Zsilinszky utca"/>
    <tag k="amenity" v="bank"/>
    <tag k="atm" v="yes"/>
    <tag k="bic" v="OKHBHUHB"/>
    <tag k="brand" v="K&amp;H"/>
    <tag k="import" v="osm_poi_matchmaker"/>
    <tag k="name" v="K&amp;H bank"/>
    <tag k="operator" v="K&amp;H Bank Zrt."/>
    <tag k="source" v="website"/>
    <tag k="source:date" v="2018-07-12"/>
    <tag k="website" v="https://www.kh.hu"/>
  </node>
  <!-- OSM link: https://osm.org/node/5007757531 -->
  <!-- Original coordinates: POINT (47.201381 18.140143) -->
  <!-- Original tags: {'atm': 'yes', 'amenity': 'bank', 'opening_hours': 'Mo 08:00-17:00; Tu-Th 08:00-16:00; Fr 08:00-15:00', 'name': 'K&H'} -->
  <node action="modify" changeset="1" id="5007757531" lat="47.201381" lon="18.140143" timestamp="2017-08-01T16:32:47Z" uid="4579407" user="KAMI" version="1">
    <tag k="addr:city" v="Várpalota"/>
    <tag k="addr:housenumber" v="5"/>
    <tag k="addr:postcode" v="8100"/>
    <tag k="addr:street" v="Táncsics utca"/>
    <tag k="amenity" v="bank"/>
    <tag k="atm" v="yes"/>
    <tag k="bic" v="OKHBHUHB"/>
    <tag k="brand" v="K&amp;H"/>
    <tag k="import" v="osm_poi_matchmaker"/>
    <tag k="name" v="K&amp;H bank"/>
    <tag k="opening_hours" v="Mo 08:00-17:00; Tu-Th 08:00-16:00; Fr 08:00-15:00"/>
    <tag k="operator" v="K&amp;H Bank Zrt."/>
    <tag k="source" v="website"/>
    <tag k="source:date" v="2018-07-12"/>
    <tag k="website" v="https://www.kh.hu"/>
  </node>
  <!-- Original coordinates: POINT (46.930437 18.242406) -->
  <!-- Original tags: None -->
  <node action="modify" changeset="99999" id="-172" lat="46.930437" lon="18.242406" timestamp="" uid="4579407" user="KAMI" version="99999">
    <tag k="addr:city" v="Enying"/>
    <tag k="addr:housenumber" v="18"/>
    <tag k="addr:postcode" v="8130"/>
    <tag k="addr:street" v="Kossuth Lajos utca"/>
    <tag k="amenity" v="bank"/>
    <tag k="atm" v="yes"/>
    <tag k="bic" v="OKHBHUHB"/>
    <tag k="brand" v="K&amp;H"/>
    <tag k="import" v="osm_poi_matchmaker"/>
    <tag k="name" v="K&amp;H bank"/>
    <tag k="operator" v="K&amp;H Bank Zrt."/>
    <tag k="source" v="website"/>
    <tag k="source:date" v="2018-07-12"/>
    <tag k="website" v="https://www.kh.hu"/>
  </node>
  <!-- OSM link: https://osm.org/way/152820964 -->
  <!-- Original coordinates: POINT (47.093623 17.909192) -->
  <!-- Original tags: {'building': 'yes', 'amenity': 'bank', 'website': 'https://www.kh.hu', 'atm': 'yes', 'brand': 'K&H Bank', 'name': 'K&H Bank'} -->
  <way action="modify" changeset="1" id="152820964" timestamp="2015-03-15T09:38:58Z" uid="4579407" user="KAMI" version="6">
    <nd ref="1655969379"/>
    <nd ref="1655969353"/>
    <nd ref="1655969318"/>
    <nd ref="2355007283"/>
    <nd ref="1655969328"/>
    <nd ref="1655969379"/>
    <tag k="addr:city" v="Veszprém"/>
    <tag k="addr:housenumber" v="8"/>
    <tag k="addr:postcode" v="8200"/>
    <tag k="addr:street" v="Cserhát lakótelep"/>
    <tag k="amenity" v="bank"/>
    <tag k="atm" v="yes"/>
    <tag k="bic" v="OKHBHUHB"/>
    <tag k="brand" v="K&amp;H"/>
    <tag k="building" v="yes"/>
    <tag k="import" v="osm_poi_matchmaker"/>
    <tag k="name" v="K&amp;H bank"/>
    <tag k="operator" v="K&amp;H Bank Zrt."/>
    <tag k="source" v="website"/>
    <tag k="source:date" v="2018-07-12"/>
    <tag k="website" v="https://www.kh.hu"/>
  </way>
  <!-- OSM link: https://osm.org/node/2155637740 -->
  <!-- Original coordinates: POINT (47.09226 17.912304) -->
  <!-- Original tags: {'website': 'https://www.raiffeisen.hu', 'amenity': 'bank', 'name': 'Raiffeisen Bank', 'addr:street': 'Mindszenty József utca', 'operator': 'Raiffeisen Bank Zrt.', 'addr:housenumber': '2', 'addr:city': 'Veszprém', 'atm': 'yes', 'addr:postcode': '8200', 'wheelchair': 'no', 'contact:website': 'https://www.raiffeisen.hu'} -->
  <node action="modify" changeset="1" id="2155637740" lat="47.09226" lon="17.912304" timestamp="2017-02-08T15:55:23Z" uid="4579407" user="KAMI" version="5">
    <tag k="addr:city" v="Veszprém"/>
    <tag k="addr:housenumber" v="4"/>
    <tag k="addr:postcode" v="8200"/>
    <tag k="addr:street" v="Mindszenty József utca"/>
    <tag k="amenity" v="bank"/>
    <tag k="atm" v="yes"/>
    <tag k="bic" v="OKHBHUHB"/>
    <tag k="brand" v="K&amp;H"/>
    <tag k="contact:website" v="https://www.raiffeisen.hu"/>
    <tag k="import" v="osm_poi_matchmaker"/>
    <tag k="name" v="K&amp;H bank"/>
    <tag k="operator" v="K&amp;H Bank Zrt."/>
    <tag k="source" v="website"/>
    <tag k="source:date" v="2018-07-12"/>
    <tag k="website" v="https://www.kh.hu"/>
    <tag k="wheelchair" v="no"/>
  </node>
  <!-- OSM link: https://osm.org/node/4588178209 -->
  <!-- Original coordinates: POINT (47.0294 18.014176) -->
  <!-- Original tags: {'brand': 'K&H Bank', 'amenity': 'bank', 'name': 'K&H Bankfiók'} -->
  <node action="modify" changeset="1" id="4588178209" lat="47.0294" lon="18.014176" timestamp="2017-01-04T00:05:32Z" uid="4579407" user="KAMI" version="1">
    <tag k="addr:city" v="Balatonalmádi"/>
    <tag k="addr:housenumber" v="5"/>
    <tag k="addr:postcode" v="8220"/>
    <tag k="addr:street" v="Városház tér"/>
    <tag k="amenity" v="bank"/>
    <tag k="atm" v="yes"/>
    <tag k="bic" v="OKHBHUHB"/>
    <tag k="brand" v="K&amp;H"/>
    <tag k="import" v="osm_poi_matchmaker"/>
    <tag k="name" v="K&amp;H bank"/>
    <tag k="operator" v="K&amp;H Bank Zrt."/>
    <tag k="source" v="website"/>
    <tag k="source:date" v="2018-07-12"/>
    <tag k="website" v="https://www.kh.hu"/>
  </node>
  <!-- OSM link: https://osm.org/node/2856080058 -->
  <!-- Original coordinates: POINT (46.961182 17.87386) -->
  <!-- Original tags: {'amenity': 'bank', 'operator': 'K&H Bank', 'website': 'https://www.kh.hu', 'atm': 'yes', 'brand': 'K&H Bank', 'name': 'K&H Bank'} -->
  <node action="modify" changeset="1" id="2856080058" lat="46.961182" lon="17.87386" timestamp="2015-03-15T09:39:01Z" uid="4579407" user="KAMI" version="2">
    <tag k="addr:city" v="Balatonfüred"/>
    <tag k="addr:housenumber" v="5"/>
    <tag k="addr:postcode" v="8230"/>
    <tag k="addr:street" v="Kossuth Lajos utca"/>
    <tag k="amenity" v="bank"/>
    <tag k="atm" v="yes"/>
    <tag k="bic" v="OKHBHUHB"/>
    <tag k="brand" v="K&amp;H"/>
    <tag k="import" v="osm_poi_matchmaker"/>
    <tag k="name" v="K&amp;H bank"/>
    <tag k="operator" v="K&amp;H Bank Zrt."/>
    <tag k="source" v="website"/>
    <tag k="source:date" v="2018-07-12"/>
    <tag k="website" v="https://www.kh.hu"/>
  </node>
  <!-- OSM link: https://osm.org/node/4173967211 -->
  <!-- Original coordinates: POINT (46.882992 17.44009) -->
  <!-- Original tags: {'website': 'http://www.kh.hu/', 'atm': 'yes', 'amenity': 'bank', 'operator': 'K&H', 'name': 'K&H'} -->
  <node action="modify" changeset="1" id="4173967211" lat="46.882992" lon="17.44009" timestamp="2017-01-03T12:17:47Z" uid="4579407" user="KAMI" version="2">
    <tag k="addr:city" v="Tapolca"/>
    <tag k="addr:housenumber" v="5"/>
    <tag k="addr:postcode" v="8300"/>
    <tag k="addr:street" v="Fő tér"/>
    <tag k="amenity" v="bank"/>
    <tag k="atm" v="yes"/>
    <tag k="bic" v="OKHBHUHB"/>
    <tag k="brand" v="K&amp;H"/>
    <tag k="import" v="osm_poi_matchmaker"/>
    <tag k="name" v="K&amp;H bank"/>
    <tag k="operator" v="K&amp;H Bank Zrt."/>
    <tag k="source" v="website"/>
    <tag k="source:date" v="2018-07-12"/>
    <tag k="website" v="https://www.kh.hu"/>
  </node>
  <!-- OSM link: https://osm.org/node/5203863148 -->
  <!-- Original coordinates: POINT (46.978518 17.280973) -->
  <!-- Original tags: {'amenity': 'bank', 'name:hu': 'K&H Bank', 'name': 'K&H Bank'} -->
  <node action="modify" changeset="1" id="5203863148" lat="46.978518" lon="17.280973" timestamp="2017-11-01T10:22:42Z" uid="4579407" user="KAMI" version="1">
    <tag k="addr:city" v="Sümeg"/>
    <tag k="addr:housenumber" v="8"/>
    <tag k="addr:postcode" v="8330"/>
    <tag k="addr:street" v="Kossuth Lajos utca"/>
    <tag k="amenity" v="bank"/>
    <tag k="atm" v="yes"/>
    <tag k="bic" v="OKHBHUHB"/>
    <tag k="brand" v="K&amp;H"/>
    <tag k="import" v="osm_poi_matchmaker"/>
    <tag k="name" v="K&amp;H bank"/>
    <tag k="name:hu" v="K&amp;H Bank"/>
    <tag k="operator" v="K&amp;H Bank Zrt."/>
    <tag k="source" v="website"/>
    <tag k="source:date" v="2018-07-12"/>
    <tag k="website" v="https://www.kh.hu"/>
  </node>
  <!-- Original coordinates: POINT (46.765396 17.244165) -->
  <!-- Original tags: None -->
  <node action="modify" changeset="99999" id="-179" lat="46.765396" lon="17.244165" timestamp="" uid="4579407" user="KAMI" version="99999">
    <tag k="addr:city" v="Keszthely"/>
    <tag k="addr:housenumber" v="6-8"/>
    <tag k="addr:postcode" v="8360"/>
    <tag k="addr:street" v="Fő tér"/>
    <tag k="amenity" v="bank"/>
    <tag k="atm" v="yes"/>
    <tag k="bic" v="OKHBHUHB"/>
    <tag k="brand" v="K&amp;H"/>
    <tag k="import" v="osm_poi_matchmaker"/>
    <tag k="name" v="K&amp;H bank"/>
    <tag k="operator" v="K&amp;H Bank Zrt."/>
    <tag k="source" v="website"/>
    <tag k="source:date" v="2018-07-12"/>
    <tag k="website" v="https://www.kh.hu"/>
  </node>
  <!-- Original coordinates: POINT (46.788289 17.189295) -->
  <!-- Original tags: None -->
  <node action="modify" changeset="99999" id="-180" lat="46.788289" lon="17.189295" timestamp="" uid="4579407" user="KAMI" version="99999">
    <tag k="addr:city" v="Hévíz"/>
    <tag k="addr:housenumber" v="16"/>
    <tag k="addr:postcode" v="8380"/>
    <tag k="addr:street" v="Rákóczi utca"/>
    <tag k="amenity" v="bank"/>
    <tag k="atm" v="yes"/>
    <tag k="bic" v="OKHBHUHB"/>
    <tag k="brand" v="K&amp;H"/>
    <tag k="import" v="osm_poi_matchmaker"/>
    <tag k="name" v="K&amp;H bank"/>
    <tag k="operator" v="K&amp;H Bank Zrt."/>
    <tag k="source" v="website"/>
    <tag k="source:date" v="2018-07-12"/>
    <tag k="website" v="https://www.kh.hu"/>
  </node>
  <!-- OSM link: https://osm.org/node/3466274066 -->
  <!-- Original coordinates: POINT (47.105574 17.564969) -->
  <!-- Original tags: {'source:date': '2011-05-26', 'amenity': 'bank', 'source': 'turistautak.hu', 'name': 'K&H Bank', 'url': 'http://turistautak.hu/poi.php?id=19037'} -->
  <node action="modify" changeset="1" id="3466274066" lat="47.105574" lon="17.564969" timestamp="2015-04-19T21:05:31Z" uid="4579407" user="KAMI" version="1">
    <tag k="addr:city" v="Ajka"/>
    <tag k="addr:housenumber" v="8"/>
    <tag k="addr:postcode" v="8400"/>
    <tag k="addr:street" v="Szabadság tér"/>
    <tag k="amenity" v="bank"/>
    <tag k="atm" v="yes"/>
    <tag k="bic" v="OKHBHUHB"/>
    <tag k="brand" v="K&amp;H"/>
    <tag k="import" v="osm_poi_matchmaker"/>
    <tag k="name" v="K&amp;H bank"/>
    <tag k="operator" v="K&amp;H Bank Zrt."/>
    <tag k="source" v="website"/>
    <tag k="source:date" v="2018-07-12"/>
    <tag k="url" v="http://turistautak.hu/poi.php?id=19037"/>
    <tag k="website" v="https://www.kh.hu"/>
  </node>
  <!-- OSM link: https://osm.org/node/2345296128 -->
  <!-- Original coordinates: POINT (47.261614 17.874515) -->
  <!-- Original tags: {'amenity': 'bank', 'name': 'K&H bank és biztosítás'} -->
  <node action="modify" changeset="1" id="2345296128" lat="47.261614" lon="17.874515" timestamp="2015-01-08T11:18:22Z" uid="4579407" user="KAMI" version="2">
    <tag k="addr:city" v="Zirc"/>
    <tag k="addr:housenumber" v="2"/>
    <tag k="addr:postcode" v="8420"/>
    <tag k="addr:street" v="Petőfi Sándor utca"/>
    <tag k="amenity" v="bank"/>
    <tag k="atm" v="yes"/>
    <tag k="bic" v="OKHBHUHB"/>
    <tag k="brand" v="K&amp;H"/>
    <tag k="import" v="osm_poi_matchmaker"/>
    <tag k="name" v="K&amp;H bank"/>
    <tag k="operator" v="K&amp;H Bank Zrt."/>
    <tag k="source" v="website"/>
    <tag k="source:date" v="2018-07-12"/>
    <tag k="website" v="https://www.kh.hu"/>
  </node>
  <!-- OSM link: https://osm.org/node/3458274137 -->
  <!-- Original coordinates: POINT (47.328438 17.467264) -->
  <!-- Original tags: {'source:date': '2010-05-02', 'amenity': 'bank', 'name': 'K&H Bank', 'atm': 'yes', 'source': 'turistautak.hu', 'url': 'http://turistautak.hu/poi.php?id=13082'} -->
  <node action="modify" changeset="1" id="3458274137" lat="47.328438" lon="17.467264" timestamp="2015-09-14T10:25:23Z" uid="4579407" user="KAMI" version="2">
    <tag k="addr:city" v="Pápa"/>
    <tag k="addr:housenumber" v="21"/>
    <tag k="addr:postcode" v="8500"/>
    <tag k="addr:street" v="Kossuth Lajos utca"/>
    <tag k="amenity" v="bank"/>
    <tag k="atm" v="yes"/>
    <tag k="bic" v="OKHBHUHB"/>
    <tag k="brand" v="K&amp;H"/>
    <tag k="import" v="osm_poi_matchmaker"/>
    <tag k="name" v="K&amp;H bank"/>
    <tag k="operator" v="K&amp;H Bank Zrt."/>
    <tag k="source" v="website"/>
    <tag k="source:date" v="2018-07-12"/>
    <tag k="url" v="http://turistautak.hu/poi.php?id=13082"/>
    <tag k="website" v="https://www.kh.hu"/>
  </node>
  <!-- Original coordinates: POINT (46.905626 18.05186) -->
  <!-- Original tags: None -->
  <node action="modify" changeset="99999" id="-184" lat="46.905626" lon="18.05186" timestamp="" uid="4579407" user="KAMI" version="99999">
    <tag k="addr:city" v="Siófok"/>
    <tag k="addr:housenumber" v="8"/>
    <tag k="addr:postcode" v="8600"/>
    <tag k="addr:street" v="Fő tér"/>
    <tag k="amenity" v="bank"/>
    <tag k="atm" v="yes"/>
    <tag k="bic" v="OKHBHUHB"/>
    <tag k="brand" v="K&amp;H"/>
    <tag k="import" v="osm_poi_matchmaker"/>
    <tag k="name" v="K&amp;H bank"/>
    <tag k="operator" v="K&amp;H Bank Zrt."/>
    <tag k="source" v="website"/>
    <tag k="source:date" v="2018-07-12"/>
    <tag k="website" v="https://www.kh.hu"/>
  </node>
  <!-- Original coordinates: POINT (46.778092 17.653651) -->
  <!-- Original tags: None -->
  <node action="modify" changeset="99999" id="-185" lat="46.778092" lon="17.653651" timestamp="" uid="4579407" user="KAMI" version="99999">
    <tag k="addr:city" v="Balatonboglár"/>
    <tag k="addr:housenumber" v="7"/>
    <tag k="addr:postcode" v="8630"/>
    <tag k="addr:street" v="Sétáló utca"/>
    <tag k="amenity" v="bank"/>
    <tag k="atm" v="yes"/>
    <tag k="bic" v="OKHBHUHB"/>
    <tag k="brand" v="K&amp;H"/>
    <tag k="import" v="osm_poi_matchmaker"/>
    <tag k="name" v="K&amp;H bank"/>
    <tag k="operator" v="K&amp;H Bank Zrt."/>
    <tag k="source" v="website"/>
    <tag k="source:date" v="2018-07-12"/>
    <tag k="website" v="https://www.kh.hu"/>
  </node>
  <!-- OSM link: https://osm.org/node/2496579135 -->
  <!-- Original coordinates: POINT (46.728481 18.029425) -->
  <!-- Original tags: {'atm': 'yes', 'amenity': 'bank', 'name': 'K&H Tabi fiók'} -->
  <node action="modify" changeset="1" id="2496579135" lat="46.728481" lon="18.029425" timestamp="2013-10-14T18:59:34Z" uid="4579407" user="KAMI" version="1">
    <tag k="addr:city" v="Tab"/>
    <tag k="addr:housenumber" v="134"/>
    <tag k="addr:postcode" v="8660"/>
    <tag k="addr:street" v="Kossuth Lajos út"/>
    <tag k="amenity" v="bank"/>
    <tag k="atm" v="yes"/>
    <tag k="bic" v="OKHBHUHB"/>
    <tag k="brand" v="K&amp;H"/>
    <tag k="import" v="osm_poi_matchmaker"/>
    <tag k="name" v="K&amp;H bank"/>
    <tag k="operator" v="K&amp;H Bank Zrt."/>
    <tag k="source" v="website"/>
    <tag k="source:date" v="2018-07-12"/>
    <tag k="website" v="https://www.kh.hu"/>
  </node>
  <!-- Original coordinates: POINT (46.580922 17.412542) -->
  <!-- Original tags: None -->
  <node action="modify" changeset="99999" id="-187" lat="46.580922" lon="17.412542" timestamp="" uid="4579407" user="KAMI" version="99999">
    <tag k="addr:city" v="Marcali"/>
    <tag k="addr:housenumber" v="21"/>
    <tag k="addr:postcode" v="8700"/>
    <tag k="addr:street" v="Rákóczi út"/>
    <tag k="amenity" v="bank"/>
    <tag k="atm" v="yes"/>
    <tag k="bic" v="OKHBHUHB"/>
    <tag k="brand" v="K&amp;H"/>
    <tag k="import" v="osm_poi_matchmaker"/>
    <tag k="name" v="K&amp;H bank"/>
    <tag k="operator" v="K&amp;H Bank Zrt."/>
    <tag k="source" v="website"/>
    <tag k="source:date" v="2018-07-12"/>
    <tag k="website" v="https://www.kh.hu"/>
  </node>
  <!-- OSM link: https://osm.org/node/1281898458 -->
  <!-- Original coordinates: POINT (46.945376 17.079012) -->
  <!-- Original tags: {'website': 'https://www.kh.hu', 'brand': 'K&H Bank', 'amenity': 'bank', 'name': 'K&H Bank'} -->
  <node action="modify" changeset="1" id="1281898458" lat="46.945376" lon="17.079012" timestamp="2015-03-15T09:39:00Z" uid="4579407" user="KAMI" version="2">
    <tag k="addr:city" v="Zalaszentgrót"/>
    <tag k="addr:housenumber" v="16-18"/>
    <tag k="addr:postcode" v="8790"/>
    <tag k="addr:street" v="Dózsa György utca"/>
    <tag k="amenity" v="bank"/>
    <tag k="atm" v="yes"/>
    <tag k="bic" v="OKHBHUHB"/>
    <tag k="brand" v="K&amp;H"/>
    <tag k="import" v="osm_poi_matchmaker"/>
    <tag k="name" v="K&amp;H bank"/>
    <tag k="operator" v="K&amp;H Bank Zrt."/>
    <tag k="source" v="website"/>
    <tag k="source:date" v="2018-07-12"/>
    <tag k="website" v="https://www.kh.hu"/>
  </node>
  <!-- OSM link: https://osm.org/node/2279290631 -->
  <!-- Original coordinates: POINT (46.454842 16.99049) -->
  <!-- Original tags: {'amenity': 'bank', 'addr:street': 'Fő út', 'addr:housenumber': '2', 'atm': 'yes', 'wheelchair': 'yes', 'addr:city': 'Nagykanizsa', 'addr:country': 'HU', 'website': 'https://www.kh.hu', 'opening_hours': 'Mo 08:00-17:00; Tu-Th 08:00-16:00; Fr 08:00-15:00', 'phone': '+36 93 537160', 'addr:postcode': '8800', 'brand': 'K&H Bank', 'name': 'K&H Bank'} -->
  <node action="modify" changeset="1" id="2279290631" lat="46.454842" lon="16.99049" timestamp="2015-11-22T17:40:15Z" uid="4579407" user="KAMI" version="4">
    <tag k="addr:city" v="Nagykanizsa"/>
    <tag k="addr:country" v="HU"/>
    <tag k="addr:housenumber" v="2"/>
    <tag k="addr:postcode" v="8800"/>
    <tag k="addr:street" v="Fő utca"/>
    <tag k="amenity" v="bank"/>
    <tag k="atm" v="yes"/>
    <tag k="bic" v="OKHBHUHB"/>
    <tag k="brand" v="K&amp;H"/>
    <tag k="import" v="osm_poi_matchmaker"/>
    <tag k="name" v="K&amp;H bank"/>
    <tag k="opening_hours" v="Mo 08:00-17:00; Tu-Th 08:00-16:00; Fr 08:00-15:00"/>
    <tag k="operator" v="K&amp;H Bank Zrt."/>
    <tag k="phone" v="+36 93 537160"/>
    <tag k="source" v="website"/>
    <tag k="source:date" v="2018-07-12"/>
    <tag k="website" v="https://www.kh.hu"/>
    <tag k="wheelchair" v="yes"/>
  </node>
  <!-- OSM link: https://osm.org/node/4909050799 -->
  <!-- Original coordinates: POINT (46.432738 16.722269) -->
  <!-- Original tags: {'atm': 'yes', 'amenity': 'bank', 'name': 'OTP'} -->
  <node action="modify" changeset="1" id="4909050799" lat="46.432738" lon="16.722269" timestamp="2017-06-11T15:16:10Z" uid="4579407" user="KAMI" version="1">
    <tag k="addr:city" v="Letenye"/>
    <tag k="addr:housenumber" v="7"/>
    <tag k="addr:postcode" v="8868"/>
    <tag k="addr:street" v="Szabadság tér"/>
    <tag k="amenity" v="bank"/>
    <tag k="atm" v="yes"/>
    <tag k="bic" v="OKHBHUHB"/>
    <tag k="brand" v="K&amp;H"/>
    <tag k="import" v="osm_poi_matchmaker"/>
    <tag k="name" v="K&amp;H bank"/>
    <tag k="operator" v="K&amp;H Bank Zrt."/>
    <tag k="source" v="website"/>
    <tag k="source:date" v="2018-07-12"/>
    <tag k="website" v="https://www.kh.hu"/>
  </node>
  <!-- OSM link: https://osm.org/node/4143681130 -->
  <!-- Original coordinates: POINT (46.841993 16.845963) -->
  <!-- Original tags: {'atm': 'yes', 'amenity': 'bank', 'name': 'K&H Bank'} -->
  <node action="modify" changeset="1" id="4143681130" lat="46.841993" lon="16.845963" timestamp="2016-04-23T23:12:29Z" uid="4579407" user="KAMI" version="1">
    <tag k="addr:city" v="Zalaegerszeg"/>
    <tag k="addr:housenumber" v="8"/>
    <tag k="addr:postcode" v="8900"/>
    <tag k="addr:street" v="Kossuth Lajos utca"/>
    <tag k="amenity" v="bank"/>
    <tag k="atm" v="yes"/>
    <tag k="bic" v="OKHBHUHB"/>
    <tag k="brand" v="K&amp;H"/>
    <tag k="import" v="osm_poi_matchmaker"/>
    <tag k="name" v="K&amp;H bank"/>
    <tag k="operator" v="K&amp;H Bank Zrt."/>
    <tag k="source" v="website"/>
    <tag k="source:date" v="2018-07-12"/>
    <tag k="website" v="https://www.kh.hu"/>
  </node>
  <!-- OSM link: https://osm.org/node/4345526134 -->
  <!-- Original coordinates: POINT (46.622697 16.538419) -->
  <!-- Original tags: {'amenity': 'bank', 'name': 'K&H Bank'} -->
  <node action="modify" changeset="1" id="4345526134" lat="46.622697" lon="16.538419" timestamp="2016-08-11T08:49:04Z" uid="4579407" user="KAMI" version="1">
    <tag k="addr:city" v="Lenti"/>
    <tag k="addr:housenumber" v="6"/>
    <tag k="addr:postcode" v="8960"/>
    <tag k="addr:street" v="Kossuth Lajos utca"/>
    <tag k="amenity" v="bank"/>
    <tag k="atm" v="yes"/>
    <tag k="bic" v="OKHBHUHB"/>
    <tag k="brand" v="K&amp;H"/>
    <tag k="import" v="osm_poi_matchmaker"/>
    <tag k="name" v="K&amp;H bank"/>
    <tag k="operator" v="K&amp;H Bank Zrt."/>
    <tag k="source" v="website"/>
    <tag k="source:date" v="2018-07-12"/>
    <tag k="website" v="https://www.kh.hu"/>
  </node>
  <!-- Original coordinates: POINT (47.682585 17.631141) -->
  <!-- Original tags: None -->
  <node action="modify" changeset="99999" id="-193" lat="47.682585" lon="17.631141" timestamp="" uid="4579407" user="KAMI" version="99999">
    <tag k="addr:city" v="Győr"/>
    <tag k="addr:housenumber" v="13"/>
    <tag k="addr:postcode" v="9021"/>
    <tag k="addr:street" v="Szent István út"/>
    <tag k="amenity" v="bank"/>
    <tag k="atm" v="yes"/>
    <tag k="bic" v="OKHBHUHB"/>
    <tag k="brand" v="K&amp;H"/>
    <tag k="import" v="osm_poi_matchmaker"/>
    <tag k="name" v="K&amp;H bank"/>
    <tag k="operator" v="K&amp;H Bank Zrt."/>
    <tag k="source" v="website"/>
    <tag k="source:date" v="2018-07-12"/>
    <tag k="website" v="https://www.kh.hu"/>
  </node>
  <!-- OSM link: https://osm.org/node/439260309 -->
  <!-- Original coordinates: POINT (47.684422 17.635989) -->
  <!-- Original tags: {'website': 'https://www.kh.hu', 'amenity': 'bank', 'operator': 'K&H Bank', 'addr:street': 'Szent István út', 'addr:housenumber': '29-31', 'addr:city': 'Győr', 'atm': 'yes', 'addr:postcode': '9021', 'brand': 'K&H Bank', 'name': 'K&H Bank'} -->
  <node action="modify" changeset="1" id="439260309" lat="47.684422" lon="17.635989" timestamp="2017-06-21T12:26:59Z" uid="4579407" user="KAMI" version="7">
    <tag k="addr:city" v="Győr"/>
    <tag k="addr:housenumber" v="29-31"/>
    <tag k="addr:postcode" v="9021"/>
    <tag k="addr:street" v="Szent István út"/>
    <tag k="amenity" v="bank"/>
    <tag k="atm" v="yes"/>
    <tag k="bic" v="OKHBHUHB"/>
    <tag k="brand" v="K&amp;H"/>
    <tag k="import" v="osm_poi_matchmaker"/>
    <tag k="name" v="K&amp;H bank"/>
    <tag k="operator" v="K&amp;H Bank Zrt."/>
    <tag k="source" v="website"/>
    <tag k="source:date" v="2018-07-12"/>
    <tag k="website" v="https://www.kh.hu"/>
  </node>
  <!-- Original coordinates: POINT (47.669892 17.650949) -->
  <!-- Original tags: None -->
  <node action="modify" changeset="99999" id="-195" lat="47.669892" lon="17.650949" timestamp="" uid="4579407" user="KAMI" version="99999">
    <tag k="addr:city" v="Győr"/>
    <tag k="addr:housenumber" v="1/a"/>
    <tag k="addr:postcode" v="9023"/>
    <tag k="addr:street" v="Vasvári Pál utca"/>
    <tag k="amenity" v="bank"/>
    <tag k="atm" v="yes"/>
    <tag k="bic" v="OKHBHUHB"/>
    <tag k="brand" v="K&amp;H"/>
    <tag k="import" v="osm_poi_matchmaker"/>
    <tag k="name" v="K&amp;H bank"/>
    <tag k="operator" v="K&amp;H Bank Zrt."/>
    <tag k="source" v="website"/>
    <tag k="source:date" v="2018-07-12"/>
    <tag k="website" v="https://www.kh.hu"/>
  </node>
  <!-- OSM link: https://osm.org/node/3451001695 -->
  <!-- Original coordinates: POINT (47.875519 17.268673) -->
  <!-- Original tags: {'amenity': 'bank', 'addr:street': 'Fő út', 'addr:housenumber': '26', 'addr:city': 'Mosonmagyaróvár', 'addr:postcode': '9200', 'name': 'K&H Bank'} -->
  <node action="modify" changeset="1" id="3451001695" lat="47.875519" lon="17.268673" timestamp="2015-08-14T20:28:11Z" uid="4579407" user="KAMI" version="2">
    <tag k="addr:city" v="Mosonmagyaróvár"/>
    <tag k="addr:housenumber" v="26"/>
    <tag k="addr:postcode" v="9200"/>
    <tag k="addr:street" v="Fő utca"/>
    <tag k="amenity" v="bank"/>
    <tag k="atm" v="yes"/>
    <tag k="bic" v="OKHBHUHB"/>
    <tag k="brand" v="K&amp;H"/>
    <tag k="import" v="osm_poi_matchmaker"/>
    <tag k="name" v="K&amp;H bank"/>
    <tag k="operator" v="K&amp;H Bank Zrt."/>
    <tag k="source" v="website"/>
    <tag k="source:date" v="2018-07-12"/>
    <tag k="website" v="https://www.kh.hu"/>
  </node>
  <!-- OSM link: https://osm.org/node/4494807156 -->
  <!-- Original coordinates: POINT (47.611322 17.248448) -->
  <!-- Original tags: {'amenity': 'bank', 'opening_hours': 'Mo-Fr 08:00-15:30; PH closed', 'addr:street': 'Soproni út', 'operator': 'K & H', 'addr:housenumber': '60', 'addr:city': 'Csorna', 'atm': 'yes', 'phone': '+36 96 592 110', 'addr:postcode': '9300', 'name': 'K & H Bank'} -->
  <node action="modify" changeset="1" id="4494807156" lat="47.611322" lon="17.248448" timestamp="2018-02-17T21:22:17Z" uid="4579407" user="KAMI" version="6">
    <tag k="addr:city" v="Csorna"/>
    <tag k="addr:housenumber" v="60"/>
    <tag k="addr:postcode" v="9300"/>
    <tag k="addr:street" v="Soproni út"/>
    <tag k="amenity" v="bank"/>
    <tag k="atm" v="yes"/>
    <tag k="bic" v="OKHBHUHB"/>
    <tag k="brand" v="K&amp;H"/>
    <tag k="import" v="osm_poi_matchmaker"/>
    <tag k="name" v="K&amp;H bank"/>
    <tag k="opening_hours" v="Mo-Fr 08:00-15:30; PH closed"/>
    <tag k="operator" v="K&amp;H Bank Zrt."/>
    <tag k="phone" v="+36 96 592 110"/>
    <tag k="source" v="website"/>
    <tag k="source:date" v="2018-07-12"/>
    <tag k="website" v="https://www.kh.hu"/>
  </node>
  <!-- Original coordinates: POINT (47.593342 17.025251) -->
  <!-- Original tags: None -->
  <node action="modify" changeset="99999" id="-198" lat="47.593342" lon="17.025251" timestamp="" uid="4579407" user="KAMI" version="99999">
    <tag k="addr:city" v="Kapuvár"/>
    <tag k="addr:housenumber" v="13"/>
    <tag k="addr:postcode" v="9330"/>
    <tag k="addr:street" v="Fő tér"/>
    <tag k="amenity" v="bank"/>
    <tag k="atm" v="yes"/>
    <tag k="bic" v="OKHBHUHB"/>
    <tag k="brand" v="K&amp;H"/>
    <tag k="import" v="osm_poi_matchmaker"/>
    <tag k="name" v="K&amp;H bank"/>
    <tag k="operator" v="K&amp;H Bank Zrt."/>
    <tag k="source" v="website"/>
    <tag k="source:date" v="2018-07-12"/>
    <tag k="website" v="https://www.kh.hu"/>
  </node>
  <!-- Original coordinates: POINT (47.689411 16.584013) -->
  <!-- Original tags: None -->
  <node action="modify" changeset="99999" id="-199" lat="47.689411" lon="16.584013" timestamp="" uid="4579407" user="KAMI" version="99999">
    <tag k="addr:city" v="Sopron"/>
    <tag k="addr:housenumber" v="15-17"/>
    <tag k="addr:postcode" v="9400"/>
    <tag k="addr:street" v="Selmeci utca"/>
    <tag k="amenity" v="bank"/>
    <tag k="atm" v="yes"/>
    <tag k="bic" v="OKHBHUHB"/>
    <tag k="brand" v="K&amp;H"/>
    <tag k="import" v="osm_poi_matchmaker"/>
    <tag k="name" v="K&amp;H bank"/>
    <tag k="operator" v="K&amp;H Bank Zrt."/>
    <tag k="source" v="website"/>
    <tag k="source:date" v="2018-07-12"/>
    <tag k="website" v="https://www.kh.hu"/>
  </node>
  <!-- OSM link: https://osm.org/node/3060126162 -->
  <!-- Original coordinates: POINT (47.686549 16.593173) -->
  <!-- Original tags: {'amenity': 'bank', 'addr:street': 'Várkerület', 'addr:housenumber': '41', 'atm': 'yes', 'addr:city': 'Sopron', 'website': 'https://www.kh.hu', 'opening_hours': 'Mo 08:00-17:00;Tu-Th 08:00-16:00;Fr 08:00-15:00', 'phone': '+36 99 511700', 'fax': '+36 99 511714', 'addr:postcode': '9400', 'brand': 'K&H Bank', 'name': 'K&H Bank'} -->
  <node action="modify" changeset="1" id="3060126162" lat="47.686549" lon="16.593173" timestamp="2015-03-15T09:39:06Z" uid="4579407" user="KAMI" version="2">
    <tag k="addr:city" v="Sopron"/>
    <tag k="addr:housenumber" v="41"/>
    <tag k="addr:postcode" v="9400"/>
    <tag k="addr:street" v="Várkerület"/>
    <tag k="amenity" v="bank"/>
    <tag k="atm" v="yes"/>
    <tag k="bic" v="OKHBHUHB"/>
    <tag k="brand" v="K&amp;H"/>
    <tag k="fax" v="+36 99 511714"/>
    <tag k="import" v="osm_poi_matchmaker"/>
    <tag k="name" v="K&amp;H bank"/>
    <tag k="opening_hours" v="Mo 08:00-17:00;Tu-Th 08:00-16:00;Fr 08:00-15:00"/>
    <tag k="operator" v="K&amp;H Bank Zrt."/>
    <tag k="phone" v="+36 99 511700"/>
    <tag k="source" v="website"/>
    <tag k="source:date" v="2018-07-12"/>
    <tag k="website" v="https://www.kh.hu"/>
  </node>
  <!-- OSM link: https://osm.org/node/293151830 -->
  <!-- Original coordinates: POINT (47.257439 17.152292) -->
  <!-- Original tags: {'amenity': 'bank', 'wheelchair': 'limited', 'name': 'K&H'} -->
  <node action="modify" changeset="1" id="293151830" lat="47.257439" lon="17.152292" timestamp="2015-11-22T16:26:08Z" uid="4579407" user="KAMI" version="5">
    <tag k="addr:city" v="Celldömölk"/>
    <tag k="addr:housenumber" v="13"/>
    <tag k="addr:postcode" v="9500"/>
    <tag k="addr:street" v="dr. Géfin Lajos tér"/>
    <tag k="amenity" v="bank"/>
    <tag k="atm" v="yes"/>
    <tag k="bic" v="OKHBHUHB"/>
    <tag k="brand" v="K&amp;H"/>
    <tag k="import" v="osm_poi_matchmaker"/>
    <tag k="name" v="K&amp;H bank"/>
    <tag k="operator" v="K&amp;H Bank Zrt."/>
    <tag k="source" v="website"/>
    <tag k="source:date" v="2018-07-12"/>
    <tag k="website" v="https://www.kh.hu"/>
    <tag k="wheelchair" v="limited"/>
  </node>
  <!-- Original coordinates: POINT (47.253781 16.935651) -->
  <!-- Original tags: None -->
  <node action="modify" changeset="99999" id="-202" lat="47.253781" lon="16.935651" timestamp="" uid="4579407" user="KAMI" version="99999">
    <tag k="addr:city" v="Sárvár"/>
    <tag k="addr:housenumber" v="1-3"/>
    <tag k="addr:postcode" v="9600"/>
    <tag k="addr:street" v="Batthyány utca"/>
    <tag k="amenity" v="bank"/>
    <tag k="atm" v="yes"/>
    <tag k="bic" v="OKHBHUHB"/>
    <tag k="brand" v="K&amp;H"/>
    <tag k="import" v="osm_poi_matchmaker"/>
    <tag k="name" v="K&amp;H bank"/>
    <tag k="operator" v="K&amp;H Bank Zrt."/>
    <tag k="source" v="website"/>
    <tag k="source:date" v="2018-07-12"/>
    <tag k="website" v="https://www.kh.hu"/>
  </node>
  <!-- OSM link: https://osm.org/node/3665241633 -->
  <!-- Original coordinates: POINT (47.23241 16.621143) -->
  <!-- Original tags: {'atm': 'yes', 'amenity': 'bank', 'name': 'K&H Bank'} -->
  <node action="modify" changeset="1" id="3665241633" lat="47.23241" lon="16.621143" timestamp="2015-07-24T22:56:16Z" uid="4579407" user="KAMI" version="1">
    <tag k="addr:city" v="Szombathely"/>
    <tag k="addr:housenumber" v="10"/>
    <tag k="addr:postcode" v="9700"/>
    <tag k="addr:street" v="Kőszegi utca"/>
    <tag k="amenity" v="bank"/>
    <tag k="atm" v="yes"/>
    <tag k="bic" v="OKHBHUHB"/>
    <tag k="brand" v="K&amp;H"/>
    <tag k="import" v="osm_poi_matchmaker"/>
    <tag k="name" v="K&amp;H bank"/>
    <tag k="operator" v="K&amp;H Bank Zrt."/>
    <tag k="source" v="website"/>
    <tag k="source:date" v="2018-07-12"/>
    <tag k="website" v="https://www.kh.hu"/>
  </node>
  <!-- Original coordinates: POINT (47.388264 16.542416) -->
  <!-- Original tags: None -->
  <node action="modify" changeset="99999" id="-204" lat="47.388264" lon="16.542416" timestamp="" uid="4579407" user="KAMI" version="99999">
    <tag k="addr:city" v="Kőszeg"/>
    <tag k="addr:housenumber" v="4"/>
    <tag k="addr:postcode" v="9730"/>
    <tag k="addr:street" v="Fő tér"/>
    <tag k="amenity" v="bank"/>
    <tag k="atm" v="yes"/>
    <tag k="bic" v="OKHBHUHB"/>
    <tag k="brand" v="K&amp;H"/>
    <tag k="import" v="osm_poi_matchmaker"/>
    <tag k="name" v="K&amp;H bank"/>
    <tag k="operator" v="K&amp;H Bank Zrt."/>
    <tag k="source" v="website"/>
    <tag k="source:date" v="2018-07-12"/>
    <tag k="website" v="https://www.kh.hu"/>
  </node>
  <!-- Original coordinates: POINT (47.009922 16.603959) -->
  <!-- Original tags: None -->
  <node action="modify" changeset="99999" id="-205" lat="47.009922" lon="16.603959" timestamp="" uid="4579407" user="KAMI" version="99999">
    <tag k="addr:city" v="Körmend"/>
    <tag k="addr:housenumber" v="1/a"/>
    <tag k="addr:postcode" v="9900"/>
    <tag k="addr:street" v="Vida utca"/>
    <tag k="amenity" v="bank"/>
    <tag k="atm" v="yes"/>
    <tag k="bic" v="OKHBHUHB"/>
    <tag k="brand" v="K&amp;H"/>
    <tag k="import" v="osm_poi_matchmaker"/>
    <tag k="name" v="K&amp;H bank"/>
    <tag k="operator" v="K&amp;H Bank Zrt."/>
    <tag k="source" v="website"/>
    <tag k="source:date" v="2018-07-12"/>
    <tag k="website" v="https://www.kh.hu"/>
  </node>
  <!-- OSM link: https://osm.org/node/1764396786 -->
  <!-- Original coordinates: POINT (46.952975 16.273825) -->
  <!-- Original tags: {'website': 'https://www.kh.hu', 'atm': 'yes', 'amenity': 'bank', 'brand': 'K&H Bank', 'name': 'K&H Bank'} -->
  <node action="modify" changeset="1" id="1764396786" lat="46.952975" lon="16.273825" timestamp="2017-08-05T09:28:04Z" uid="4579407" user="KAMI" version="4">
    <tag k="addr:city" v="Szentgotthárd"/>
    <tag k="addr:housenumber" v="23"/>
    <tag k="addr:postcode" v="9970"/>
    <tag k="addr:street" v="Széll Kálmán tér"/>
    <tag k="amenity" v="bank"/>
    <tag k="atm" v="yes"/>
    <tag k="bic" v="OKHBHUHB"/>
    <tag k="brand" v="K&amp;H"/>
    <tag k="import" v="osm_poi_matchmaker"/>
    <tag k="name" v="K&amp;H bank"/>
    <tag k="operator" v="K&amp;H Bank Zrt."/>
    <tag k="source" v="website"/>
    <tag k="source:date" v="2018-07-12"/>
    <tag k="website" v="https://www.kh.hu"/>
  </node>
</osm>
