<?xml version='1.0' encoding='UTF-8'?>
<osm generator="JOSM" version="0.6">
  <!-- Original coordinates: POINT (47.709941 18.015708) -->
  <!-- Original tags:  -->
  <node action="modify" changeset="99999" id="-1" lat="47.709941" lon="18.015708" timestamp="" uid="4579407" user="KAMI" version="99999">
    <tag k="addr:city" v="Ács"/>
    <tag k="addr:country" v="HU"/>
    <tag k="addr:housenumber" v="2"/>
    <tag k="addr:postcode" v="2941"/>
    <tag k="addr:street" v="Fő utca"/>
    <tag k="amenity" v="fuel"/>
    <tag k="brand" v="Avia"/>
    <tag k="email" v="gatkft@gmail.com"/>
    <tag k="facebook" v="https://www.facebook.com/AVIAHungary"/>
    <tag k="fuel:diesel" v="yes"/>
    <tag k="fuel:octane_95" v="yes"/>
    <tag k="import" v="osm_poi_matchmaker"/>
    <tag k="name" v="Avia"/>
    <tag k="operator" v="AVIA Hungária Kft."/>
    <tag k="payment:mastercard" v="yes"/>
    <tag k="payment:visa" v="yes"/>
    <tag k="phone" v="+3634595009"/>
    <tag k="source" v="website"/>
    <tag k="source:date" v="2018-07-15"/>
    <tag k="website" v="https://www.avia.hu/toltoallomas/?id=114"/>
    <tag k="youtube" v="https://www.youtube.com/channel/UCjvjkjf2RgmKBuTnKSXk-Rg"/>
  </node>
  <!-- OSM link: https://osm.org/node/1559171089 -->
  <!-- Original coordinates: POINT (46.652441 17.924793) -->
  <!-- Original tags: 'amenity':'fuel'; 'fuel:1_25':'no'; 'fuel:1_50':'no'; 'fuel:GTL_diesel':'no'; 'fuel:HGV_diesel':'no'; 'fuel:biodiesel':'no'; 'fuel:biogas':'no'; 'fuel:cng':'no'; 'fuel:diesel':'yes'; 'fuel:e10':'no'; 'fuel:e85':'no'; 'fuel:electricity':'no'; 'fuel:lpg':'no'; 'fuel:octane_100':'no'; 'fuel:octane_91':'no'; 'fuel:octane_95':'yes'; 'fuel:octane_98':'yes';  -->
  <node action="modify" changeset="1" id="1559171089" lat="46.6528229949481" lon="17.9246877975049" timestamp="2011-12-23T11:13:54Z" uid="4579407" user="KAMI" version="1">
    <tag k="addr:city" v="Andocs"/>
    <tag k="addr:conscriptionnumber" v="206/5"/>
    <tag k="addr:country" v="HU"/>
    <tag k="addr:postcode" v="8675"/>
    <tag k="addr:street" v="Ady Endre utca"/>
    <tag k="amenity" v="fuel"/>
    <tag k="brand" v="Avia"/>
    <tag k="email" v="andocs@avia.hu"/>
    <tag k="facebook" v="https://www.facebook.com/AVIAHungary"/>
    <tag k="fuel:1_25" v="no"/>
    <tag k="fuel:1_50" v="no"/>
    <tag k="fuel:GTL_diesel" v="no"/>
    <tag k="fuel:HGV_diesel" v="no"/>
    <tag k="fuel:biodiesel" v="no"/>
    <tag k="fuel:biogas" v="no"/>
    <tag k="fuel:cng" v="no"/>
    <tag k="fuel:diesel" v="yes"/>
    <tag k="fuel:e10" v="no"/>
    <tag k="fuel:e85" v="no"/>
    <tag k="fuel:electricity" v="no"/>
    <tag k="fuel:lpg" v="no"/>
    <tag k="fuel:octane_100" v="no"/>
    <tag k="fuel:octane_91" v="no"/>
    <tag k="fuel:octane_95" v="yes"/>
    <tag k="fuel:octane_98" v="yes"/>
    <tag k="import" v="osm_poi_matchmaker"/>
    <tag k="name" v="Avia"/>
    <tag k="operator" v="AVIA Hungária Kft."/>
    <tag k="payment:mastercard" v="yes"/>
    <tag k="payment:visa" v="yes"/>
    <tag k="phone" v="+3684330734"/>
    <tag k="source" v="website"/>
    <tag k="source:date" v="2018-07-15"/>
    <tag k="website" v="https://www.avia.hu/toltoallomas/?id=47"/>
    <tag k="youtube" v="https://www.youtube.com/channel/UCjvjkjf2RgmKBuTnKSXk-Rg"/>
  </node>
  <!-- Original coordinates: POINT (47.6587106 19.4994406) -->
  <!-- Original tags:  -->
  <node action="modify" changeset="99999" id="-3" lat="47.6587106" lon="19.4994406" timestamp="" uid="4579407" user="KAMI" version="99999">
    <tag k="addr:city" v="Aszód"/>
    <tag k="addr:country" v="HU"/>
    <tag k="addr:housenumber" v="44"/>
    <tag k="addr:postcode" v="2170"/>
    <tag k="addr:street" v="Falujárók útja"/>
    <tag k="amenity" v="fuel"/>
    <tag k="brand" v="Avia"/>
    <tag k="email" v="jeno.horvath@goldenglob.hu"/>
    <tag k="facebook" v="https://www.facebook.com/AVIAHungary"/>
    <tag k="fuel:diesel" v="yes"/>
    <tag k="fuel:octane_95" v="yes"/>
    <tag k="import" v="osm_poi_matchmaker"/>
    <tag k="name" v="Avia"/>
    <tag k="operator" v="AVIA Hungária Kft."/>
    <tag k="payment:mastercard" v="yes"/>
    <tag k="payment:visa" v="yes"/>
    <tag k="phone" v="+36202004000"/>
    <tag k="source" v="website"/>
    <tag k="source:date" v="2018-07-15"/>
    <tag k="website" v="https://www.avia.hu/toltoallomas/?id=88"/>
    <tag k="youtube" v="https://www.youtube.com/channel/UCjvjkjf2RgmKBuTnKSXk-Rg"/>
  </node>
  <!-- Original coordinates: POINT (46.87672420429322 16.74576044082642) -->
  <!-- Original tags:  -->
  <node action="modify" changeset="99999" id="-4" lat="46.87672420429322" lon="16.745760440826416" timestamp="" uid="4579407" user="KAMI" version="99999">
    <tag k="addr:city" v="Bagod"/>
    <tag k="addr:country" v="HU"/>
    <tag k="addr:housenumber" v="21-23"/>
    <tag k="addr:postcode" v="8992"/>
    <tag k="addr:street" v="Kossuth utca"/>
    <tag k="amenity" v="fuel"/>
    <tag k="brand" v="Avia"/>
    <tag k="email" v="aviadiesel@avia.hu"/>
    <tag k="facebook" v="https://www.facebook.com/AVIAHungary"/>
    <tag k="fuel:diesel" v="yes"/>
    <tag k="fuel:octane_95" v="yes"/>
    <tag k="import" v="osm_poi_matchmaker"/>
    <tag k="name" v="Avia"/>
    <tag k="operator" v="AVIA Hungária Kft."/>
    <tag k="payment:mastercard" v="yes"/>
    <tag k="payment:visa" v="yes"/>
    <tag k="phone" v="+3692460696"/>
    <tag k="source" v="website"/>
    <tag k="source:date" v="2018-07-15"/>
    <tag k="website" v="https://www.avia.hu/toltoallomas/?id=9"/>
    <tag k="youtube" v="https://www.youtube.com/channel/UCjvjkjf2RgmKBuTnKSXk-Rg"/>
  </node>
  <!-- OSM link: https://osm.org/way/416502211 -->
  <!-- Original coordinates: POINT (46.18934 18.933) -->
  <!-- Original tags: 'amenity':'fuel'; 'brand':'AVIA'; 'building':'commercial'; 'name':'AVIA'; 'website':'http://www.avia.hu/';  -->
  <way action="modify" changeset="1" id="416502211" timestamp="2016-05-08T03:46:22Z" uid="4579407" user="KAMI" version="1">
    <nd ref="4172458449"/>
    <nd ref="4172458450"/>
    <nd ref="4172458451"/>
    <nd ref="4172458452"/>
    <nd ref="4172458449"/>
    <tag k="addr:city" v="Baja"/>
    <tag k="addr:country" v="HU"/>
    <tag k="addr:housenumber" v="56"/>
    <tag k="addr:postcode" v="6500"/>
    <tag k="addr:street" v="Bajcsy-Zs. utca"/>
    <tag k="amenity" v="fuel"/>
    <tag k="brand" v="Avia"/>
    <tag k="building" v="commercial"/>
    <tag k="email" v="baja@lamarin.hu"/>
    <tag k="facebook" v="https://www.facebook.com/AVIAHungary"/>
    <tag k="fuel:diesel" v="yes"/>
    <tag k="fuel:octane_95" v="yes"/>
    <tag k="import" v="osm_poi_matchmaker"/>
    <tag k="name" v="Avia"/>
    <tag k="operator" v="AVIA Hungária Kft."/>
    <tag k="payment:mastercard" v="yes"/>
    <tag k="payment:visa" v="yes"/>
    <tag k="phone" v="+3679522730"/>
    <tag k="source" v="website"/>
    <tag k="source:date" v="2018-07-15"/>
    <tag k="website" v="https://www.avia.hu/toltoallomas/?id=61"/>
    <tag k="youtube" v="https://www.youtube.com/channel/UCjvjkjf2RgmKBuTnKSXk-Rg"/>
  </way>
  <!-- Original coordinates: POINT (46.2086169 17.1451804) -->
  <!-- Original tags:  -->
  <node action="modify" changeset="99999" id="-6" lat="46.2086169" lon="17.1451804" timestamp="" uid="4579407" user="KAMI" version="99999">
    <tag k="addr:city" v="Berzence"/>
    <tag k="addr:country" v="HU"/>
    <tag k="addr:housenumber" v="1"/>
    <tag k="addr:postcode" v="7516"/>
    <tag k="addr:street" v="Árpád tér"/>
    <tag k="amenity" v="fuel"/>
    <tag k="brand" v="Avia"/>
    <tag k="email" v="berzencekut1120@gmail.com"/>
    <tag k="facebook" v="https://www.facebook.com/AVIAHungary"/>
    <tag k="fuel:diesel" v="yes"/>
    <tag k="fuel:octane_95" v="yes"/>
    <tag k="import" v="osm_poi_matchmaker"/>
    <tag k="name" v="Avia"/>
    <tag k="operator" v="AVIA Hungária Kft."/>
    <tag k="payment:mastercard" v="yes"/>
    <tag k="payment:visa" v="yes"/>
    <tag k="phone" v="+3682778711"/>
    <tag k="source" v="website"/>
    <tag k="source:date" v="2018-07-15"/>
    <tag k="website" v="https://www.avia.hu/toltoallomas/?id=44"/>
    <tag k="youtube" v="https://www.youtube.com/channel/UCjvjkjf2RgmKBuTnKSXk-Rg"/>
  </node>
  <!-- OSM link: https://osm.org/node/3489613996 -->
  <!-- Original coordinates: POINT (47.813262 21.850911) -->
  <!-- Original tags: 'amenity':'fuel'; 'source':'turistautak.hu'; 'source:date':'2010-05-10'; 'url':'http://turistautak.hu/poi.php?id=53006';  -->
  <node action="modify" changeset="1" id="3489613996" lat="47.8132669948978" lon="21.8509829969583" timestamp="2015-04-30T20:51:08Z" uid="4579407" user="KAMI" version="1">
    <tag k="addr:city" v="Biri"/>
    <tag k="addr:country" v="HU"/>
    <tag k="addr:housenumber" v="32"/>
    <tag k="addr:postcode" v="4235"/>
    <tag k="addr:street" v="Fő utca"/>
    <tag k="amenity" v="fuel"/>
    <tag k="brand" v="Avia"/>
    <tag k="email" v="birispetrolkft@gmail.com"/>
    <tag k="facebook" v="https://www.facebook.com/AVIAHungary"/>
    <tag k="fuel:diesel" v="yes"/>
    <tag k="fuel:octane_95" v="yes"/>
    <tag k="import" v="osm_poi_matchmaker"/>
    <tag k="name" v="Avia"/>
    <tag k="operator" v="AVIA Hungária Kft."/>
    <tag k="payment:mastercard" v="yes"/>
    <tag k="payment:visa" v="yes"/>
    <tag k="source" v="website"/>
    <tag k="source:date" v="2018-07-15"/>
    <tag k="url" v="http://turistautak.hu/poi.php?id=53006"/>
    <tag k="website" v="https://www.avia.hu/toltoallomas/?id=85"/>
    <tag k="youtube" v="https://www.youtube.com/channel/UCjvjkjf2RgmKBuTnKSXk-Rg"/>
  </node>
  <!-- OSM link: https://osm.org/way/209570435 -->
  <!-- Original coordinates: POINT (47.5146 19.1466) -->
  <!-- Original tags: 'amenity':'fuel'; 'brand':'AVIA'; 'building':'yes'; 'name':'AVIA'; 'website':'http://www.avia.hu';  -->
  <way action="modify" changeset="1" id="209570435" timestamp="2015-03-15T10:49:57Z" uid="4579407" user="KAMI" version="3">
    <nd ref="2197771374"/>
    <nd ref="2197771460"/>
    <nd ref="2197771287"/>
    <nd ref="2197771468"/>
    <nd ref="2197771328"/>
    <nd ref="2197771388"/>
    <nd ref="2197771502"/>
    <nd ref="2197771280"/>
    <nd ref="2197771447"/>
    <nd ref="2197771361"/>
    <nd ref="2197771396"/>
    <nd ref="2197771481"/>
    <nd ref="2197771374"/>
    <tag k="addr:city" v="Budapest"/>
    <tag k="addr:country" v="HU"/>
    <tag k="addr:housenumber" v="67"/>
    <tag k="addr:postcode" v="1144"/>
    <tag k="addr:street" v="Gvadányi út"/>
    <tag k="amenity" v="fuel"/>
    <tag k="brand" v="Avia"/>
    <tag k="building" v="yes"/>
    <tag k="email" v="zsoniko@avia.hu"/>
    <tag k="facebook" v="https://www.facebook.com/AVIAHungary"/>
    <tag k="fuel:diesel" v="yes"/>
    <tag k="fuel:octane_95" v="yes"/>
    <tag k="import" v="osm_poi_matchmaker"/>
    <tag k="name" v="Avia"/>
    <tag k="operator" v="AVIA Hungária Kft."/>
    <tag k="payment:mastercard" v="yes"/>
    <tag k="payment:visa" v="yes"/>
    <tag k="phone" v="+3614609623"/>
    <tag k="source" v="website"/>
    <tag k="source:date" v="2018-07-15"/>
    <tag k="website" v="https://www.avia.hu/toltoallomas/?id=12"/>
    <tag k="youtube" v="https://www.youtube.com/channel/UCjvjkjf2RgmKBuTnKSXk-Rg"/>
  </way>
  <!-- Original coordinates: POINT (47.4114179 19.0566853) -->
  <!-- Original tags:  -->
  <node action="modify" changeset="99999" id="-9" lat="47.4114179" lon="19.0566853" timestamp="" uid="4579407" user="KAMI" version="99999">
    <tag k="addr:city" v="Budapest"/>
    <tag k="addr:country" v="HU"/>
    <tag k="addr:housenumber" v="195-197"/>
    <tag k="addr:postcode" v="1214"/>
    <tag k="addr:street" v="II. Rákóczi Ferenc utca"/>
    <tag k="amenity" v="fuel"/>
    <tag k="brand" v="Avia"/>
    <tag k="email" v="vadber@avia.hu"/>
    <tag k="facebook" v="https://www.facebook.com/AVIAHungary"/>
    <tag k="fuel:diesel" v="yes"/>
    <tag k="fuel:octane_95" v="yes"/>
    <tag k="import" v="osm_poi_matchmaker"/>
    <tag k="name" v="Avia"/>
    <tag k="operator" v="AVIA Hungária Kft."/>
    <tag k="payment:mastercard" v="yes"/>
    <tag k="payment:visa" v="yes"/>
    <tag k="phone" v="+3614206675"/>
    <tag k="source" v="website"/>
    <tag k="source:date" v="2018-07-15"/>
    <tag k="website" v="https://www.avia.hu/toltoallomas/?id=1"/>
    <tag k="youtube" v="https://www.youtube.com/channel/UCjvjkjf2RgmKBuTnKSXk-Rg"/>
  </node>
  <!-- OSM link: https://osm.org/way/203129409 -->
  <!-- Original coordinates: POINT (47.5056 19.1604) -->
  <!-- Original tags: 'addr:city':'Budapest'; 'addr:housename':'AVIA töltőállomás'; 'addr:housenumber':'89'; 'addr:postcode':'1106'; 'addr:street':'Kerepesi út'; 'amenity':'fuel'; 'brand':'AVIA'; 'building':'yes'; 'building:levels':'1'; 'building:min_level':'1'; 'building:part':'roof'; 'height':'5'; 'min_height':'4.5'; 'name':'AVIA'; 'website':'http://www.avia.hu';  -->
  <way action="modify" changeset="1" id="203129409" timestamp="2016-02-02T10:18:02Z" uid="4579407" user="KAMI" version="6">
    <nd ref="2131009295"/>
    <nd ref="2131009260"/>
    <nd ref="2473458175"/>
    <nd ref="2131009268"/>
    <nd ref="2131009244"/>
    <nd ref="2473458174"/>
    <nd ref="2131009295"/>
    <tag k="addr:city" v="Budapest"/>
    <tag k="addr:country" v="HU"/>
    <tag k="addr:housename" v="AVIA töltőállomás"/>
    <tag k="addr:housenumber" v="89"/>
    <tag k="addr:postcode" v="1106"/>
    <tag k="addr:street" v="Kerepesi út"/>
    <tag k="amenity" v="fuel"/>
    <tag k="brand" v="Avia"/>
    <tag k="building" v="yes"/>
    <tag k="building:levels" v="1"/>
    <tag k="building:min_level" v="1"/>
    <tag k="building:part" v="roof"/>
    <tag k="email" v="zsoniko@avia.hu"/>
    <tag k="facebook" v="https://www.facebook.com/AVIAHungary"/>
    <tag k="fuel:diesel" v="yes"/>
    <tag k="fuel:octane_95" v="yes"/>
    <tag k="height" v="5"/>
    <tag k="import" v="osm_poi_matchmaker"/>
    <tag k="min_height" v="4.5"/>
    <tag k="name" v="Avia"/>
    <tag k="operator" v="AVIA Hungária Kft."/>
    <tag k="payment:mastercard" v="yes"/>
    <tag k="payment:visa" v="yes"/>
    <tag k="phone" v="+36209791555"/>
    <tag k="source" v="website"/>
    <tag k="source:date" v="2018-07-15"/>
    <tag k="website" v="https://www.avia.hu/toltoallomas/?id=15"/>
    <tag k="youtube" v="https://www.youtube.com/channel/UCjvjkjf2RgmKBuTnKSXk-Rg"/>
  </way>
  <!-- Original coordinates: POINT (47.4906585 19.1707465) -->
  <!-- Original tags:  -->
  <node action="modify" changeset="99999" id="-11" lat="47.4906585" lon="19.1707465" timestamp="" uid="4579407" user="KAMI" version="99999">
    <tag k="addr:city" v="Budapest"/>
    <tag k="addr:country" v="HU"/>
    <tag k="addr:housenumber" v="108/A"/>
    <tag k="addr:postcode" v="1106"/>
    <tag k="addr:street" v="Keresztúri utca"/>
    <tag k="amenity" v="fuel"/>
    <tag k="brand" v="Avia"/>
    <tag k="email" v="martonlaszlo666@gmail.com"/>
    <tag k="facebook" v="https://www.facebook.com/AVIAHungary"/>
    <tag k="fuel:diesel" v="yes"/>
    <tag k="fuel:octane_95" v="yes"/>
    <tag k="import" v="osm_poi_matchmaker"/>
    <tag k="name" v="Avia"/>
    <tag k="operator" v="AVIA Hungária Kft."/>
    <tag k="payment:mastercard" v="yes"/>
    <tag k="payment:visa" v="yes"/>
    <tag k="phone" v="+36705055589"/>
    <tag k="source" v="website"/>
    <tag k="source:date" v="2018-07-15"/>
    <tag k="website" v="https://www.avia.hu/toltoallomas/?id=132"/>
    <tag k="youtube" v="https://www.youtube.com/channel/UCjvjkjf2RgmKBuTnKSXk-Rg"/>
  </node>
  <!-- Original coordinates: POINT (47.3737605161 16.7782258987) -->
  <!-- Original tags:  -->
  <node action="modify" changeset="99999" id="-12" lat="47.3737605161" lon="16.7782258987" timestamp="" uid="4579407" user="KAMI" version="99999">
    <tag k="addr:city" v="Bük"/>
    <tag k="addr:conscriptionnumber" v="0131/3"/>
    <tag k="addr:country" v="HU"/>
    <tag k="addr:postcode" v="9737"/>
    <tag k="amenity" v="fuel"/>
    <tag k="brand" v="Avia"/>
    <tag k="email" v="aviadiesel@avia.hu"/>
    <tag k="facebook" v="https://www.facebook.com/AVIAHungary"/>
    <tag k="fuel:diesel" v="yes"/>
    <tag k="fuel:octane_95" v="yes"/>
    <tag k="import" v="osm_poi_matchmaker"/>
    <tag k="name" v="Avia"/>
    <tag k="operator" v="AVIA Hungária Kft."/>
    <tag k="payment:mastercard" v="yes"/>
    <tag k="payment:visa" v="yes"/>
    <tag k="phone" v="+3694358050"/>
    <tag k="source" v="website"/>
    <tag k="source:date" v="2018-07-15"/>
    <tag k="website" v="https://www.avia.hu/toltoallomas/?id=24"/>
    <tag k="youtube" v="https://www.youtube.com/channel/UCjvjkjf2RgmKBuTnKSXk-Rg"/>
  </node>
  <!-- OSM link: https://osm.org/node/2832259629 -->
  <!-- Original coordinates: POINT (48.2635133 21.8943333) -->
  <!-- Original tags: 'amenity':'fuel';  -->
  <node action="modify" changeset="1" id="2832259629" lat="48.2633438948798" lon="21.8943349969523" timestamp="2014-05-02T18:44:05Z" uid="4579407" user="KAMI" version="1">
    <tag k="addr:city" v="Cigánd"/>
    <tag k="addr:country" v="HU"/>
    <tag k="addr:housenumber" v="52/A"/>
    <tag k="addr:postcode" v="3973"/>
    <tag k="addr:street" v="Vasút út"/>
    <tag k="amenity" v="fuel"/>
    <tag k="brand" v="Avia"/>
    <tag k="email" v="cigandibenzinkut@hotmail.com"/>
    <tag k="facebook" v="https://www.facebook.com/AVIAHungary"/>
    <tag k="fuel:diesel" v="yes"/>
    <tag k="fuel:octane_95" v="yes"/>
    <tag k="import" v="osm_poi_matchmaker"/>
    <tag k="name" v="Avia"/>
    <tag k="operator" v="AVIA Hungária Kft."/>
    <tag k="payment:mastercard" v="yes"/>
    <tag k="payment:visa" v="yes"/>
    <tag k="phone" v="+3647334222"/>
    <tag k="source" v="website"/>
    <tag k="source:date" v="2018-07-15"/>
    <tag k="website" v="https://www.avia.hu/toltoallomas/?id=30"/>
    <tag k="youtube" v="https://www.youtube.com/channel/UCjvjkjf2RgmKBuTnKSXk-Rg"/>
  </node>
  <!-- OSM link: https://osm.org/node/3459862390 -->
  <!-- Original coordinates: POINT (46.978751 16.504104) -->
  <!-- Original tags: 'amenity':'fuel'; 'fixme':'resurvey (source was old)'; 'name':'S&S'; 'source':'turistautak.hu'; 'source:date':'2008-07-22'; 'url':'http://turistautak.hu/poi.php?id=25207';  -->
  <node action="modify" changeset="1" id="3459862390" lat="46.9784729949335" lon="16.5040769977026" timestamp="2015-04-16T17:46:25Z" uid="4579407" user="KAMI" version="1">
    <tag k="addr:city" v="Csákánydoroszló"/>
    <tag k="addr:country" v="HU"/>
    <tag k="addr:housenumber" v="70"/>
    <tag k="addr:postcode" v="9919"/>
    <tag k="addr:street" v="Vasút utca"/>
    <tag k="amenity" v="fuel"/>
    <tag k="brand" v="Avia"/>
    <tag k="email" v="aviadiesel@avia.hu"/>
    <tag k="facebook" v="https://www.facebook.com/AVIAHungary"/>
    <tag k="fixme" v="resurvey (source was old)"/>
    <tag k="fuel:diesel" v="yes"/>
    <tag k="fuel:octane_95" v="yes"/>
    <tag k="import" v="osm_poi_matchmaker"/>
    <tag k="name" v="Avia"/>
    <tag k="operator" v="AVIA Hungária Kft."/>
    <tag k="payment:mastercard" v="yes"/>
    <tag k="payment:visa" v="yes"/>
    <tag k="phone" v="+36203672096"/>
    <tag k="source" v="website"/>
    <tag k="source:date" v="2018-07-15"/>
    <tag k="url" v="http://turistautak.hu/poi.php?id=25207"/>
    <tag k="website" v="https://www.avia.hu/toltoallomas/?id=121"/>
    <tag k="youtube" v="https://www.youtube.com/channel/UCjvjkjf2RgmKBuTnKSXk-Rg"/>
  </node>
  <!-- OSM link: https://osm.org/node/2706914586 -->
  <!-- Original coordinates: POINT (46.53155 20.883113) -->
  <!-- Original tags: 'amenity':'fuel';  -->
  <node action="modify" changeset="1" id="2706914586" lat="46.5313872949538" lon="20.883263197093" timestamp="2014-03-08T12:37:03Z" uid="4579407" user="KAMI" version="1">
    <tag k="addr:city" v="Csanádapáca"/>
    <tag k="addr:country" v="HU"/>
    <tag k="addr:postcode" v="5662"/>
    <tag k="amenity" v="fuel"/>
    <tag k="brand" v="Avia"/>
    <tag k="email" v="tjanos@gmail.hu"/>
    <tag k="facebook" v="https://www.facebook.com/AVIAHungary"/>
    <tag k="fuel:diesel" v="yes"/>
    <tag k="fuel:octane_95" v="yes"/>
    <tag k="import" v="osm_poi_matchmaker"/>
    <tag k="name" v="Avia"/>
    <tag k="operator" v="AVIA Hungária Kft."/>
    <tag k="payment:mastercard" v="yes"/>
    <tag k="payment:visa" v="yes"/>
    <tag k="phone" v="+3668520030"/>
    <tag k="source" v="website"/>
    <tag k="source:date" v="2018-07-15"/>
    <tag k="website" v="https://www.avia.hu/toltoallomas/?id=117"/>
    <tag k="youtube" v="https://www.youtube.com/channel/UCjvjkjf2RgmKBuTnKSXk-Rg"/>
  </node>
  <!-- OSM link: https://osm.org/node/3522567887 -->
  <!-- Original coordinates: POINT (47.650888 19.817247) -->
  <!-- Original tags: 'amenity':'fuel';  -->
  <node action="modify" changeset="1" id="3522567887" lat="47.6508423949045" lon="19.8170352972414" timestamp="2015-05-16T21:04:55Z" uid="4579407" user="KAMI" version="1">
    <tag k="addr:city" v="Csány"/>
    <tag k="addr:country" v="HU"/>
    <tag k="addr:housenumber" v="2/A"/>
    <tag k="addr:postcode" v="3015"/>
    <tag k="addr:street" v="Hatvani út"/>
    <tag k="amenity" v="fuel"/>
    <tag k="brand" v="Avia"/>
    <tag k="email" v="lenivankft@gmail.com"/>
    <tag k="facebook" v="https://www.facebook.com/AVIAHungary"/>
    <tag k="fuel:diesel" v="yes"/>
    <tag k="fuel:octane_95" v="yes"/>
    <tag k="import" v="osm_poi_matchmaker"/>
    <tag k="name" v="Avia"/>
    <tag k="operator" v="AVIA Hungária Kft."/>
    <tag k="payment:mastercard" v="yes"/>
    <tag k="payment:visa" v="yes"/>
    <tag k="phone" v="+36309038486"/>
    <tag k="source" v="website"/>
    <tag k="source:date" v="2018-07-15"/>
    <tag k="website" v="https://www.avia.hu/toltoallomas/?id=115"/>
    <tag k="youtube" v="https://www.youtube.com/channel/UCjvjkjf2RgmKBuTnKSXk-Rg"/>
  </node>
  <!-- Original coordinates: POINT (47.41536 16.72103) -->
  <!-- Original tags:  -->
  <node action="modify" changeset="99999" id="-17" lat="47.41536" lon="16.72103" timestamp="" uid="4579407" user="KAMI" version="99999">
    <tag k="addr:city" v="Csepreg"/>
    <tag k="addr:conscriptionnumber" v="020/38"/>
    <tag k="addr:country" v="HU"/>
    <tag k="addr:postcode" v="9735"/>
    <tag k="amenity" v="fuel"/>
    <tag k="brand" v="Avia"/>
    <tag k="email" v="aviadiesel@avia.hu"/>
    <tag k="facebook" v="https://www.facebook.com/AVIAHungary"/>
    <tag k="fuel:diesel" v="yes"/>
    <tag k="fuel:octane_95" v="yes"/>
    <tag k="import" v="osm_poi_matchmaker"/>
    <tag k="name" v="Avia"/>
    <tag k="operator" v="AVIA Hungária Kft."/>
    <tag k="payment:mastercard" v="yes"/>
    <tag k="payment:visa" v="yes"/>
    <tag k="phone" v="+3694565104"/>
    <tag k="source" v="website"/>
    <tag k="source:date" v="2018-07-15"/>
    <tag k="website" v="https://www.avia.hu/toltoallomas/?id=7"/>
    <tag k="youtube" v="https://www.youtube.com/channel/UCjvjkjf2RgmKBuTnKSXk-Rg"/>
  </node>
  <!-- OSM link: https://osm.org/way/335220903 -->
  <!-- Original coordinates: POINT (46.372436 18.1480223) -->
  <!-- Original tags: 'amenity':'fuel'; 'building':'yes'; 'building:levels':'1'; 'layer':'1'; 'name':'Avia'; 'website':'http://www.avia.hu'; 'wheelchair':'yes';  -->
  <way action="modify" changeset="1" id="335220903" timestamp="2017-09-12T09:10:19Z" uid="4579407" user="KAMI" version="6">
    <nd ref="3423382090"/>
    <nd ref="3423382091"/>
    <nd ref="3423399506"/>
    <nd ref="3423382092"/>
    <nd ref="3423399493"/>
    <nd ref="3423399494"/>
    <nd ref="3423399495"/>
    <nd ref="3423399496"/>
    <nd ref="3423399497"/>
    <nd ref="3423399498"/>
    <nd ref="3423399499"/>
    <nd ref="3423399500"/>
    <nd ref="3423382090"/>
    <tag k="addr:city" v="Dombóvár"/>
    <tag k="addr:country" v="HU"/>
    <tag k="addr:housenumber" v="1"/>
    <tag k="addr:postcode" v="7200"/>
    <tag k="addr:street" v="Kórház utca"/>
    <tag k="amenity" v="fuel"/>
    <tag k="brand" v="Avia"/>
    <tag k="building" v="yes"/>
    <tag k="building:levels" v="1"/>
    <tag k="email" v="info@tankszer.hu"/>
    <tag k="facebook" v="https://www.facebook.com/AVIAHungary"/>
    <tag k="fuel:diesel" v="yes"/>
    <tag k="fuel:octane_95" v="yes"/>
    <tag k="import" v="osm_poi_matchmaker"/>
    <tag k="layer" v="1"/>
    <tag k="name" v="Avia"/>
    <tag k="operator" v="AVIA Hungária Kft."/>
    <tag k="payment:mastercard" v="yes"/>
    <tag k="payment:visa" v="yes"/>
    <tag k="phone" v="+3674679031"/>
    <tag k="source" v="website"/>
    <tag k="source:date" v="2018-07-15"/>
    <tag k="website" v="https://www.avia.hu/toltoallomas/?id=3"/>
    <tag k="wheelchair" v="yes"/>
    <tag k="youtube" v="https://www.youtube.com/channel/UCjvjkjf2RgmKBuTnKSXk-Rg"/>
  </way>
  <!-- Original coordinates: POINT (46.9469324 18.2296874) -->
  <!-- Original tags:  -->
  <node action="modify" changeset="99999" id="-19" lat="46.9469324" lon="18.2296874" timestamp="" uid="4579407" user="KAMI" version="99999">
    <tag k="addr:city" v="Enying"/>
    <tag k="addr:country" v="HU"/>
    <tag k="addr:housenumber" v="119"/>
    <tag k="addr:postcode" v="8131"/>
    <tag k="addr:street" v="Dózsa György út"/>
    <tag k="amenity" v="fuel"/>
    <tag k="brand" v="Avia"/>
    <tag k="email" v="royappetrol@gmail.com"/>
    <tag k="facebook" v="https://www.facebook.com/AVIAHungary"/>
    <tag k="fuel:diesel" v="yes"/>
    <tag k="fuel:octane_95" v="yes"/>
    <tag k="import" v="osm_poi_matchmaker"/>
    <tag k="name" v="Avia"/>
    <tag k="operator" v="AVIA Hungária Kft."/>
    <tag k="payment:mastercard" v="yes"/>
    <tag k="payment:visa" v="yes"/>
    <tag k="phone" v="+3622572092"/>
    <tag k="source" v="website"/>
    <tag k="source:date" v="2018-07-15"/>
    <tag k="website" v="https://www.avia.hu/toltoallomas/?id=123"/>
    <tag k="youtube" v="https://www.youtube.com/channel/UCjvjkjf2RgmKBuTnKSXk-Rg"/>
  </node>
  <!-- OSM link: https://osm.org/way/230182255 -->
  <!-- Original coordinates: POINT (47.38187568671469 18.90533030033112) -->
  <!-- Original tags: 'addr:city':'Érd'; 'addr:country':'HU'; 'addr:postcode':'2030'; 'addr:street':'Szent László tér'; 'amenity':'fuel'; 'brand':'AVIA'; 'building':'yes'; 'fuel:lpg':'yes'; 'name':'AVIA'; 'opening_hours':'Mo-Fr 6:00-18:00, Sa 6:00-13:00'; 'website':'http://www.avia.hu';  -->
  <way action="modify" changeset="1" id="230182255" timestamp="2015-06-01T05:55:17Z" uid="4579407" user="KAMI" version="5">
    <nd ref="2387126750"/>
    <nd ref="2924649153"/>
    <nd ref="2924649156"/>
    <nd ref="2387126757"/>
    <nd ref="2387126761"/>
    <nd ref="2924649159"/>
    <nd ref="2924649158"/>
    <nd ref="2387126754"/>
    <nd ref="2924649150"/>
    <nd ref="2387126750"/>
    <tag k="addr:city" v="Érd"/>
    <tag k="addr:country" v="HU"/>
    <tag k="addr:housenumber" v="6"/>
    <tag k="addr:postcode" v="2030"/>
    <tag k="addr:street" v="Szent László tér"/>
    <tag k="amenity" v="fuel"/>
    <tag k="brand" v="Avia"/>
    <tag k="building" v="yes"/>
    <tag k="email" v="zamboesgozon@avia.hu"/>
    <tag k="facebook" v="https://www.facebook.com/AVIAHungary"/>
    <tag k="fuel:diesel" v="yes"/>
    <tag k="fuel:lpg" v="yes"/>
    <tag k="fuel:octane_95" v="yes"/>
    <tag k="import" v="osm_poi_matchmaker"/>
    <tag k="name" v="Avia"/>
    <tag k="opening_hours" v="Mo-Fr 6:00-18:00, Sa 6:00-13:00"/>
    <tag k="operator" v="AVIA Hungária Kft."/>
    <tag k="payment:mastercard" v="yes"/>
    <tag k="payment:visa" v="yes"/>
    <tag k="phone" v="+36203967870"/>
    <tag k="source" v="website"/>
    <tag k="source:date" v="2018-07-15"/>
    <tag k="website" v="https://www.avia.hu/toltoallomas/?id=67"/>
    <tag k="youtube" v="https://www.youtube.com/channel/UCjvjkjf2RgmKBuTnKSXk-Rg"/>
  </way>
  <!-- OSM link: https://osm.org/node/2007242256 -->
  <!-- Original coordinates: POINT (48.32901 21.0965) -->
  <!-- Original tags: 'amenity':'fuel';  -->
  <node action="modify" changeset="1" id="2007242256" lat="48.3292965948772" lon="21.0967119970633" timestamp="2012-11-10T22:34:28Z" uid="4579407" user="KAMI" version="6">
    <tag k="addr:city" v="Forró"/>
    <tag k="addr:country" v="HU"/>
    <tag k="addr:housenumber" v="1"/>
    <tag k="addr:postcode" v="3849"/>
    <tag k="addr:street" v="Széchenyi utca"/>
    <tag k="amenity" v="fuel"/>
    <tag k="brand" v="Avia"/>
    <tag k="email" v="abaepker@enternet.hu"/>
    <tag k="facebook" v="https://www.facebook.com/AVIAHungary"/>
    <tag k="fuel:diesel" v="yes"/>
    <tag k="fuel:octane_95" v="yes"/>
    <tag k="import" v="osm_poi_matchmaker"/>
    <tag k="name" v="Avia"/>
    <tag k="operator" v="AVIA Hungária Kft."/>
    <tag k="payment:mastercard" v="yes"/>
    <tag k="payment:visa" v="yes"/>
    <tag k="phone" v="+3646587299"/>
    <tag k="source" v="website"/>
    <tag k="source:date" v="2018-07-15"/>
    <tag k="website" v="https://www.avia.hu/toltoallomas/?id=28"/>
    <tag k="youtube" v="https://www.youtube.com/channel/UCjvjkjf2RgmKBuTnKSXk-Rg"/>
  </node>
  <!-- Original coordinates: POINT (47.436245 19.383544) -->
  <!-- Original tags:  -->
  <node action="modify" changeset="99999" id="-22" lat="47.436245" lon="19.383544" timestamp="" uid="4579407" user="KAMI" version="99999">
    <tag k="addr:city" v="Gyömrő"/>
    <tag k="addr:conscriptionnumber" v="5823"/>
    <tag k="addr:country" v="HU"/>
    <tag k="addr:postcode" v="2230"/>
    <tag k="addr:street" v="Kóczán út"/>
    <tag k="amenity" v="fuel"/>
    <tag k="brand" v="Avia"/>
    <tag k="email" v="mcenter@upcmail.hu"/>
    <tag k="facebook" v="https://www.facebook.com/AVIAHungary"/>
    <tag k="fuel:diesel" v="yes"/>
    <tag k="fuel:octane_95" v="yes"/>
    <tag k="import" v="osm_poi_matchmaker"/>
    <tag k="name" v="Avia"/>
    <tag k="operator" v="AVIA Hungária Kft."/>
    <tag k="payment:mastercard" v="yes"/>
    <tag k="payment:visa" v="yes"/>
    <tag k="phone" v="+36309964591"/>
    <tag k="source" v="website"/>
    <tag k="source:date" v="2018-07-15"/>
    <tag k="website" v="https://www.avia.hu/toltoallomas/?id=93"/>
    <tag k="youtube" v="https://www.youtube.com/channel/UCjvjkjf2RgmKBuTnKSXk-Rg"/>
  </node>
  <!-- OSM link: https://osm.org/node/4855752833 -->
  <!-- Original coordinates: POINT (47.775872 19.947977) -->
  <!-- Original tags: 'amenity':'fuel'; 'brand':'AVIA';  -->
  <node action="modify" changeset="1" id="4855752833" lat="47.7759066948994" lon="19.9481245972232" timestamp="2017-05-15T13:33:27Z" uid="4579407" user="KAMI" version="1">
    <tag k="addr:city" v="Gyöngyös"/>
    <tag k="addr:country" v="HU"/>
    <tag k="addr:housenumber" v="78"/>
    <tag k="addr:postcode" v="3200"/>
    <tag k="addr:street" v="Szurdokpart út"/>
    <tag k="amenity" v="fuel"/>
    <tag k="brand" v="Avia"/>
    <tag k="email" v="boaribenzinkut@gmail.com"/>
    <tag k="facebook" v="https://www.facebook.com/AVIAHungary"/>
    <tag k="fuel:diesel" v="yes"/>
    <tag k="fuel:octane_95" v="yes"/>
    <tag k="import" v="osm_poi_matchmaker"/>
    <tag k="name" v="Avia"/>
    <tag k="operator" v="AVIA Hungária Kft."/>
    <tag k="payment:mastercard" v="yes"/>
    <tag k="payment:visa" v="yes"/>
    <tag k="phone" v="+3637300528"/>
    <tag k="source" v="website"/>
    <tag k="source:date" v="2018-07-15"/>
    <tag k="website" v="https://www.avia.hu/toltoallomas/?id=35"/>
    <tag k="youtube" v="https://www.youtube.com/channel/UCjvjkjf2RgmKBuTnKSXk-Rg"/>
  </node>
  <!-- Original coordinates: POINT (47.67494572942535 17.67264604568481) -->
  <!-- Original tags:  -->
  <node action="modify" changeset="99999" id="-24" lat="47.67494572942535" lon="17.672646045684814" timestamp="" uid="4579407" user="KAMI" version="99999">
    <tag k="addr:city" v="Győr"/>
    <tag k="addr:country" v="HU"/>
    <tag k="addr:housenumber" v="75"/>
    <tag k="addr:postcode" v="9028"/>
    <tag k="addr:street" v="Fehérvári út"/>
    <tag k="amenity" v="fuel"/>
    <tag k="brand" v="Avia"/>
    <tag k="email" v="aviagyor@gmail.com"/>
    <tag k="facebook" v="https://www.facebook.com/AVIAHungary"/>
    <tag k="fuel:diesel" v="yes"/>
    <tag k="fuel:octane_95" v="yes"/>
    <tag k="import" v="osm_poi_matchmaker"/>
    <tag k="name" v="Avia"/>
    <tag k="operator" v="AVIA Hungária Kft."/>
    <tag k="payment:mastercard" v="yes"/>
    <tag k="payment:visa" v="yes"/>
    <tag k="phone" v="+3696410327"/>
    <tag k="source" v="website"/>
    <tag k="source:date" v="2018-07-15"/>
    <tag k="website" v="https://www.avia.hu/toltoallomas/?id=76"/>
    <tag k="youtube" v="https://www.youtube.com/channel/UCjvjkjf2RgmKBuTnKSXk-Rg"/>
  </node>
  <!-- OSM link: https://osm.org/node/2688867841 -->
  <!-- Original coordinates: POINT (47.69199 21.67209) -->
  <!-- Original tags: 'addr:city':'Hajdúhadház'; 'addr:housenumber':'56'; 'addr:postcode':'4242'; 'addr:street':'Dr. Földi János utca'; 'amenity':'fuel'; 'brand':'AVIA'; 'name':'AVIA'; 'phone':'+3652583048'; 'website':'http://www.avia.hu';  -->
  <node action="modify" changeset="1" id="2688867841" lat="47.6918989949028" lon="21.6722837969832" timestamp="2015-03-15T10:50:00Z" uid="4579407" user="KAMI" version="3">
    <tag k="addr:city" v="Hajdúhadház"/>
    <tag k="addr:country" v="HU"/>
    <tag k="addr:housenumber" v="56"/>
    <tag k="addr:postcode" v="4242"/>
    <tag k="addr:street" v="Földi János utca"/>
    <tag k="amenity" v="fuel"/>
    <tag k="brand" v="Avia"/>
    <tag k="email" v="postmaster@dozsaszovetkezet.t-online.hu"/>
    <tag k="facebook" v="https://www.facebook.com/AVIAHungary"/>
    <tag k="fuel:diesel" v="yes"/>
    <tag k="fuel:octane_95" v="yes"/>
    <tag k="import" v="osm_poi_matchmaker"/>
    <tag k="name" v="Avia"/>
    <tag k="operator" v="AVIA Hungária Kft."/>
    <tag k="payment:mastercard" v="yes"/>
    <tag k="payment:visa" v="yes"/>
    <tag k="phone" v="+3652583048"/>
    <tag k="source" v="website"/>
    <tag k="source:date" v="2018-07-15"/>
    <tag k="website" v="https://www.avia.hu/toltoallomas/?id=29"/>
    <tag k="youtube" v="https://www.youtube.com/channel/UCjvjkjf2RgmKBuTnKSXk-Rg"/>
  </node>
  <!-- OSM link: https://osm.org/way/470409859 -->
  <!-- Original coordinates: POINT (45.94474164603746 18.94551515579224) -->
  <!-- Original tags: 'addr:city':'Hercegszántó'; 'amenity':'fuel'; 'brand':'Avia'; 'building':'retail'; 'fuel:diesel':'yes'; 'fuel:lpg':'yes'; 'fuel:octane_95':'yes'; 'fuel:octane_98':'yes'; 'name':'Avia'; 'opening_hours':'Mo-Su 06:00-21:00'; 'website':'http://www.avia.hu/';  -->
  <way action="modify" changeset="1" id="470409859" timestamp="2017-01-30T22:48:50Z" uid="4579407" user="KAMI" version="2">
    <nd ref="4645843524"/>
    <nd ref="4645843525"/>
    <nd ref="4645843526"/>
    <nd ref="4645843527"/>
    <nd ref="4645843524"/>
    <tag k="addr:city" v="Hercegszántó"/>
    <tag k="addr:conscriptionnumber" v="1216/2"/>
    <tag k="addr:country" v="HU"/>
    <tag k="addr:postcode" v="6525"/>
    <tag k="amenity" v="fuel"/>
    <tag k="brand" v="Avia"/>
    <tag k="building" v="retail"/>
    <tag k="email" v="baja@lamarin.hu"/>
    <tag k="facebook" v="https://www.facebook.com/AVIAHungary"/>
    <tag k="fuel:diesel" v="yes"/>
    <tag k="fuel:lpg" v="yes"/>
    <tag k="fuel:octane_95" v="yes"/>
    <tag k="fuel:octane_98" v="yes"/>
    <tag k="import" v="osm_poi_matchmaker"/>
    <tag k="name" v="Avia"/>
    <tag k="opening_hours" v="Mo-Su 06:00-21:00"/>
    <tag k="operator" v="AVIA Hungária Kft."/>
    <tag k="payment:mastercard" v="yes"/>
    <tag k="payment:visa" v="yes"/>
    <tag k="phone" v="+3679522730"/>
    <tag k="source" v="website"/>
    <tag k="source:date" v="2018-07-15"/>
    <tag k="website" v="https://www.avia.hu/toltoallomas/?id=64"/>
    <tag k="youtube" v="https://www.youtube.com/channel/UCjvjkjf2RgmKBuTnKSXk-Rg"/>
  </way>
  <!-- OSM link: https://osm.org/node/1498877205 -->
  <!-- Original coordinates: POINT (48.094175 20.96659) -->
  <!-- Original tags: 'amenity':'fuel'; 'brand':'AVIA'; 'name':'AVIA'; 'website':'http://www.avia.hu';  -->
  <node action="modify" changeset="1" id="1498877205" lat="48.0942223948865" lon="20.9669636970814" timestamp="2015-03-15T10:50:01Z" uid="4579407" user="KAMI" version="3">
    <tag k="addr:city" v="Hernádkak"/>
    <tag k="addr:country" v="HU"/>
    <tag k="addr:housenumber" v="1/A"/>
    <tag k="addr:postcode" v="3563"/>
    <tag k="addr:street" v="Széchenyi utca"/>
    <tag k="amenity" v="fuel"/>
    <tag k="brand" v="Avia"/>
    <tag k="email" v="benzolkft@freemail.hu"/>
    <tag k="facebook" v="https://www.facebook.com/AVIAHungary"/>
    <tag k="fuel:diesel" v="yes"/>
    <tag k="fuel:octane_95" v="yes"/>
    <tag k="import" v="osm_poi_matchmaker"/>
    <tag k="name" v="Avia"/>
    <tag k="operator" v="AVIA Hungária Kft."/>
    <tag k="payment:mastercard" v="yes"/>
    <tag k="payment:visa" v="yes"/>
    <tag k="phone" v="+36209823188"/>
    <tag k="source" v="website"/>
    <tag k="source:date" v="2018-07-15"/>
    <tag k="website" v="https://www.avia.hu/toltoallomas/?id=41"/>
    <tag k="youtube" v="https://www.youtube.com/channel/UCjvjkjf2RgmKBuTnKSXk-Rg"/>
  </node>
  <!-- OSM link: https://osm.org/node/3440814440 -->
  <!-- Original coordinates: POINT (46.1470901828 18.3530044556) -->
  <!-- Original tags: 'amenity':'fuel'; 'source':'turistautak.hu'; 'source:date':'2015-01-12'; 'toilets:wheelchair':'yes'; 'url':'http://turistautak.hu/poi.php?id=11245'; 'wheelchair':'yes';  -->
  <node action="modify" changeset="1" id="3440814440" lat="46.1470779949718" lon="18.3530229974452" timestamp="2017-08-18T08:54:45Z" uid="4579407" user="KAMI" version="2">
    <tag k="addr:city" v="Hosszúhetény"/>
    <tag k="addr:country" v="HU"/>
    <tag k="addr:housenumber" v="40"/>
    <tag k="addr:postcode" v="7694"/>
    <tag k="addr:street" v="Széchenyi utca"/>
    <tag k="amenity" v="fuel"/>
    <tag k="brand" v="Avia"/>
    <tag k="email" v="robert.sebok@echo-sprint.hu"/>
    <tag k="facebook" v="https://www.facebook.com/AVIAHungary"/>
    <tag k="fuel:diesel" v="yes"/>
    <tag k="fuel:octane_95" v="yes"/>
    <tag k="import" v="osm_poi_matchmaker"/>
    <tag k="name" v="Avia"/>
    <tag k="operator" v="AVIA Hungária Kft."/>
    <tag k="payment:mastercard" v="yes"/>
    <tag k="payment:visa" v="yes"/>
    <tag k="phone" v="+36303750795"/>
    <tag k="source" v="website"/>
    <tag k="source:date" v="2018-07-15"/>
    <tag k="toilets:wheelchair" v="yes"/>
    <tag k="url" v="http://turistautak.hu/poi.php?id=11245"/>
    <tag k="website" v="https://www.avia.hu/toltoallomas/?id=107"/>
    <tag k="wheelchair" v="yes"/>
    <tag k="youtube" v="https://www.youtube.com/channel/UCjvjkjf2RgmKBuTnKSXk-Rg"/>
  </node>
  <!-- Original coordinates: POINT (47.6695339 19.4266194) -->
  <!-- Original tags:  -->
  <node action="modify" changeset="99999" id="-29" lat="47.6695339" lon="19.4266194" timestamp="" uid="4579407" user="KAMI" version="99999">
    <tag k="addr:city" v="Iklad"/>
    <tag k="addr:country" v="HU"/>
    <tag k="addr:postcode" v="2181"/>
    <tag k="amenity" v="fuel"/>
    <tag k="brand" v="Avia"/>
    <tag k="email" v="goldoilkerkft@gmail.com"/>
    <tag k="facebook" v="https://www.facebook.com/AVIAHungary"/>
    <tag k="fuel:diesel" v="yes"/>
    <tag k="fuel:octane_95" v="yes"/>
    <tag k="import" v="osm_poi_matchmaker"/>
    <tag k="name" v="Avia"/>
    <tag k="operator" v="AVIA Hungária Kft."/>
    <tag k="payment:mastercard" v="yes"/>
    <tag k="payment:visa" v="yes"/>
    <tag k="phone" v="+36202769846"/>
    <tag k="source" v="website"/>
    <tag k="source:date" v="2018-07-15"/>
    <tag k="website" v="https://www.avia.hu/toltoallomas/?id=130"/>
    <tag k="youtube" v="https://www.youtube.com/channel/UCjvjkjf2RgmKBuTnKSXk-Rg"/>
  </node>
  <!-- OSM link: https://osm.org/way/295073891 -->
  <!-- Original coordinates: POINT (47.358585 20.094) -->
  <!-- Original tags: 'amenity':'fuel'; 'name':'Avia';  -->
  <way action="modify" changeset="1" id="295073891" timestamp="2018-06-02T19:37:07Z" uid="4579407" user="KAMI" version="3">
    <nd ref="2985739275"/>
    <nd ref="2987447820"/>
    <nd ref="2987447821"/>
    <nd ref="2987447822"/>
    <nd ref="2987447823"/>
    <nd ref="2987447824"/>
    <nd ref="1180600926"/>
    <nd ref="1180523478"/>
    <nd ref="2985739275"/>
    <tag k="addr:city" v="Jászalsószentgyörgy"/>
    <tag k="addr:country" v="HU"/>
    <tag k="addr:housenumber" v="1/C"/>
    <tag k="addr:postcode" v="5054"/>
    <tag k="addr:street" v="Béke út"/>
    <tag k="amenity" v="fuel"/>
    <tag k="brand" v="Avia"/>
    <tag k="email" v="j.s.autonafta@gmail.hu"/>
    <tag k="facebook" v="https://www.facebook.com/AVIAHungary"/>
    <tag k="fuel:diesel" v="yes"/>
    <tag k="fuel:octane_95" v="yes"/>
    <tag k="import" v="osm_poi_matchmaker"/>
    <tag k="name" v="Avia"/>
    <tag k="operator" v="AVIA Hungária Kft."/>
    <tag k="payment:mastercard" v="yes"/>
    <tag k="payment:visa" v="yes"/>
    <tag k="phone" v="+36303731046"/>
    <tag k="source" v="website"/>
    <tag k="source:date" v="2018-07-15"/>
    <tag k="website" v="https://www.avia.hu/toltoallomas/?id=129"/>
    <tag k="youtube" v="https://www.youtube.com/channel/UCjvjkjf2RgmKBuTnKSXk-Rg"/>
  </way>
  <!-- OSM link: https://osm.org/node/2314425456 -->
  <!-- Original coordinates: POINT (47.49033 19.89146) -->
  <!-- Original tags: 'amenity':'fuel'; 'brand':'AVIA'; 'name':'AVIA'; 'website':'http://www.avia.hu';  -->
  <node action="modify" changeset="1" id="2314425456" lat="47.4905815949112" lon="19.8913206972311" timestamp="2016-02-29T09:23:36Z" uid="4579407" user="KAMI" version="3">
    <tag k="addr:city" v="Jászberény"/>
    <tag k="addr:country" v="HU"/>
    <tag k="addr:housenumber" v="3"/>
    <tag k="addr:postcode" v="5100"/>
    <tag k="addr:street" v="Nagykátai út"/>
    <tag k="amenity" v="fuel"/>
    <tag k="brand" v="Avia"/>
    <tag k="email" v="ludvardi@berenyauto.hu"/>
    <tag k="facebook" v="https://www.facebook.com/AVIAHungary"/>
    <tag k="fuel:diesel" v="yes"/>
    <tag k="fuel:octane_95" v="yes"/>
    <tag k="import" v="osm_poi_matchmaker"/>
    <tag k="name" v="Avia"/>
    <tag k="operator" v="AVIA Hungária Kft."/>
    <tag k="payment:mastercard" v="yes"/>
    <tag k="payment:visa" v="yes"/>
    <tag k="phone" v="+3657515022"/>
    <tag k="source" v="website"/>
    <tag k="source:date" v="2018-07-15"/>
    <tag k="website" v="https://www.avia.hu/toltoallomas/?id=87"/>
    <tag k="youtube" v="https://www.youtube.com/channel/UCjvjkjf2RgmKBuTnKSXk-Rg"/>
  </node>
  <!-- Original coordinates: POINT (47.578773 19.736515) -->
  <!-- Original tags:  -->
  <node action="modify" changeset="99999" id="-32" lat="47.578773" lon="19.736515" timestamp="" uid="4579407" user="KAMI" version="99999">
    <tag k="addr:city" v="Jászfényszaru"/>
    <tag k="addr:conscriptionnumber" v="05/150"/>
    <tag k="addr:country" v="HU"/>
    <tag k="addr:postcode" v="5126"/>
    <tag k="amenity" v="fuel"/>
    <tag k="brand" v="Avia"/>
    <tag k="email" v="goldoilkerkft@gmail.com"/>
    <tag k="facebook" v="https://www.facebook.com/AVIAHungary"/>
    <tag k="fuel:diesel" v="yes"/>
    <tag k="fuel:octane_95" v="yes"/>
    <tag k="import" v="osm_poi_matchmaker"/>
    <tag k="name" v="Avia"/>
    <tag k="operator" v="AVIA Hungária Kft."/>
    <tag k="payment:mastercard" v="yes"/>
    <tag k="payment:visa" v="yes"/>
    <tag k="source" v="website"/>
    <tag k="source:date" v="2018-07-15"/>
    <tag k="website" v="https://www.avia.hu/toltoallomas/?id=43"/>
    <tag k="youtube" v="https://www.youtube.com/channel/UCjvjkjf2RgmKBuTnKSXk-Rg"/>
  </node>
  <!-- OSM link: https://osm.org/way/455398698 -->
  <!-- Original coordinates: POINT (47.245595 18.69539) -->
  <!-- Original tags: 'amenity':'fuel'; 'brand':'Agip'; 'building':'retail'; 'name':'Agip'; 'website':'http://www.eni.com/';  -->
  <way action="modify" changeset="1" id="455398698" timestamp="2016-11-23T22:29:08Z" uid="4579407" user="KAMI" version="1">
    <nd ref="4518054216"/>
    <nd ref="4518054217"/>
    <nd ref="4518054218"/>
    <nd ref="4518054219"/>
    <nd ref="4518054230"/>
    <nd ref="4518054231"/>
    <nd ref="4518054220"/>
    <nd ref="4518054221"/>
    <nd ref="4518054216"/>
    <tag k="addr:city" v="Kápolnásnyék"/>
    <tag k="addr:country" v="HU"/>
    <tag k="addr:postcode" v="2475"/>
    <tag k="addr:street" v="7 főút"/>
    <tag k="amenity" v="fuel"/>
    <tag k="brand" v="Avia"/>
    <tag k="building" v="retail"/>
    <tag k="email" v="orszagkft@t-online.hu"/>
    <tag k="facebook" v="https://www.facebook.com/AVIAHungary"/>
    <tag k="fuel:diesel" v="yes"/>
    <tag k="fuel:octane_95" v="yes"/>
    <tag k="import" v="osm_poi_matchmaker"/>
    <tag k="name" v="Avia"/>
    <tag k="operator" v="AVIA Hungária Kft."/>
    <tag k="payment:mastercard" v="yes"/>
    <tag k="payment:visa" v="yes"/>
    <tag k="phone" v="+3622574011"/>
    <tag k="source" v="website"/>
    <tag k="source:date" v="2018-07-15"/>
    <tag k="website" v="https://www.avia.hu/toltoallomas/?id=119"/>
    <tag k="youtube" v="https://www.youtube.com/channel/UCjvjkjf2RgmKBuTnKSXk-Rg"/>
  </way>
  <!-- OSM link: https://osm.org/node/348038162 -->
  <!-- Original coordinates: POINT (46.35311127799832 17.68734455108643) -->
  <!-- Original tags: 'amenity':'fuel'; 'name':'AVIA benzinkút';  -->
  <node action="modify" changeset="1" id="348038162" lat="46.3533076949621" lon="17.6870871975379" timestamp="2017-12-02T18:02:59Z" uid="4579407" user="KAMI" version="2">
    <tag k="addr:city" v="Kaposfő"/>
    <tag k="addr:conscriptionnumber" v="643/5"/>
    <tag k="addr:country" v="HU"/>
    <tag k="addr:postcode" v="7523"/>
    <tag k="amenity" v="fuel"/>
    <tag k="brand" v="Avia"/>
    <tag k="email" v="avia@kapospetrol.hu"/>
    <tag k="facebook" v="https://www.facebook.com/AVIAHungary"/>
    <tag k="fuel:diesel" v="yes"/>
    <tag k="fuel:octane_95" v="yes"/>
    <tag k="import" v="osm_poi_matchmaker"/>
    <tag k="name" v="Avia"/>
    <tag k="operator" v="AVIA Hungária Kft."/>
    <tag k="payment:mastercard" v="yes"/>
    <tag k="payment:visa" v="yes"/>
    <tag k="phone" v="+36307566687"/>
    <tag k="source" v="website"/>
    <tag k="source:date" v="2018-07-15"/>
    <tag k="website" v="https://www.avia.hu/toltoallomas/?id=20"/>
    <tag k="youtube" v="https://www.youtube.com/channel/UCjvjkjf2RgmKBuTnKSXk-Rg"/>
  </node>
  <!-- Original coordinates: POINT (46.7053452 19.8499916) -->
  <!-- Original tags:  -->
  <node action="modify" changeset="99999" id="-35" lat="46.7053452" lon="19.8499916" timestamp="" uid="4579407" user="KAMI" version="99999">
    <tag k="addr:city" v="Kiskunfélegyháza"/>
    <tag k="addr:country" v="HU"/>
    <tag k="addr:housenumber" v="89"/>
    <tag k="addr:postcode" v="6100"/>
    <tag k="addr:street" v="Szegedi út"/>
    <tag k="amenity" v="fuel"/>
    <tag k="brand" v="Avia"/>
    <tag k="email" v="postmaster@tanker1.t-online.hu"/>
    <tag k="facebook" v="https://www.facebook.com/AVIAHungary"/>
    <tag k="fuel:diesel" v="yes"/>
    <tag k="fuel:octane_95" v="yes"/>
    <tag k="import" v="osm_poi_matchmaker"/>
    <tag k="name" v="Avia"/>
    <tag k="operator" v="AVIA Hungária Kft."/>
    <tag k="payment:mastercard" v="yes"/>
    <tag k="payment:visa" v="yes"/>
    <tag k="phone" v="+36302168639"/>
    <tag k="source" v="website"/>
    <tag k="source:date" v="2018-07-15"/>
    <tag k="website" v="https://www.avia.hu/toltoallomas/?id=60"/>
    <tag k="youtube" v="https://www.youtube.com/channel/UCjvjkjf2RgmKBuTnKSXk-Rg"/>
  </node>
  <!-- OSM link: https://osm.org/node/4872047436 -->
  <!-- Original coordinates: POINT (46.41984 19.47833) -->
  <!-- Original tags: 'amenity':'fuel';  -->
  <node action="modify" changeset="1" id="4872047436" lat="46.4199715949589" lon="19.4782579972886" timestamp="2017-05-23T12:24:53Z" uid="4579407" user="KAMI" version="1">
    <tag k="addr:city" v="Kiskunhalas"/>
    <tag k="addr:country" v="HU"/>
    <tag k="addr:housenumber" v="21"/>
    <tag k="addr:postcode" v="6400"/>
    <tag k="addr:street" v="Tinódi utca"/>
    <tag k="amenity" v="fuel"/>
    <tag k="brand" v="Avia"/>
    <tag k="email" v="baja@lamarin.hu"/>
    <tag k="facebook" v="https://www.facebook.com/AVIAHungary"/>
    <tag k="fuel:diesel" v="yes"/>
    <tag k="fuel:octane_95" v="yes"/>
    <tag k="import" v="osm_poi_matchmaker"/>
    <tag k="name" v="Avia"/>
    <tag k="operator" v="AVIA Hungária Kft."/>
    <tag k="payment:mastercard" v="yes"/>
    <tag k="payment:visa" v="yes"/>
    <tag k="phone" v="+36305752027"/>
    <tag k="source" v="website"/>
    <tag k="source:date" v="2018-07-15"/>
    <tag k="website" v="https://www.avia.hu/toltoallomas/?id=62"/>
    <tag k="youtube" v="https://www.youtube.com/channel/UCjvjkjf2RgmKBuTnKSXk-Rg"/>
  </node>
  <!-- OSM link: https://osm.org/node/3295037725 -->
  <!-- Original coordinates: POINT (47.1728 18.9927) -->
  <!-- Original tags: 'amenity':'fuel'; 'brand':'AVIA'; 'name':'AVIA'; 'website':'http://www.avia.hu';  -->
  <node action="modify" changeset="1" id="3295037725" lat="47.1728459949249" lon="18.9930047973562" timestamp="2015-03-15T10:49:59Z" uid="4579407" user="KAMI" version="2">
    <tag k="addr:city" v="Kiskunlacháza"/>
    <tag k="addr:conscriptionnumber" v="090/1"/>
    <tag k="addr:country" v="HU"/>
    <tag k="addr:postcode" v="2340"/>
    <tag k="addr:street" v="Ráckevei út"/>
    <tag k="amenity" v="fuel"/>
    <tag k="brand" v="Avia"/>
    <tag k="email" v="zsoniko@avia.hu"/>
    <tag k="facebook" v="https://www.facebook.com/AVIAHungary"/>
    <tag k="fuel:diesel" v="yes"/>
    <tag k="fuel:octane_95" v="yes"/>
    <tag k="import" v="osm_poi_matchmaker"/>
    <tag k="name" v="Avia"/>
    <tag k="operator" v="AVIA Hungária Kft."/>
    <tag k="payment:mastercard" v="yes"/>
    <tag k="payment:visa" v="yes"/>
    <tag k="phone" v="+3624511690"/>
    <tag k="source" v="website"/>
    <tag k="source:date" v="2018-07-15"/>
    <tag k="website" v="https://www.avia.hu/toltoallomas/?id=16"/>
    <tag k="youtube" v="https://www.youtube.com/channel/UCjvjkjf2RgmKBuTnKSXk-Rg"/>
  </node>
  <!-- Original coordinates: POINT (47.540445 18.337543) -->
  <!-- Original tags:  -->
  <node action="modify" changeset="99999" id="-38" lat="47.540445" lon="18.337543" timestamp="" uid="4579407" user="KAMI" version="99999">
    <tag k="addr:city" v="Környe"/>
    <tag k="addr:conscriptionnumber" v="0633/21"/>
    <tag k="addr:country" v="HU"/>
    <tag k="addr:postcode" v="2851"/>
    <tag k="amenity" v="fuel"/>
    <tag k="brand" v="Avia"/>
    <tag k="email" v="baracskaigep@gmail.com"/>
    <tag k="facebook" v="https://www.facebook.com/AVIAHungary"/>
    <tag k="fuel:diesel" v="yes"/>
    <tag k="fuel:octane_95" v="yes"/>
    <tag k="import" v="osm_poi_matchmaker"/>
    <tag k="name" v="Avia"/>
    <tag k="operator" v="AVIA Hungária Kft."/>
    <tag k="payment:mastercard" v="yes"/>
    <tag k="payment:visa" v="yes"/>
    <tag k="phone" v="+36209176840"/>
    <tag k="source" v="website"/>
    <tag k="source:date" v="2018-07-15"/>
    <tag k="website" v="https://www.avia.hu/toltoallomas/?id=126"/>
    <tag k="youtube" v="https://www.youtube.com/channel/UCjvjkjf2RgmKBuTnKSXk-Rg"/>
  </node>
  <!-- Original coordinates: POINT (47.390675 16.551771) -->
  <!-- Original tags:  -->
  <node action="modify" changeset="99999" id="-39" lat="47.390675" lon="16.551771" timestamp="" uid="4579407" user="KAMI" version="99999">
    <tag k="addr:city" v="Kőszeg"/>
    <tag k="addr:country" v="HU"/>
    <tag k="addr:housenumber" v="42"/>
    <tag k="addr:postcode" v="9730"/>
    <tag k="addr:street" v="Alsó körút"/>
    <tag k="amenity" v="fuel"/>
    <tag k="brand" v="Avia"/>
    <tag k="email" v="aviadiesel@avia.hu"/>
    <tag k="facebook" v="https://www.facebook.com/AVIAHungary"/>
    <tag k="fuel:diesel" v="yes"/>
    <tag k="fuel:octane_95" v="yes"/>
    <tag k="import" v="osm_poi_matchmaker"/>
    <tag k="name" v="Avia"/>
    <tag k="operator" v="AVIA Hungária Kft."/>
    <tag k="payment:mastercard" v="yes"/>
    <tag k="payment:visa" v="yes"/>
    <tag k="phone" v="+3694505391"/>
    <tag k="source" v="website"/>
    <tag k="source:date" v="2018-07-15"/>
    <tag k="website" v="https://www.avia.hu/toltoallomas/?id=10"/>
    <tag k="youtube" v="https://www.youtube.com/channel/UCjvjkjf2RgmKBuTnKSXk-Rg"/>
  </node>
  <!-- OSM link: https://osm.org/node/2007066505 -->
  <!-- Original coordinates: POINT (47.032826 19.542944) -->
  <!-- Original tags: 'amenity':'fuel';  -->
  <node action="modify" changeset="1" id="2007066505" lat="47.032934194931" lon="19.5429796972796" timestamp="2012-11-10T19:44:32Z" uid="4579407" user="KAMI" version="1">
    <tag k="addr:city" v="Lajosmizse"/>
    <tag k="addr:country" v="HU"/>
    <tag k="addr:postcode" v="6050"/>
    <tag k="amenity" v="fuel"/>
    <tag k="brand" v="Avia"/>
    <tag k="email" v="duoil@freemail.hu"/>
    <tag k="facebook" v="https://www.facebook.com/AVIAHungary"/>
    <tag k="fuel:diesel" v="yes"/>
    <tag k="fuel:octane_95" v="yes"/>
    <tag k="import" v="osm_poi_matchmaker"/>
    <tag k="name" v="Avia"/>
    <tag k="operator" v="AVIA Hungária Kft."/>
    <tag k="payment:mastercard" v="yes"/>
    <tag k="payment:visa" v="yes"/>
    <tag k="phone" v="+3676356200"/>
    <tag k="source" v="website"/>
    <tag k="source:date" v="2018-07-15"/>
    <tag k="website" v="https://www.avia.hu/toltoallomas/?id=48"/>
    <tag k="youtube" v="https://www.youtube.com/channel/UCjvjkjf2RgmKBuTnKSXk-Rg"/>
  </node>
  <!-- OSM link: https://osm.org/way/192450011 -->
  <!-- Original coordinates: POINT (47.899722 17.201486) -->
  <!-- Original tags: 'amenity':'fuel'; 'building':'yes'; 'operator':'Avia';  -->
  <way action="modify" changeset="1" id="192450011" timestamp="2012-11-24T14:04:40Z" uid="4579407" user="KAMI" version="1">
    <nd ref="2030038998"/>
    <nd ref="2030038991"/>
    <nd ref="2030038973"/>
    <nd ref="2030038969"/>
    <nd ref="2030038967"/>
    <nd ref="2030038975"/>
    <nd ref="2030038998"/>
    <tag k="addr:city" v="Levél"/>
    <tag k="addr:country" v="HU"/>
    <tag k="addr:housenumber" v="8"/>
    <tag k="addr:postcode" v="9221"/>
    <tag k="addr:street" v="Szerviz utca"/>
    <tag k="amenity" v="fuel"/>
    <tag k="brand" v="Avia"/>
    <tag k="building" v="yes"/>
    <tag k="email" v="aviadiesel@avia.hu"/>
    <tag k="facebook" v="https://www.facebook.com/AVIAHungary"/>
    <tag k="fuel:diesel" v="yes"/>
    <tag k="fuel:octane_95" v="yes"/>
    <tag k="import" v="osm_poi_matchmaker"/>
    <tag k="name" v="Avia"/>
    <tag k="operator" v="AVIA Hungária Kft."/>
    <tag k="payment:mastercard" v="yes"/>
    <tag k="payment:visa" v="yes"/>
    <tag k="phone" v="+3696229393"/>
    <tag k="source" v="website"/>
    <tag k="source:date" v="2018-07-15"/>
    <tag k="website" v="https://www.avia.hu/toltoallomas/?id=17"/>
    <tag k="youtube" v="https://www.youtube.com/channel/UCjvjkjf2RgmKBuTnKSXk-Rg"/>
  </way>
  <!-- Original coordinates: POINT (46.59135470715854 17.40480065345764) -->
  <!-- Original tags:  -->
  <node action="modify" changeset="99999" id="-42" lat="46.59135470715854" lon="17.40480065345764" timestamp="" uid="4579407" user="KAMI" version="99999">
    <tag k="addr:city" v="Marcali"/>
    <tag k="addr:country" v="HU"/>
    <tag k="addr:housenumber" v="97"/>
    <tag k="addr:postcode" v="8700"/>
    <tag k="addr:street" v="Berzsenyi út"/>
    <tag k="amenity" v="fuel"/>
    <tag k="brand" v="Avia"/>
    <tag k="email" v="andrea.mihalics@gmail.com"/>
    <tag k="facebook" v="https://www.facebook.com/AVIAHungary"/>
    <tag k="fuel:diesel" v="yes"/>
    <tag k="fuel:octane_95" v="yes"/>
    <tag k="import" v="osm_poi_matchmaker"/>
    <tag k="name" v="Avia"/>
    <tag k="operator" v="AVIA Hungária Kft."/>
    <tag k="payment:mastercard" v="yes"/>
    <tag k="payment:visa" v="yes"/>
    <tag k="phone" v="+3685510005"/>
    <tag k="source" v="website"/>
    <tag k="source:date" v="2018-07-15"/>
    <tag k="website" v="https://www.avia.hu/toltoallomas/?id=33"/>
    <tag k="youtube" v="https://www.youtube.com/channel/UCjvjkjf2RgmKBuTnKSXk-Rg"/>
  </node>
  <!-- OSM link: https://osm.org/node/320586750 -->
  <!-- Original coordinates: POINT (47.321874 18.784955) -->
  <!-- Original tags: 'amenity':'fuel'; 'brand':'Avia'; 'wheelchair':'yes';  -->
  <node action="modify" changeset="1" id="320586750" lat="47.3222568949184" lon="18.7849952973851" timestamp="2018-03-31T09:23:29Z" uid="4579407" user="KAMI" version="4">
    <tag k="addr:city" v="Martonvásár"/>
    <tag k="addr:country" v="HU"/>
    <tag k="addr:housenumber" v="31"/>
    <tag k="addr:postcode" v="2462"/>
    <tag k="addr:street" v="Bajcsy-Zsilinszky Endre utca"/>
    <tag k="amenity" v="fuel"/>
    <tag k="brand" v="Avia"/>
    <tag k="email" v="overgoteam@gmail.com"/>
    <tag k="facebook" v="https://www.facebook.com/AVIAHungary"/>
    <tag k="fuel:diesel" v="yes"/>
    <tag k="fuel:octane_95" v="yes"/>
    <tag k="import" v="osm_poi_matchmaker"/>
    <tag k="name" v="Avia"/>
    <tag k="operator" v="AVIA Hungária Kft."/>
    <tag k="payment:mastercard" v="yes"/>
    <tag k="payment:visa" v="yes"/>
    <tag k="phone" v="+36306803815"/>
    <tag k="source" v="website"/>
    <tag k="source:date" v="2018-07-15"/>
    <tag k="website" v="https://www.avia.hu/toltoallomas/?id=120"/>
    <tag k="wheelchair" v="yes"/>
    <tag k="youtube" v="https://www.youtube.com/channel/UCjvjkjf2RgmKBuTnKSXk-Rg"/>
  </node>
  <!-- Original coordinates: POINT (47.9540454 20.0696581) -->
  <!-- Original tags:  -->
  <node action="modify" changeset="99999" id="-44" lat="47.9540454" lon="20.0696581" timestamp="" uid="4579407" user="KAMI" version="99999">
    <tag k="addr:city" v="Mátraderecske"/>
    <tag k="addr:conscriptionnumber" v="0183/3"/>
    <tag k="addr:country" v="HU"/>
    <tag k="addr:postcode" v="3246"/>
    <tag k="addr:street" v="Kossuth út"/>
    <tag k="amenity" v="fuel"/>
    <tag k="brand" v="Avia"/>
    <tag k="email" v="simonrobert367@t-online.hu"/>
    <tag k="facebook" v="https://www.facebook.com/AVIAHungary"/>
    <tag k="fuel:diesel" v="yes"/>
    <tag k="fuel:octane_95" v="yes"/>
    <tag k="import" v="osm_poi_matchmaker"/>
    <tag k="name" v="Avia"/>
    <tag k="operator" v="AVIA Hungária Kft."/>
    <tag k="payment:mastercard" v="yes"/>
    <tag k="payment:visa" v="yes"/>
    <tag k="phone" v="+36304192544"/>
    <tag k="source" v="website"/>
    <tag k="source:date" v="2018-07-15"/>
    <tag k="website" v="https://www.avia.hu/toltoallomas/?id=122"/>
    <tag k="youtube" v="https://www.youtube.com/channel/UCjvjkjf2RgmKBuTnKSXk-Rg"/>
  </node>
  <!-- Original coordinates: POINT (46.753976 21.430879) -->
  <!-- Original tags:  -->
  <node action="modify" changeset="99999" id="-45" lat="46.753976" lon="21.430879" timestamp="" uid="4579407" user="KAMI" version="99999">
    <tag k="addr:city" v="Méhkerék"/>
    <tag k="addr:country" v="HU"/>
    <tag k="addr:postcode" v="5726"/>
    <tag k="amenity" v="fuel"/>
    <tag k="brand" v="Avia"/>
    <tag k="email" v="alfoldtank@gmail.com"/>
    <tag k="facebook" v="https://www.facebook.com/AVIAHungary"/>
    <tag k="fuel:diesel" v="yes"/>
    <tag k="fuel:octane_95" v="yes"/>
    <tag k="import" v="osm_poi_matchmaker"/>
    <tag k="name" v="Avia"/>
    <tag k="operator" v="AVIA Hungária Kft."/>
    <tag k="payment:mastercard" v="yes"/>
    <tag k="payment:visa" v="yes"/>
    <tag k="phone" v="+36302992873"/>
    <tag k="source" v="website"/>
    <tag k="source:date" v="2018-07-15"/>
    <tag k="website" v="https://www.avia.hu/toltoallomas/?id=125"/>
    <tag k="youtube" v="https://www.youtube.com/channel/UCjvjkjf2RgmKBuTnKSXk-Rg"/>
  </node>
  <!-- OSM link: https://osm.org/node/2313702318 -->
  <!-- Original coordinates: POINT (47.432239 19.460342) -->
  <!-- Original tags: 'amenity':'fuel'; 'brand':'AVIA'; 'name':'AVIA'; 'website':'http://www.avia.hu'; 'wheelchair':'yes';  -->
  <node action="modify" changeset="1" id="2313702318" lat="47.4325790949137" lon="19.461153097291" timestamp="2015-12-09T16:54:30Z" uid="4579407" user="KAMI" version="3">
    <tag k="addr:city" v="Mende"/>
    <tag k="addr:country" v="HU"/>
    <tag k="addr:housenumber" v="24"/>
    <tag k="addr:postcode" v="2235"/>
    <tag k="addr:street" v="Ország út"/>
    <tag k="amenity" v="fuel"/>
    <tag k="brand" v="Avia"/>
    <tag k="email" v="zsoniko@avia.hu"/>
    <tag k="facebook" v="https://www.facebook.com/AVIAHungary"/>
    <tag k="fuel:diesel" v="yes"/>
    <tag k="fuel:octane_95" v="yes"/>
    <tag k="import" v="osm_poi_matchmaker"/>
    <tag k="name" v="Avia"/>
    <tag k="operator" v="AVIA Hungária Kft."/>
    <tag k="payment:mastercard" v="yes"/>
    <tag k="payment:visa" v="yes"/>
    <tag k="phone" v="+36205504776"/>
    <tag k="source" v="website"/>
    <tag k="source:date" v="2018-07-15"/>
    <tag k="website" v="https://www.avia.hu/toltoallomas/?id=108"/>
    <tag k="wheelchair" v="yes"/>
    <tag k="youtube" v="https://www.youtube.com/channel/UCjvjkjf2RgmKBuTnKSXk-Rg"/>
  </node>
  <!-- Original coordinates: POINT (46.5134420418 20.1938541234) -->
  <!-- Original tags:  -->
  <node action="modify" changeset="99999" id="-47" lat="46.5134420418" lon="20.1938541234" timestamp="" uid="4579407" user="KAMI" version="99999">
    <tag k="addr:city" v="Mindszent"/>
    <tag k="addr:country" v="HU"/>
    <tag k="addr:housenumber" v="016"/>
    <tag k="addr:postcode" v="6630"/>
    <tag k="addr:street" v="Vásárhelyi út"/>
    <tag k="amenity" v="fuel"/>
    <tag k="brand" v="Avia"/>
    <tag k="email" v="iris@iristrade.hu"/>
    <tag k="facebook" v="https://www.facebook.com/AVIAHungary"/>
    <tag k="fuel:diesel" v="yes"/>
    <tag k="fuel:octane_95" v="yes"/>
    <tag k="import" v="osm_poi_matchmaker"/>
    <tag k="name" v="Avia"/>
    <tag k="operator" v="AVIA Hungária Kft."/>
    <tag k="payment:mastercard" v="yes"/>
    <tag k="payment:visa" v="yes"/>
    <tag k="phone" v="+3662225465"/>
    <tag k="source" v="website"/>
    <tag k="source:date" v="2018-07-15"/>
    <tag k="website" v="https://www.avia.hu/toltoallomas/?id=22"/>
    <tag k="youtube" v="https://www.youtube.com/channel/UCjvjkjf2RgmKBuTnKSXk-Rg"/>
  </node>
  <!-- Original coordinates: POINT (48.0875546 20.8140621) -->
  <!-- Original tags:  -->
  <node action="modify" changeset="99999" id="-48" lat="48.0875546" lon="20.8140621" timestamp="" uid="4579407" user="KAMI" version="99999">
    <tag k="addr:city" v="Miskolc"/>
    <tag k="addr:conscriptionnumber" v="0235/72"/>
    <tag k="addr:country" v="HU"/>
    <tag k="addr:postcode" v="3528"/>
    <tag k="amenity" v="fuel"/>
    <tag k="brand" v="Avia"/>
    <tag k="email" v="takker@chello.hu"/>
    <tag k="facebook" v="https://www.facebook.com/AVIAHungary"/>
    <tag k="fuel:diesel" v="yes"/>
    <tag k="fuel:octane_95" v="yes"/>
    <tag k="import" v="osm_poi_matchmaker"/>
    <tag k="name" v="Avia"/>
    <tag k="operator" v="AVIA Hungária Kft."/>
    <tag k="payment:mastercard" v="yes"/>
    <tag k="payment:visa" v="yes"/>
    <tag k="phone" v="+3646505572"/>
    <tag k="source" v="website"/>
    <tag k="source:date" v="2018-07-15"/>
    <tag k="website" v="https://www.avia.hu/toltoallomas/?id=37"/>
    <tag k="youtube" v="https://www.youtube.com/channel/UCjvjkjf2RgmKBuTnKSXk-Rg"/>
  </node>
  <!-- Original coordinates: POINT (47.995547 19.343189) -->
  <!-- Original tags:  -->
  <node action="modify" changeset="99999" id="-49" lat="47.995547" lon="19.343189" timestamp="" uid="4579407" user="KAMI" version="99999">
    <tag k="addr:city" v="Mohora"/>
    <tag k="addr:country" v="HU"/>
    <tag k="addr:housenumber" v="47/C"/>
    <tag k="addr:postcode" v="2698"/>
    <tag k="addr:street" v="Rákóczi út"/>
    <tag k="amenity" v="fuel"/>
    <tag k="brand" v="Avia"/>
    <tag k="email" v="eurotp@gmail.hu"/>
    <tag k="facebook" v="https://www.facebook.com/AVIAHungary"/>
    <tag k="fuel:diesel" v="yes"/>
    <tag k="fuel:octane_95" v="yes"/>
    <tag k="import" v="osm_poi_matchmaker"/>
    <tag k="name" v="Avia"/>
    <tag k="operator" v="AVIA Hungária Kft."/>
    <tag k="payment:mastercard" v="yes"/>
    <tag k="payment:visa" v="yes"/>
    <tag k="phone" v="+3635372387"/>
    <tag k="source" v="website"/>
    <tag k="source:date" v="2018-07-15"/>
    <tag k="website" v="https://www.avia.hu/toltoallomas/?id=89"/>
    <tag k="youtube" v="https://www.youtube.com/channel/UCjvjkjf2RgmKBuTnKSXk-Rg"/>
  </node>
  <!-- Original coordinates: POINT (47.035365 16.641687) -->
  <!-- Original tags:  -->
  <node action="modify" changeset="99999" id="-50" lat="47.035365" lon="16.641687" timestamp="" uid="4579407" user="KAMI" version="99999">
    <tag k="addr:city" v="Molnaszecsőd"/>
    <tag k="addr:country" v="HU"/>
    <tag k="addr:housenumber" v="96"/>
    <tag k="addr:postcode" v="9912"/>
    <tag k="addr:street" v="Petőfi Sándor utca"/>
    <tag k="amenity" v="fuel"/>
    <tag k="brand" v="Avia"/>
    <tag k="email" v="kemeny.bistro@freemail.hu"/>
    <tag k="facebook" v="https://www.facebook.com/AVIAHungary"/>
    <tag k="fuel:diesel" v="yes"/>
    <tag k="fuel:octane_95" v="yes"/>
    <tag k="import" v="osm_poi_matchmaker"/>
    <tag k="name" v="Avia"/>
    <tag k="operator" v="AVIA Hungária Kft."/>
    <tag k="payment:mastercard" v="yes"/>
    <tag k="payment:visa" v="yes"/>
    <tag k="phone" v="+36302500841"/>
    <tag k="source" v="website"/>
    <tag k="source:date" v="2018-07-15"/>
    <tag k="website" v="https://www.avia.hu/toltoallomas/?id=21"/>
    <tag k="youtube" v="https://www.youtube.com/channel/UCjvjkjf2RgmKBuTnKSXk-Rg"/>
  </node>
  <!-- OSM link: https://osm.org/node/5169788747 -->
  <!-- Original coordinates: POINT (47.75607 17.42327) -->
  <!-- Original tags: 'amenity':'fuel'; 'brand':'Avia'; 'name':'Avia'; 'opening_hours':'Mo-Fr 08:00-17:00; Sa 08:00-12:00; Su, PH off'; 'operator':'AVIA Hungária Kft.';  -->
  <node action="modify" changeset="1" id="5169788747" lat="47.7561882949001" lon="17.4233835975746" timestamp="2017-10-15T19:06:12Z" uid="4579407" user="KAMI" version="1">
    <tag k="addr:city" v="Mosonszentmiklós"/>
    <tag k="addr:country" v="HU"/>
    <tag k="addr:housenumber" v="15"/>
    <tag k="addr:postcode" v="9183"/>
    <tag k="addr:street" v="Béke út"/>
    <tag k="amenity" v="fuel"/>
    <tag k="brand" v="Avia"/>
    <tag k="email" v="zsete1@freemail.hu"/>
    <tag k="facebook" v="https://www.facebook.com/AVIAHungary"/>
    <tag k="fuel:diesel" v="yes"/>
    <tag k="fuel:octane_95" v="yes"/>
    <tag k="import" v="osm_poi_matchmaker"/>
    <tag k="name" v="Avia"/>
    <tag k="opening_hours" v="Mo-Fr 08:00-17:00; Sa 08:00-12:00; Su, PH off"/>
    <tag k="operator" v="AVIA Hungária Kft."/>
    <tag k="payment:mastercard" v="yes"/>
    <tag k="payment:visa" v="yes"/>
    <tag k="phone" v="+3696360021"/>
    <tag k="source" v="website"/>
    <tag k="source:date" v="2018-07-15"/>
    <tag k="website" v="https://www.avia.hu/toltoallomas/?id=32"/>
    <tag k="youtube" v="https://www.youtube.com/channel/UCjvjkjf2RgmKBuTnKSXk-Rg"/>
  </node>
  <!-- OSM link: https://osm.org/node/1718424656 -->
  <!-- Original coordinates: POINT (47.407917 19.743029) -->
  <!-- Original tags: 'addr:city':'Nagykáta'; 'addr:housenumber':'61/a'; 'addr:postcode':'2760'; 'addr:street':'Jászberényi út'; 'amenity':'fuel'; 'brand':'AVIA'; 'fuel:diesel':'yes'; 'fuel:octane_95':'yes'; 'fuel:octane_98':'yes'; 'name':'AVIA'; 'opening_hours':'Mo-Su 04:30-22:00'; 'operator':'AVIA - Zsonikó Kft'; 'website':'http://www.avia.hu';  -->
  <node action="modify" changeset="1" id="1718424656" lat="47.4079295949148" lon="19.7430613972517" timestamp="2016-03-03T12:23:40Z" uid="4579407" user="KAMI" version="5">
    <tag k="addr:city" v="Nagykáta"/>
    <tag k="addr:country" v="HU"/>
    <tag k="addr:housenumber" v="61/A"/>
    <tag k="addr:postcode" v="2760"/>
    <tag k="addr:street" v="Jászberényi út"/>
    <tag k="amenity" v="fuel"/>
    <tag k="brand" v="Avia"/>
    <tag k="email" v="zsoniko@avia.hu"/>
    <tag k="facebook" v="https://www.facebook.com/AVIAHungary"/>
    <tag k="fuel:diesel" v="yes"/>
    <tag k="fuel:octane_95" v="yes"/>
    <tag k="fuel:octane_98" v="yes"/>
    <tag k="import" v="osm_poi_matchmaker"/>
    <tag k="name" v="Avia"/>
    <tag k="opening_hours" v="Mo-Su 04:30-22:00"/>
    <tag k="operator" v="AVIA Hungária Kft."/>
    <tag k="payment:mastercard" v="yes"/>
    <tag k="payment:visa" v="yes"/>
    <tag k="phone" v="+36205504776"/>
    <tag k="source" v="website"/>
    <tag k="source:date" v="2018-07-15"/>
    <tag k="website" v="https://www.avia.hu/toltoallomas/?id=110"/>
    <tag k="youtube" v="https://www.youtube.com/channel/UCjvjkjf2RgmKBuTnKSXk-Rg"/>
  </node>
  <!-- OSM link: https://osm.org/node/4386767289 -->
  <!-- Original coordinates: POINT (47.52120029409542 19.26353931427002) -->
  <!-- Original tags: 'amenity':'fuel'; 'name':'AVIA';  -->
  <node action="modify" changeset="1" id="4386767289" lat="47.5223153949099" lon="19.2631253973186" timestamp="2016-09-06T07:47:09Z" uid="4579407" user="KAMI" version="1">
    <tag k="addr:city" v="Nagytarcsa"/>
    <tag k="addr:country" v="HU"/>
    <tag k="addr:postcode" v="2142"/>
    <tag k="amenity" v="fuel"/>
    <tag k="brand" v="Avia"/>
    <tag k="email" v="aviamotel.nagytarcsa@freemail.hu"/>
    <tag k="facebook" v="https://www.facebook.com/AVIAHungary"/>
    <tag k="fuel:diesel" v="yes"/>
    <tag k="fuel:octane_95" v="yes"/>
    <tag k="import" v="osm_poi_matchmaker"/>
    <tag k="name" v="Avia"/>
    <tag k="operator" v="AVIA Hungária Kft."/>
    <tag k="payment:mastercard" v="yes"/>
    <tag k="payment:visa" v="yes"/>
    <tag k="phone" v="+36205089009"/>
    <tag k="source" v="website"/>
    <tag k="source:date" v="2018-07-15"/>
    <tag k="website" v="https://www.avia.hu/toltoallomas/?id=68"/>
    <tag k="youtube" v="https://www.youtube.com/channel/UCjvjkjf2RgmKBuTnKSXk-Rg"/>
  </node>
  <!-- OSM link: https://osm.org/way/546845631 -->
  <!-- Original coordinates: POINT (47.6846628 21.8911262) -->
  <!-- Original tags: 'amenity':'fuel'; 'building':'yes'; 'fixme':'verify'; 'name':'Nyírolaj'; 'toilets:wheelchair':'no'; 'wheelchair':'no';  -->
  <way action="modify" changeset="1" id="546845631" timestamp="2017-12-14T15:17:50Z" uid="4579407" user="KAMI" version="1">
    <nd ref="5284157682"/>
    <nd ref="5284157667"/>
    <nd ref="5284157683"/>
    <nd ref="5284157684"/>
    <nd ref="5284157685"/>
    <nd ref="5284157686"/>
    <nd ref="5284157687"/>
    <nd ref="5284157688"/>
    <nd ref="5284157689"/>
    <nd ref="5284157682"/>
    <tag k="addr:city" v="Nyíradony"/>
    <tag k="addr:country" v="HU"/>
    <tag k="addr:postcode" v="4254"/>
    <tag k="amenity" v="fuel"/>
    <tag k="brand" v="Avia"/>
    <tag k="building" v="yes"/>
    <tag k="email" v="zsolt.csuhai@gmail.com"/>
    <tag k="facebook" v="https://www.facebook.com/AVIAHungary"/>
    <tag k="fixme" v="verify"/>
    <tag k="fuel:diesel" v="yes"/>
    <tag k="fuel:octane_95" v="yes"/>
    <tag k="import" v="osm_poi_matchmaker"/>
    <tag k="name" v="Avia"/>
    <tag k="operator" v="AVIA Hungária Kft."/>
    <tag k="payment:mastercard" v="yes"/>
    <tag k="payment:visa" v="yes"/>
    <tag k="phone" v="+3652203470"/>
    <tag k="source" v="website"/>
    <tag k="source:date" v="2018-07-15"/>
    <tag k="toilets:wheelchair" v="no"/>
    <tag k="website" v="https://www.avia.hu/toltoallomas/?id=131"/>
    <tag k="wheelchair" v="no"/>
    <tag k="youtube" v="https://www.youtube.com/channel/UCjvjkjf2RgmKBuTnKSXk-Rg"/>
  </way>
  <!-- OSM link: https://osm.org/node/4940558609 -->
  <!-- Original coordinates: POINT (46.9003214 20.398521) -->
  <!-- Original tags: 'amenity':'fuel'; 'fixme':'verify'; 'name':'Benzinkút'; 'source':'route4u';  -->
  <node action="modify" changeset="1" id="4940558609" lat="46.900400394937" lon="20.3986072971605" timestamp="2017-08-09T18:59:41Z" uid="4579407" user="KAMI" version="2">
    <tag k="addr:city" v="Öcsöd"/>
    <tag k="addr:country" v="HU"/>
    <tag k="addr:housenumber" v="1"/>
    <tag k="addr:postcode" v="5451"/>
    <tag k="addr:street" v="Bem út"/>
    <tag k="amenity" v="fuel"/>
    <tag k="brand" v="Avia"/>
    <tag k="email" v="rolytransspedkft@gmail.com"/>
    <tag k="facebook" v="https://www.facebook.com/AVIAHungary"/>
    <tag k="fixme" v="verify"/>
    <tag k="fuel:diesel" v="yes"/>
    <tag k="fuel:octane_95" v="yes"/>
    <tag k="import" v="osm_poi_matchmaker"/>
    <tag k="name" v="Avia"/>
    <tag k="operator" v="AVIA Hungária Kft."/>
    <tag k="payment:mastercard" v="yes"/>
    <tag k="payment:visa" v="yes"/>
    <tag k="phone" v="+36703105584"/>
    <tag k="source" v="website"/>
    <tag k="source:date" v="2018-07-15"/>
    <tag k="website" v="https://www.avia.hu/toltoallomas/?id=127"/>
    <tag k="youtube" v="https://www.youtube.com/channel/UCjvjkjf2RgmKBuTnKSXk-Rg"/>
  </node>
  <!-- OSM link: https://osm.org/node/895788164 -->
  <!-- Original coordinates: POINT (47.6907 19.2559) -->
  <!-- Original tags: 'amenity':'fuel'; 'brand':'AVIA'; 'fuel:95':'yes'; 'fuel:diesel':'yes'; 'fuel:e85':'yes'; 'fuel:lpg':'yes'; 'name':'AVIA'; 'website':'http://www.avia.hu'; 'wheelchair':'limited';  -->
  <node action="modify" changeset="1" id="895788164" lat="47.6906791949028" lon="19.2560830973195" timestamp="2017-04-10T15:36:45Z" uid="4579407" user="KAMI" version="4">
    <tag k="addr:city" v="Őrbottyán"/>
    <tag k="addr:conscriptionnumber" v="9733/2"/>
    <tag k="addr:country" v="HU"/>
    <tag k="addr:postcode" v="2162"/>
    <tag k="addr:street" v="Fő út"/>
    <tag k="amenity" v="fuel"/>
    <tag k="brand" v="Avia"/>
    <tag k="email" v="zsoniko@avia.hu"/>
    <tag k="facebook" v="https://www.facebook.com/AVIAHungary"/>
    <tag k="fuel:95" v="yes"/>
    <tag k="fuel:diesel" v="yes"/>
    <tag k="fuel:e85" v="yes"/>
    <tag k="fuel:lpg" v="yes"/>
    <tag k="fuel:octane_95" v="yes"/>
    <tag k="import" v="osm_poi_matchmaker"/>
    <tag k="name" v="Avia"/>
    <tag k="operator" v="AVIA Hungária Kft."/>
    <tag k="payment:mastercard" v="yes"/>
    <tag k="payment:visa" v="yes"/>
    <tag k="phone" v="+36209792560"/>
    <tag k="source" v="website"/>
    <tag k="source:date" v="2018-07-15"/>
    <tag k="website" v="https://www.avia.hu/toltoallomas/?id=113"/>
    <tag k="wheelchair" v="limited"/>
    <tag k="youtube" v="https://www.youtube.com/channel/UCjvjkjf2RgmKBuTnKSXk-Rg"/>
  </node>
  <!-- OSM link: https://osm.org/node/2472557724 -->
  <!-- Original coordinates: POINT (46.83793139 16.41830027) -->
  <!-- Original tags: 'amenity':'fuel'; 'building':'yes'; 'name':'AVIA';  -->
  <node action="modify" changeset="1" id="2472557724" lat="46.8379602949397" lon="16.4184206977145" timestamp="2016-07-08T09:06:39Z" uid="4579407" user="KAMI" version="3">
    <tag k="addr:city" v="Őriszentpéter"/>
    <tag k="addr:country" v="HU"/>
    <tag k="addr:postcode" v="9941"/>
    <tag k="amenity" v="fuel"/>
    <tag k="brand" v="Avia"/>
    <tag k="building" v="yes"/>
    <tag k="email" v="orsegiafesz@gmail.com"/>
    <tag k="facebook" v="https://www.facebook.com/AVIAHungary"/>
    <tag k="fuel:diesel" v="yes"/>
    <tag k="fuel:octane_95" v="yes"/>
    <tag k="import" v="osm_poi_matchmaker"/>
    <tag k="name" v="Avia"/>
    <tag k="operator" v="AVIA Hungária Kft."/>
    <tag k="payment:mastercard" v="yes"/>
    <tag k="payment:visa" v="yes"/>
    <tag k="phone" v="+3694428390"/>
    <tag k="source" v="website"/>
    <tag k="source:date" v="2018-07-15"/>
    <tag k="website" v="https://www.avia.hu/toltoallomas/?id=55"/>
    <tag k="youtube" v="https://www.youtube.com/channel/UCjvjkjf2RgmKBuTnKSXk-Rg"/>
  </node>
  <!-- Original coordinates: POINT (47.32863 17.03829) -->
  <!-- Original tags:  -->
  <node action="modify" changeset="99999" id="-58" lat="47.32863" lon="17.03829" timestamp="" uid="4579407" user="KAMI" version="99999">
    <tag k="addr:city" v="Ostffyasszonyfa"/>
    <tag k="addr:country" v="HU"/>
    <tag k="addr:housenumber" v="24"/>
    <tag k="addr:postcode" v="9512"/>
    <tag k="addr:street" v="Bajcsy-Zsilinszky Endre utca"/>
    <tag k="amenity" v="fuel"/>
    <tag k="brand" v="Avia"/>
    <tag k="email" v="aviadiesel@avia.hu"/>
    <tag k="facebook" v="https://www.facebook.com/AVIAHungary"/>
    <tag k="fuel:diesel" v="yes"/>
    <tag k="fuel:octane_95" v="yes"/>
    <tag k="import" v="osm_poi_matchmaker"/>
    <tag k="name" v="Avia"/>
    <tag k="operator" v="AVIA Hungária Kft."/>
    <tag k="payment:mastercard" v="yes"/>
    <tag k="payment:visa" v="yes"/>
    <tag k="phone" v="+3695394305"/>
    <tag k="source" v="website"/>
    <tag k="source:date" v="2018-07-15"/>
    <tag k="website" v="https://www.avia.hu/toltoallomas/?id=8"/>
    <tag k="youtube" v="https://www.youtube.com/channel/UCjvjkjf2RgmKBuTnKSXk-Rg"/>
  </node>
  <!-- OSM link: https://osm.org/way/529234987 -->
  <!-- Original coordinates: POINT (47.32798 17.49718) -->
  <!-- Original tags: 'amenity':'fuel'; 'building':'yes'; 'operator':'Avia';  -->
  <way action="modify" changeset="1" id="529234987" timestamp="2017-10-01T17:11:35Z" uid="4579407" user="KAMI" version="1">
    <nd ref="5141529712"/>
    <nd ref="5141529713"/>
    <nd ref="5141529714"/>
    <nd ref="5141529715"/>
    <nd ref="5141529716"/>
    <nd ref="5141529717"/>
    <nd ref="5141529718"/>
    <nd ref="5141529719"/>
    <nd ref="5141529712"/>
    <tag k="addr:city" v="Pápa"/>
    <tag k="addr:conscriptionnumber" v="661"/>
    <tag k="addr:country" v="HU"/>
    <tag k="addr:postcode" v="8500"/>
    <tag k="addr:street" v="Hódoska major"/>
    <tag k="amenity" v="fuel"/>
    <tag k="brand" v="Avia"/>
    <tag k="building" v="yes"/>
    <tag k="email" v="fo-tix2003bt@wdsl.hu"/>
    <tag k="facebook" v="https://www.facebook.com/AVIAHungary"/>
    <tag k="fuel:diesel" v="yes"/>
    <tag k="fuel:octane_95" v="yes"/>
    <tag k="import" v="osm_poi_matchmaker"/>
    <tag k="name" v="Avia"/>
    <tag k="operator" v="AVIA Hungária Kft."/>
    <tag k="payment:mastercard" v="yes"/>
    <tag k="payment:visa" v="yes"/>
    <tag k="phone" v="+36209530066"/>
    <tag k="source" v="website"/>
    <tag k="source:date" v="2018-07-15"/>
    <tag k="website" v="https://www.avia.hu/toltoallomas/?id=19"/>
    <tag k="youtube" v="https://www.youtube.com/channel/UCjvjkjf2RgmKBuTnKSXk-Rg"/>
  </way>
  <!-- Original coordinates: POINT (47.886078 21.101965) -->
  <!-- Original tags:  -->
  <node action="modify" changeset="99999" id="-60" lat="47.886078" lon="21.101965" timestamp="" uid="4579407" user="KAMI" version="99999">
    <tag k="addr:city" v="Polgár"/>
    <tag k="addr:country" v="HU"/>
    <tag k="addr:housenumber" v="7/A"/>
    <tag k="addr:postcode" v="4090"/>
    <tag k="addr:street" v="Tiszaiúti tanya"/>
    <tag k="amenity" v="fuel"/>
    <tag k="brand" v="Avia"/>
    <tag k="email" v="aliterkft@gmail.com"/>
    <tag k="facebook" v="https://www.facebook.com/AVIAHungary"/>
    <tag k="fuel:diesel" v="yes"/>
    <tag k="fuel:octane_95" v="yes"/>
    <tag k="import" v="osm_poi_matchmaker"/>
    <tag k="name" v="Avia"/>
    <tag k="operator" v="AVIA Hungária Kft."/>
    <tag k="payment:mastercard" v="yes"/>
    <tag k="payment:visa" v="yes"/>
    <tag k="phone" v="+36702577359"/>
    <tag k="source" v="website"/>
    <tag k="source:date" v="2018-07-15"/>
    <tag k="website" v="https://www.avia.hu/toltoallomas/?id=128"/>
    <tag k="youtube" v="https://www.youtube.com/channel/UCjvjkjf2RgmKBuTnKSXk-Rg"/>
  </node>
  <!-- OSM link: https://osm.org/node/368193160 -->
  <!-- Original coordinates: POINT (47.067773 18.309969) -->
  <!-- Original tags: 'amenity':'fuel'; 'name':'PJ'; 'operator':'PJ';  -->
  <node action="modify" changeset="1" id="368193160" lat="47.0680153949295" lon="18.3103572974512" timestamp="2013-06-04T19:00:47Z" uid="4579407" user="KAMI" version="2">
    <tag k="addr:city" v="Polgárdi"/>
    <tag k="addr:country" v="HU"/>
    <tag k="addr:postcode" v="8154"/>
    <tag k="amenity" v="fuel"/>
    <tag k="brand" v="Avia"/>
    <tag k="email" v="777agencykft@gmail.com"/>
    <tag k="facebook" v="https://www.facebook.com/AVIAHungary"/>
    <tag k="fuel:diesel" v="yes"/>
    <tag k="fuel:octane_95" v="yes"/>
    <tag k="import" v="osm_poi_matchmaker"/>
    <tag k="name" v="Avia"/>
    <tag k="operator" v="AVIA Hungária Kft."/>
    <tag k="payment:mastercard" v="yes"/>
    <tag k="payment:visa" v="yes"/>
    <tag k="phone" v="+3622576196"/>
    <tag k="source" v="website"/>
    <tag k="source:date" v="2018-07-15"/>
    <tag k="website" v="https://www.avia.hu/toltoallomas/?id=46"/>
    <tag k="youtube" v="https://www.youtube.com/channel/UCjvjkjf2RgmKBuTnKSXk-Rg"/>
  </node>
  <!-- OSM link: https://osm.org/way/549217165 -->
  <!-- Original coordinates: POINT (46.201125 18.8198371) -->
  <!-- Original tags: 'amenity':'fuel'; 'building':'yes'; 'name':'Avia';  -->
  <way action="modify" changeset="1" id="549217165" timestamp="2017-12-26T21:07:02Z" uid="4579407" user="KAMI" version="1">
    <nd ref="5305369610"/>
    <nd ref="5305369611"/>
    <nd ref="5305369612"/>
    <nd ref="5305369613"/>
    <nd ref="5305369610"/>
    <tag k="addr:city" v="Pörböly"/>
    <tag k="addr:country" v="HU"/>
    <tag k="addr:housenumber" v="1"/>
    <tag k="addr:postcode" v="7142"/>
    <tag k="addr:street" v="Vadász utca"/>
    <tag k="amenity" v="fuel"/>
    <tag k="brand" v="Avia"/>
    <tag k="building" v="yes"/>
    <tag k="email" v="baja@lamarin.hu"/>
    <tag k="facebook" v="https://www.facebook.com/AVIAHungary"/>
    <tag k="fuel:diesel" v="yes"/>
    <tag k="fuel:octane_95" v="yes"/>
    <tag k="import" v="osm_poi_matchmaker"/>
    <tag k="name" v="Avia"/>
    <tag k="operator" v="AVIA Hungária Kft."/>
    <tag k="payment:mastercard" v="yes"/>
    <tag k="payment:visa" v="yes"/>
    <tag k="phone" v="+36307776343"/>
    <tag k="source" v="website"/>
    <tag k="source:date" v="2018-07-15"/>
    <tag k="website" v="https://www.avia.hu/toltoallomas/?id=63"/>
    <tag k="youtube" v="https://www.youtube.com/channel/UCjvjkjf2RgmKBuTnKSXk-Rg"/>
  </way>
  <!-- OSM link: https://osm.org/node/3355562587 -->
  <!-- Original coordinates: POINT (47.41338 17.00303) -->
  <!-- Original tags: 'amenity':'fuel'; 'fixme':'resurvey, turistautak.hu source was old'; 'name':'Start'; 'source':'turistautak.hu'; 'url':'http://turistautak.hu/poi.php?id=22542';  -->
  <node action="modify" changeset="1" id="3355562587" lat="47.4132312949145" lon="17.0030400976332" timestamp="2015-02-17T10:06:14Z" uid="4579407" user="KAMI" version="1">
    <tag k="addr:city" v="Répcelak"/>
    <tag k="addr:conscriptionnumber" v="86"/>
    <tag k="addr:country" v="HU"/>
    <tag k="addr:postcode" v="9653"/>
    <tag k="addr:street" v="076/15. hrsz 86. számú főút"/>
    <tag k="amenity" v="fuel"/>
    <tag k="brand" v="Avia"/>
    <tag k="email" v="aviadiesel@avia.hu"/>
    <tag k="facebook" v="https://www.facebook.com/AVIAHungary"/>
    <tag k="fixme" v="resurvey, turistautak.hu source was old"/>
    <tag k="fuel:diesel" v="yes"/>
    <tag k="fuel:octane_95" v="yes"/>
    <tag k="import" v="osm_poi_matchmaker"/>
    <tag k="name" v="Avia"/>
    <tag k="operator" v="AVIA Hungária Kft."/>
    <tag k="payment:mastercard" v="yes"/>
    <tag k="payment:visa" v="yes"/>
    <tag k="phone" v="+3695370580"/>
    <tag k="source" v="website"/>
    <tag k="source:date" v="2018-07-15"/>
    <tag k="url" v="http://turistautak.hu/poi.php?id=22542"/>
    <tag k="website" v="https://www.avia.hu/toltoallomas/?id=6"/>
    <tag k="youtube" v="https://www.youtube.com/channel/UCjvjkjf2RgmKBuTnKSXk-Rg"/>
  </node>
  <!-- OSM link: https://osm.org/node/2510920571 -->
  <!-- Original coordinates: POINT (47.25158 16.91036) -->
  <!-- Original tags: 'amenity':'fuel'; 'name':'Avia';  -->
  <node action="modify" changeset="1" id="2510920571" lat="47.2514958949215" lon="16.910619697646" timestamp="2015-03-19T19:03:58Z" uid="4579407" user="KAMI" version="4">
    <tag k="addr:city" v="Sárvár"/>
    <tag k="addr:country" v="HU"/>
    <tag k="addr:housenumber" v="18"/>
    <tag k="addr:postcode" v="9600"/>
    <tag k="addr:street" v="Ikervári út"/>
    <tag k="amenity" v="fuel"/>
    <tag k="brand" v="Avia"/>
    <tag k="email" v="aviadiesel@avia.hu"/>
    <tag k="facebook" v="https://www.facebook.com/AVIAHungary"/>
    <tag k="fuel:diesel" v="yes"/>
    <tag k="fuel:octane_95" v="yes"/>
    <tag k="import" v="osm_poi_matchmaker"/>
    <tag k="name" v="Avia"/>
    <tag k="operator" v="AVIA Hungária Kft."/>
    <tag k="payment:mastercard" v="yes"/>
    <tag k="payment:visa" v="yes"/>
    <tag k="phone" v="+3695326373"/>
    <tag k="source" v="website"/>
    <tag k="source:date" v="2018-07-15"/>
    <tag k="website" v="https://www.avia.hu/toltoallomas/?id=4"/>
    <tag k="youtube" v="https://www.youtube.com/channel/UCjvjkjf2RgmKBuTnKSXk-Rg"/>
  </node>
  <!-- OSM link: https://osm.org/node/1259612355 -->
  <!-- Original coordinates: POINT (45.8579775257 18.2783961296) -->
  <!-- Original tags: 'amenity':'fuel'; 'fuel:diesel':'yes'; 'fuel:octane_95':'yes'; 'fuel:octane_98':'yes';  -->
  <node action="modify" changeset="1" id="1259612355" lat="45.8579984949858" lon="18.2784437974556" timestamp="2012-01-22T16:56:02Z" uid="4579407" user="KAMI" version="3">
    <tag k="addr:city" v="Siklós"/>
    <tag k="addr:country" v="HU"/>
    <tag k="addr:housenumber" v="55"/>
    <tag k="addr:postcode" v="7800"/>
    <tag k="addr:street" v="Harkányi utca"/>
    <tag k="amenity" v="fuel"/>
    <tag k="brand" v="Avia"/>
    <tag k="email" v="robert.sebok@echo-sprint.hu"/>
    <tag k="facebook" v="https://www.facebook.com/AVIAHungary"/>
    <tag k="fuel:diesel" v="yes"/>
    <tag k="fuel:octane_95" v="yes"/>
    <tag k="fuel:octane_98" v="yes"/>
    <tag k="import" v="osm_poi_matchmaker"/>
    <tag k="name" v="Avia"/>
    <tag k="operator" v="AVIA Hungária Kft."/>
    <tag k="payment:mastercard" v="yes"/>
    <tag k="payment:visa" v="yes"/>
    <tag k="phone" v="+3672579008"/>
    <tag k="source" v="website"/>
    <tag k="source:date" v="2018-07-15"/>
    <tag k="website" v="https://www.avia.hu/toltoallomas/?id=106"/>
    <tag k="youtube" v="https://www.youtube.com/channel/UCjvjkjf2RgmKBuTnKSXk-Rg"/>
  </node>
  <!-- Original coordinates: POINT (46.891059 18.061753) -->
  <!-- Original tags:  -->
  <node action="modify" changeset="99999" id="-66" lat="46.891059" lon="18.061753" timestamp="" uid="4579407" user="KAMI" version="99999">
    <tag k="addr:city" v="Siófok"/>
    <tag k="addr:country" v="HU"/>
    <tag k="addr:housenumber" v="45"/>
    <tag k="addr:postcode" v="8611"/>
    <tag k="addr:street" v="Vak Bottyán utca"/>
    <tag k="amenity" v="fuel"/>
    <tag k="brand" v="Avia"/>
    <tag k="email" v="zsoniko@avia.hu"/>
    <tag k="facebook" v="https://www.facebook.com/AVIAHungary"/>
    <tag k="fuel:diesel" v="yes"/>
    <tag k="fuel:octane_95" v="yes"/>
    <tag k="import" v="osm_poi_matchmaker"/>
    <tag k="name" v="Avia"/>
    <tag k="operator" v="AVIA Hungária Kft."/>
    <tag k="payment:mastercard" v="yes"/>
    <tag k="payment:visa" v="yes"/>
    <tag k="phone" v="+36205037943"/>
    <tag k="source" v="website"/>
    <tag k="source:date" v="2018-07-15"/>
    <tag k="website" v="https://www.avia.hu/toltoallomas/?id=99"/>
    <tag k="youtube" v="https://www.youtube.com/channel/UCjvjkjf2RgmKBuTnKSXk-Rg"/>
  </node>
  <!-- OSM link: https://osm.org/node/2427047950 -->
  <!-- Original coordinates: POINT (46.6834 17.772239) -->
  <!-- Original tags: 'amenity':'fuel'; 'building':'yes';  -->
  <node action="modify" changeset="1" id="2427047950" lat="46.6834693949467" lon="17.7718702975261" timestamp="2013-08-21T18:45:15Z" uid="4579407" user="KAMI" version="1">
    <tag k="addr:city" v="Somogytúr"/>
    <tag k="addr:conscriptionnumber" v="09/4"/>
    <tag k="addr:country" v="HU"/>
    <tag k="addr:postcode" v="8683"/>
    <tag k="amenity" v="fuel"/>
    <tag k="brand" v="Avia"/>
    <tag k="building" v="yes"/>
    <tag k="email" v="zsoniko@avia.hu"/>
    <tag k="facebook" v="https://www.facebook.com/AVIAHungary"/>
    <tag k="fuel:diesel" v="yes"/>
    <tag k="fuel:octane_95" v="yes"/>
    <tag k="import" v="osm_poi_matchmaker"/>
    <tag k="name" v="Avia"/>
    <tag k="operator" v="AVIA Hungária Kft."/>
    <tag k="payment:mastercard" v="yes"/>
    <tag k="payment:visa" v="yes"/>
    <tag k="phone" v="+36205730768"/>
    <tag k="source" v="website"/>
    <tag k="source:date" v="2018-07-15"/>
    <tag k="website" v="https://www.avia.hu/toltoallomas/?id=112"/>
    <tag k="youtube" v="https://www.youtube.com/channel/UCjvjkjf2RgmKBuTnKSXk-Rg"/>
  </node>
  <!-- Original coordinates: POINT (47.08034 18.22582) -->
  <!-- Original tags:  -->
  <node action="modify" changeset="99999" id="-68" lat="47.08034" lon="18.22582" timestamp="" uid="4579407" user="KAMI" version="99999">
    <tag k="addr:city" v="Szabadbattyán"/>
    <tag k="addr:conscriptionnumber" v="09/5"/>
    <tag k="addr:country" v="HU"/>
    <tag k="addr:postcode" v="8157"/>
    <tag k="amenity" v="fuel"/>
    <tag k="brand" v="Avia"/>
    <tag k="email" v="kftroyap@gmail.com"/>
    <tag k="facebook" v="https://www.facebook.com/AVIAHungary"/>
    <tag k="fuel:diesel" v="yes"/>
    <tag k="fuel:octane_95" v="yes"/>
    <tag k="import" v="osm_poi_matchmaker"/>
    <tag k="name" v="Avia"/>
    <tag k="operator" v="AVIA Hungária Kft."/>
    <tag k="payment:mastercard" v="yes"/>
    <tag k="payment:visa" v="yes"/>
    <tag k="phone" v="+3622363415"/>
    <tag k="source" v="website"/>
    <tag k="source:date" v="2018-07-15"/>
    <tag k="website" v="https://www.avia.hu/toltoallomas/?id=103"/>
    <tag k="youtube" v="https://www.youtube.com/channel/UCjvjkjf2RgmKBuTnKSXk-Rg"/>
  </node>
  <!-- OSM link: https://osm.org/node/281002225 -->
  <!-- Original coordinates: POINT (46.27441 18.36981) -->
  <!-- Original tags: 'amenity':'fuel'; 'brand':'Agip'; 'name':'Agip'; 'website':'http://www.eni.com';  -->
  <node action="modify" changeset="1" id="281002225" lat="46.2742903949658" lon="18.3697672974429" timestamp="2015-03-15T09:12:13Z" uid="4579407" user="KAMI" version="2">
    <tag k="addr:city" v="Szászvár"/>
    <tag k="addr:conscriptionnumber" v="1171/2"/>
    <tag k="addr:country" v="HU"/>
    <tag k="addr:postcode" v="7349"/>
    <tag k="addr:street" v="Vásártér utca"/>
    <tag k="amenity" v="fuel"/>
    <tag k="brand" v="Avia"/>
    <tag k="email" v="m.coop@tolna.net"/>
    <tag k="facebook" v="https://www.facebook.com/AVIAHungary"/>
    <tag k="fuel:diesel" v="yes"/>
    <tag k="fuel:octane_95" v="yes"/>
    <tag k="import" v="osm_poi_matchmaker"/>
    <tag k="name" v="Avia"/>
    <tag k="operator" v="AVIA Hungária Kft."/>
    <tag k="payment:mastercard" v="yes"/>
    <tag k="payment:visa" v="yes"/>
    <tag k="phone" v="+36306309667"/>
    <tag k="source" v="website"/>
    <tag k="source:date" v="2018-07-15"/>
    <tag k="website" v="https://www.avia.hu/toltoallomas/?id=26"/>
    <tag k="youtube" v="https://www.youtube.com/channel/UCjvjkjf2RgmKBuTnKSXk-Rg"/>
  </node>
  <!-- Original coordinates: POINT (46.3498314 20.0424348) -->
  <!-- Original tags:  -->
  <node action="modify" changeset="99999" id="-70" lat="46.3498314" lon="20.0424348" timestamp="" uid="4579407" user="KAMI" version="99999">
    <tag k="addr:city" v="Szatymaz"/>
    <tag k="addr:conscriptionnumber" v="0261/4"/>
    <tag k="addr:country" v="HU"/>
    <tag k="addr:housenumber" v="130"/>
    <tag k="addr:postcode" v="6763"/>
    <tag k="addr:street" v="IV. kerület"/>
    <tag k="amenity" v="fuel"/>
    <tag k="brand" v="Avia"/>
    <tag k="email" v="szatymazibenzinkut@gmail.com"/>
    <tag k="facebook" v="https://www.facebook.com/AVIAHungary"/>
    <tag k="fuel:diesel" v="yes"/>
    <tag k="fuel:octane_95" v="yes"/>
    <tag k="import" v="osm_poi_matchmaker"/>
    <tag k="name" v="Avia"/>
    <tag k="operator" v="AVIA Hungária Kft."/>
    <tag k="payment:mastercard" v="yes"/>
    <tag k="payment:visa" v="yes"/>
    <tag k="phone" v="+306558730"/>
    <tag k="source" v="website"/>
    <tag k="source:date" v="2018-07-15"/>
    <tag k="website" v="https://www.avia.hu/toltoallomas/?id=91"/>
    <tag k="youtube" v="https://www.youtube.com/channel/UCjvjkjf2RgmKBuTnKSXk-Rg"/>
  </node>
  <!-- OSM link: https://osm.org/node/2351098919 -->
  <!-- Original coordinates: POINT (46.260339 20.1075037) -->
  <!-- Original tags: 'amenity':'fuel'; 'brand':'AVIA'; 'name':'AVIA'; 'website':'http://www.avia.hu';  -->
  <node action="modify" changeset="1" id="2351098919" lat="46.2616108949664" lon="20.1094690972007" timestamp="2015-03-15T10:49:59Z" uid="4579407" user="KAMI" version="2">
    <tag k="addr:city" v="Szeged"/>
    <tag k="addr:country" v="HU"/>
    <tag k="addr:housenumber" v="14"/>
    <tag k="addr:postcode" v="6728"/>
    <tag k="addr:street" v="Fonógyári út"/>
    <tag k="amenity" v="fuel"/>
    <tag k="brand" v="Avia"/>
    <tag k="email" v="benzinkut2@invitel.hu"/>
    <tag k="facebook" v="https://www.facebook.com/AVIAHungary"/>
    <tag k="fuel:diesel" v="yes"/>
    <tag k="fuel:octane_95" v="yes"/>
    <tag k="import" v="osm_poi_matchmaker"/>
    <tag k="name" v="Avia"/>
    <tag k="operator" v="AVIA Hungária Kft."/>
    <tag k="payment:mastercard" v="yes"/>
    <tag k="payment:visa" v="yes"/>
    <tag k="phone" v="+36302164349"/>
    <tag k="source" v="website"/>
    <tag k="source:date" v="2018-07-15"/>
    <tag k="website" v="https://www.avia.hu/toltoallomas/?id=59"/>
    <tag k="youtube" v="https://www.youtube.com/channel/UCjvjkjf2RgmKBuTnKSXk-Rg"/>
  </node>
  <!-- Original coordinates: POINT (47.67836984531385 19.06017422676086) -->
  <!-- Original tags:  -->
  <node action="modify" changeset="99999" id="-72" lat="47.67836984531385" lon="19.060174226760864" timestamp="" uid="4579407" user="KAMI" version="99999">
    <tag k="addr:city" v="Szentendre"/>
    <tag k="addr:country" v="HU"/>
    <tag k="addr:postcode" v="2000"/>
    <tag k="amenity" v="fuel"/>
    <tag k="brand" v="Avia"/>
    <tag k="email" v="petroloil73@gmail.com"/>
    <tag k="facebook" v="https://www.facebook.com/AVIAHungary"/>
    <tag k="fuel:diesel" v="yes"/>
    <tag k="fuel:octane_95" v="yes"/>
    <tag k="import" v="osm_poi_matchmaker"/>
    <tag k="name" v="Avia"/>
    <tag k="operator" v="AVIA Hungária Kft."/>
    <tag k="payment:mastercard" v="yes"/>
    <tag k="payment:visa" v="yes"/>
    <tag k="phone" v="+3626302097"/>
    <tag k="source" v="website"/>
    <tag k="source:date" v="2018-07-15"/>
    <tag k="website" v="https://www.avia.hu/toltoallomas/?id=90"/>
    <tag k="youtube" v="https://www.youtube.com/channel/UCjvjkjf2RgmKBuTnKSXk-Rg"/>
  </node>
  <!-- OSM link: https://osm.org/node/3471869138 -->
  <!-- Original coordinates: POINT (47.2137944444 16.6197305556) -->
  <!-- Original tags: 'amenity':'fuel'; 'name':'Avia'; 'source':'turistautak.hu'; 'source:date':'2011-09-06'; 'url':'http://turistautak.hu/poi.php?id=17126';  -->
  <node action="modify" changeset="1" id="3471869138" lat="47.2134859949231" lon="16.6192614976866" timestamp="2016-02-22T20:12:52Z" uid="4579407" user="KAMI" version="2">
    <tag k="addr:city" v="Szombathely"/>
    <tag k="addr:country" v="HU"/>
    <tag k="addr:housenumber" v="92"/>
    <tag k="addr:postcode" v="9700"/>
    <tag k="addr:street" v="Körmendi út"/>
    <tag k="amenity" v="fuel"/>
    <tag k="brand" v="Avia"/>
    <tag k="email" v="volltank@freemail.hu"/>
    <tag k="facebook" v="https://www.facebook.com/AVIAHungary"/>
    <tag k="fuel:diesel" v="yes"/>
    <tag k="fuel:octane_95" v="yes"/>
    <tag k="import" v="osm_poi_matchmaker"/>
    <tag k="name" v="Avia"/>
    <tag k="operator" v="AVIA Hungária Kft."/>
    <tag k="payment:mastercard" v="yes"/>
    <tag k="payment:visa" v="yes"/>
    <tag k="phone" v="+36209961603"/>
    <tag k="source" v="website"/>
    <tag k="source:date" v="2018-07-15"/>
    <tag k="url" v="http://turistautak.hu/poi.php?id=17126"/>
    <tag k="website" v="https://www.avia.hu/toltoallomas/?id=23"/>
    <tag k="youtube" v="https://www.youtube.com/channel/UCjvjkjf2RgmKBuTnKSXk-Rg"/>
  </node>
  <!-- Original coordinates: POINT (48.0838203 21.1304792) -->
  <!-- Original tags:  -->
  <node action="modify" changeset="99999" id="-74" lat="48.0838203" lon="21.1304792" timestamp="" uid="4579407" user="KAMI" version="99999">
    <tag k="addr:city" v="Taktaharkány"/>
    <tag k="addr:country" v="HU"/>
    <tag k="addr:housenumber" v="10"/>
    <tag k="addr:postcode" v="3922"/>
    <tag k="addr:street" v="Vörösmarty utca"/>
    <tag k="amenity" v="fuel"/>
    <tag k="brand" v="Avia"/>
    <tag k="email" v="taktakut11@gmail.com"/>
    <tag k="facebook" v="https://www.facebook.com/AVIAHungary"/>
    <tag k="fuel:diesel" v="yes"/>
    <tag k="fuel:octane_95" v="yes"/>
    <tag k="import" v="osm_poi_matchmaker"/>
    <tag k="name" v="Avia"/>
    <tag k="operator" v="AVIA Hungária Kft."/>
    <tag k="payment:mastercard" v="yes"/>
    <tag k="payment:visa" v="yes"/>
    <tag k="phone" v="+3647378054"/>
    <tag k="source" v="website"/>
    <tag k="source:date" v="2018-07-15"/>
    <tag k="website" v="https://www.avia.hu/toltoallomas/?id=134"/>
    <tag k="youtube" v="https://www.youtube.com/channel/UCjvjkjf2RgmKBuTnKSXk-Rg"/>
  </node>
  <!-- OSM link: https://osm.org/node/1461602811 -->
  <!-- Original coordinates: POINT (48.1395876 21.3350751) -->
  <!-- Original tags: 'amenity':'fuel'; 'brand':'AVIA'; 'fuel:diesel':'yes'; 'fuel:e85':'yes'; 'fuel:octane_95':'yes'; 'name':'AVIA'; 'website':'http://www.avia.hu';  -->
  <node action="modify" changeset="1" id="1461602811" lat="48.1406988948846" lon="21.33597989703" timestamp="2015-03-15T10:50:01Z" uid="4579407" user="KAMI" version="3">
    <tag k="addr:city" v="Tarcal"/>
    <tag k="addr:conscriptionnumber" v="12/24"/>
    <tag k="addr:country" v="HU"/>
    <tag k="addr:housenumber" v="35"/>
    <tag k="addr:postcode" v="3915"/>
    <tag k="addr:street" v="Sport tér"/>
    <tag k="amenity" v="fuel"/>
    <tag k="brand" v="Avia"/>
    <tag k="email" v="avia@avia.hu"/>
    <tag k="facebook" v="https://www.facebook.com/AVIAHungary"/>
    <tag k="fuel:diesel" v="yes"/>
    <tag k="fuel:e85" v="yes"/>
    <tag k="fuel:octane_95" v="yes"/>
    <tag k="import" v="osm_poi_matchmaker"/>
    <tag k="name" v="Avia"/>
    <tag k="operator" v="AVIA Hungária Kft."/>
    <tag k="payment:mastercard" v="yes"/>
    <tag k="payment:visa" v="yes"/>
    <tag k="phone" v="+3647580029"/>
    <tag k="source" v="website"/>
    <tag k="source:date" v="2018-07-15"/>
    <tag k="website" v="https://www.avia.hu/toltoallomas/?id=65"/>
    <tag k="youtube" v="https://www.youtube.com/channel/UCjvjkjf2RgmKBuTnKSXk-Rg"/>
  </node>
  <!-- Original coordinates: POINT (46.436111 18.769444) -->
  <!-- Original tags:  -->
  <node action="modify" changeset="99999" id="-76" lat="46.436111" lon="18.769444" timestamp="" uid="4579407" user="KAMI" version="99999">
    <tag k="addr:city" v="Tolna"/>
    <tag k="addr:conscriptionnumber" v="077/4"/>
    <tag k="addr:country" v="HU"/>
    <tag k="addr:postcode" v="7130"/>
    <tag k="amenity" v="fuel"/>
    <tag k="brand" v="Avia"/>
    <tag k="email" v="aviatolna@gmail.com"/>
    <tag k="facebook" v="https://www.facebook.com/AVIAHungary"/>
    <tag k="fuel:diesel" v="yes"/>
    <tag k="fuel:octane_95" v="yes"/>
    <tag k="import" v="osm_poi_matchmaker"/>
    <tag k="name" v="Avia"/>
    <tag k="operator" v="AVIA Hungária Kft."/>
    <tag k="payment:mastercard" v="yes"/>
    <tag k="payment:visa" v="yes"/>
    <tag k="phone" v="+36704230066"/>
    <tag k="source" v="website"/>
    <tag k="source:date" v="2018-07-15"/>
    <tag k="website" v="https://www.avia.hu/toltoallomas/?id=104"/>
    <tag k="youtube" v="https://www.youtube.com/channel/UCjvjkjf2RgmKBuTnKSXk-Rg"/>
  </node>
  <!-- Original coordinates: POINT (47.3427698 18.7448036) -->
  <!-- Original tags:  -->
  <node action="modify" changeset="99999" id="-77" lat="47.3427698" lon="18.7448036" timestamp="" uid="4579407" user="KAMI" version="99999">
    <tag k="addr:city" v="Tordas"/>
    <tag k="addr:country" v="HU"/>
    <tag k="addr:postcode" v="2463"/>
    <tag k="amenity" v="fuel"/>
    <tag k="brand" v="Avia"/>
    <tag k="email" v="orszagkft@t-online.hu"/>
    <tag k="facebook" v="https://www.facebook.com/AVIAHungary"/>
    <tag k="fuel:diesel" v="yes"/>
    <tag k="fuel:octane_95" v="yes"/>
    <tag k="import" v="osm_poi_matchmaker"/>
    <tag k="name" v="Avia"/>
    <tag k="operator" v="AVIA Hungária Kft."/>
    <tag k="payment:mastercard" v="yes"/>
    <tag k="payment:visa" v="yes"/>
    <tag k="phone" v="+36306803817"/>
    <tag k="source" v="website"/>
    <tag k="source:date" v="2018-07-15"/>
    <tag k="website" v="https://www.avia.hu/toltoallomas/?id=133"/>
    <tag k="youtube" v="https://www.youtube.com/channel/UCjvjkjf2RgmKBuTnKSXk-Rg"/>
  </node>
  <!-- Original coordinates: POINT (48.006944 22.156944) -->
  <!-- Original tags:  -->
  <node action="modify" changeset="99999" id="-78" lat="48.006944" lon="22.156944" timestamp="" uid="4579407" user="KAMI" version="99999">
    <tag k="addr:city" v="Vaja"/>
    <tag k="addr:country" v="HU"/>
    <tag k="addr:housenumber" v="2"/>
    <tag k="addr:postcode" v="4562"/>
    <tag k="addr:street" v="Rohodi utca"/>
    <tag k="amenity" v="fuel"/>
    <tag k="brand" v="Avia"/>
    <tag k="email" v="avia@avia.hu"/>
    <tag k="facebook" v="https://www.facebook.com/AVIAHungary"/>
    <tag k="fuel:diesel" v="yes"/>
    <tag k="fuel:octane_95" v="yes"/>
    <tag k="import" v="osm_poi_matchmaker"/>
    <tag k="name" v="Avia"/>
    <tag k="operator" v="AVIA Hungária Kft."/>
    <tag k="payment:mastercard" v="yes"/>
    <tag k="payment:visa" v="yes"/>
    <tag k="phone" v="+3644385320"/>
    <tag k="source" v="website"/>
    <tag k="source:date" v="2018-07-15"/>
    <tag k="website" v="https://www.avia.hu/toltoallomas/?id=45"/>
    <tag k="youtube" v="https://www.youtube.com/channel/UCjvjkjf2RgmKBuTnKSXk-Rg"/>
  </node>
  <!-- Original coordinates: POINT (47.0359776 16.8110368) -->
  <!-- Original tags:  -->
  <node action="modify" changeset="99999" id="-79" lat="47.0359776" lon="16.8110368" timestamp="" uid="4579407" user="KAMI" version="99999">
    <tag k="addr:city" v="Vasvár"/>
    <tag k="addr:country" v="HU"/>
    <tag k="addr:housenumber" v="113"/>
    <tag k="addr:postcode" v="9800"/>
    <tag k="addr:street" v="Győrvári út"/>
    <tag k="amenity" v="fuel"/>
    <tag k="brand" v="Avia"/>
    <tag k="email" v="aviadiesel@avia.hu"/>
    <tag k="facebook" v="https://www.facebook.com/AVIAHungary"/>
    <tag k="fuel:diesel" v="yes"/>
    <tag k="fuel:octane_95" v="yes"/>
    <tag k="import" v="osm_poi_matchmaker"/>
    <tag k="name" v="Avia"/>
    <tag k="operator" v="AVIA Hungária Kft."/>
    <tag k="payment:mastercard" v="yes"/>
    <tag k="payment:visa" v="yes"/>
    <tag k="phone" v="+3694505391"/>
    <tag k="source" v="website"/>
    <tag k="source:date" v="2018-07-15"/>
    <tag k="website" v="https://www.avia.hu/toltoallomas/?id=56"/>
    <tag k="youtube" v="https://www.youtube.com/channel/UCjvjkjf2RgmKBuTnKSXk-Rg"/>
  </node>
  <!-- OSM link: https://osm.org/node/703392678 -->
  <!-- Original coordinates: POINT (47.4229 19.2372) -->
  <!-- Original tags: 'amenity':'fuel'; 'operator':'Avia';  -->
  <node action="modify" changeset="1" id="703392678" lat="47.4228442949141" lon="19.2370981973222" timestamp="2010-04-21T18:47:42Z" uid="4579407" user="KAMI" version="1">
    <tag k="addr:city" v="Vecsés"/>
    <tag k="addr:country" v="HU"/>
    <tag k="addr:housenumber" v="812"/>
    <tag k="addr:postcode" v="2220"/>
    <tag k="addr:street" v="Üllői út"/>
    <tag k="amenity" v="fuel"/>
    <tag k="brand" v="Avia"/>
    <tag k="email" v="zsoniko@avia.hu"/>
    <tag k="facebook" v="https://www.facebook.com/AVIAHungary"/>
    <tag k="fuel:diesel" v="yes"/>
    <tag k="fuel:octane_95" v="yes"/>
    <tag k="import" v="osm_poi_matchmaker"/>
    <tag k="name" v="Avia"/>
    <tag k="operator" v="AVIA Hungária Kft."/>
    <tag k="payment:mastercard" v="yes"/>
    <tag k="payment:visa" v="yes"/>
    <tag k="phone" v="+3629552530"/>
    <tag k="source" v="website"/>
    <tag k="source:date" v="2018-07-15"/>
    <tag k="website" v="https://www.avia.hu/toltoallomas/?id=13"/>
    <tag k="youtube" v="https://www.youtube.com/channel/UCjvjkjf2RgmKBuTnKSXk-Rg"/>
  </node>
  <!-- OSM link: https://osm.org/node/603883200 -->
  <!-- Original coordinates: POINT (46.97375 17.01521) -->
  <!-- Original tags: 'amenity':'fuel'; 'opening_hours':'Mo-Su 06:00-20:00';  -->
  <node action="modify" changeset="1" id="603883200" lat="46.9736156949337" lon="17.0155193976314" timestamp="2010-01-03T19:53:36Z" uid="4579407" user="KAMI" version="1">
    <tag k="addr:city" v="Zalabér"/>
    <tag k="addr:conscriptionnumber" v="03155/2"/>
    <tag k="addr:country" v="HU"/>
    <tag k="addr:postcode" v="8798"/>
    <tag k="amenity" v="fuel"/>
    <tag k="brand" v="Avia"/>
    <tag k="email" v="aviadiesel@avia.hu"/>
    <tag k="facebook" v="https://www.facebook.com/AVIAHungary"/>
    <tag k="fuel:diesel" v="yes"/>
    <tag k="fuel:octane_95" v="yes"/>
    <tag k="import" v="osm_poi_matchmaker"/>
    <tag k="name" v="Avia"/>
    <tag k="opening_hours" v="Mo-Su 06:00-20:00"/>
    <tag k="operator" v="AVIA Hungária Kft."/>
    <tag k="payment:mastercard" v="yes"/>
    <tag k="payment:visa" v="yes"/>
    <tag k="phone" v="+3683376087"/>
    <tag k="source" v="website"/>
    <tag k="source:date" v="2018-07-15"/>
    <tag k="website" v="https://www.avia.hu/toltoallomas/?id=5"/>
    <tag k="youtube" v="https://www.youtube.com/channel/UCjvjkjf2RgmKBuTnKSXk-Rg"/>
  </node>
  <!-- OSM link: https://osm.org/way/176564006 -->
  <!-- Original coordinates: POINT (47.01919 17.23416) -->
  <!-- Original tags: 'addr:city':'Zalagyömörő'; 'addr:housenumber':'184'; 'addr:postcode':'8349'; 'addr:street':'Rákóczi utca'; 'amenity':'fuel'; 'brand':'Avia'; 'email':'szigno@euroweb.hu'; 'fuel:diesel':'yes'; 'fuel:octane_95':'yes'; 'name':'Avia'; 'operator':'AVIA Hungária Kft.'; 'payment:cash':'yes'; 'payment:debit_cards':'yes'; 'phone':'+3687457509'; 'website':'https://www.avia.hu';  -->
  <way action="modify" changeset="1" id="176564006" timestamp="2018-06-18T10:19:08Z" uid="4579407" user="KAMI" version="3">
    <nd ref="1870600866"/>
    <nd ref="1870600861"/>
    <nd ref="1870600893"/>
    <nd ref="1870600858"/>
    <nd ref="1870600866"/>
    <tag k="addr:city" v="Zalagyömörő"/>
    <tag k="addr:country" v="HU"/>
    <tag k="addr:housenumber" v="184"/>
    <tag k="addr:postcode" v="8349"/>
    <tag k="addr:street" v="Rákóczi utca"/>
    <tag k="amenity" v="fuel"/>
    <tag k="brand" v="Avia"/>
    <tag k="email" v="szigno@euroweb.hu"/>
    <tag k="facebook" v="https://www.facebook.com/AVIAHungary"/>
    <tag k="fuel:diesel" v="yes"/>
    <tag k="fuel:octane_95" v="yes"/>
    <tag k="import" v="osm_poi_matchmaker"/>
    <tag k="name" v="Avia"/>
    <tag k="operator" v="AVIA Hungária Kft."/>
    <tag k="payment:cash" v="yes"/>
    <tag k="payment:debit_cards" v="yes"/>
    <tag k="payment:mastercard" v="yes"/>
    <tag k="payment:visa" v="yes"/>
    <tag k="phone" v="+3687457509"/>
    <tag k="source" v="website"/>
    <tag k="source:date" v="2018-07-15"/>
    <tag k="website" v="https://www.avia.hu/toltoallomas/?id=25"/>
    <tag k="youtube" v="https://www.youtube.com/channel/UCjvjkjf2RgmKBuTnKSXk-Rg"/>
  </way>
</osm>
