<?xml version='1.0' encoding='UTF-8'?>
<osm generator="JOSM" version="0.6">
  <!-- OSM link: https://osm.org/node/5633565953 -->
  <!-- Original coordinates: POINT (47.5345928 18.9737698) -->
  <!-- OSM <-> POI distance: 24.01542327 m-->
  <!-- Checker good: {not_in_water}; bad {}-->
  <!-- Original tags: 'addr:city':'Budapest'; 'addr:housenumber':'118'; 'addr:postcode':'1021'; 'addr:street':'Hűvösvölgyi út'; 'name':'Spar Express'; 'opening_hours':'24/7'; 'payment:cash':'yes'; 'payment:credit_cards':'yes'; 'payment:debit_cards':'yes'; 'shop':'supermarket';  -->
  <node action="modify" changeset="1" id="5633565953" lat="47.5345427949094" lon="18.9734585973589" timestamp="2018-05-23T13:04:05Z" uid="4579407" user="KAMI" version="2">
    <tag k="addr:city" v="Budapest"/>
    <tag k="addr:country" v="HU"/>
    <tag k="addr:housenumber" v="118"/>
    <tag k="addr:postcode" v="1021"/>
    <tag k="addr:street" v="Hűvösvölgyi út"/>
    <tag k="branch" v="Spar express OMV Budapest"/>
    <tag k="brand" v="Spar"/>
    <tag k="brand:wikidata" v="Q610492"/>
    <tag k="brand:wikipedia" v="hu:Spar "/>
    <tag k="email" v="vevoszolgalat@spar.hu"/>
    <tag k="facebook" v="https://www.facebook.com/sparmagyarorszag"/>
    <tag k="import" v="osm_poi_matchmaker"/>
    <tag k="instagram" v="https://www.instagram.com/sparmagyarorszag"/>
    <tag k="name" v="Spar Expressz"/>
    <tag k="opening_hours" v="24/7"/>
    <tag k="operator" v="SPAR Magyarország Kereskedelmi Kft."/>
    <tag k="payment:cash" v="yes"/>
    <tag k="payment:credit_cards" v="yes"/>
    <tag k="payment:debit_cards" v="yes"/>
    <tag k="phone" v="+36208237727"/>
    <tag k="shop" v="convenience"/>
    <tag k="source" v="website"/>
    <tag k="source:date" v="2018-07-18"/>
    <tag k="website" v="https://www.spar.hu/content/aspiag_spar_hu/hu_HU/uzletek/10/spar-exp-huevoesv-omv.html"/>
    <tag k="youtube" v="https://www.youtube.com/channel/UC9tu8COHiy4WkeTIN1k_Y8A"/>
  </node>
  <!-- OSM link: https://osm.org/way/249900580 -->
  <!-- Original coordinates: POINT (47.510163 19.011189) -->
  <!-- OSM <-> POI distance: 25.64806889 m-->
  <!-- Checker good: {not_in_water}; bad {}-->
  <!-- Original tags: 'building':'yes'; 'name':'SPAR express'; 'shop':'convenience';  -->
  <way action="modify" changeset="1" id="249900580" timestamp="2017-12-23T10:39:05Z" uid="4579407" user="KAMI" version="8">
    <nd ref="2564374490"/>
    <nd ref="2564374493"/>
    <nd ref="2564374494"/>
    <nd ref="2564374495"/>
    <nd ref="2564374490"/>
    <tag k="addr:city" v="Budapest"/>
    <tag k="addr:country" v="HU"/>
    <tag k="addr:housenumber" v="55"/>
    <tag k="addr:postcode" v="1026"/>
    <tag k="addr:street" v="Szilágyi Erzsébet fasor"/>
    <tag k="branch" v="Spar express Budapest"/>
    <tag k="brand" v="Spar"/>
    <tag k="brand:wikidata" v="Q610492"/>
    <tag k="brand:wikipedia" v="hu:Spar "/>
    <tag k="building" v="yes"/>
    <tag k="email" v="vevoszolgalat@spar.hu"/>
    <tag k="facebook" v="https://www.facebook.com/sparmagyarorszag"/>
    <tag k="import" v="osm_poi_matchmaker"/>
    <tag k="instagram" v="https://www.instagram.com/sparmagyarorszag"/>
    <tag k="name" v="Spar Expressz"/>
    <tag k="operator" v="SPAR Magyarország Kereskedelmi Kft."/>
    <tag k="payment:cash" v="yes"/>
    <tag k="payment:debit_cards" v="yes"/>
    <tag k="phone" v="+36208237727"/>
    <tag k="shop" v="convenience"/>
    <tag k="source" v="website"/>
    <tag k="source:date" v="2018-07-18"/>
    <tag k="website" v="https://www.spar.hu/content/aspiag_spar_hu/hu_HU/uzletek/10/spar-express-budapest-6719800-.html"/>
    <tag k="youtube" v="https://www.youtube.com/channel/UC9tu8COHiy4WkeTIN1k_Y8A"/>
  </way>
  <!-- Original coordinates: POINT (47.435851 18.9748407) -->
  <!-- OSM <-> POI distance: None m-->
  <!-- Checker good: {not_in_water}; bad {}-->
  <!-- Original tags:  -->
  <node action="modify" changeset="99999" id="-3" lat="47.435851" lon="18.9748407" timestamp="" uid="4579407" user="KAMI" version="99999">
    <tag k="addr:city" v="Budapest"/>
    <tag k="addr:country" v="HU"/>
    <tag k="addr:housenumber" v="1"/>
    <tag k="addr:postcode" v="2040"/>
    <tag k="addr:street" v="Tölgyfa utca"/>
    <tag k="branch" v="Spar express OMV Budapest"/>
    <tag k="brand" v="Spar"/>
    <tag k="brand:wikidata" v="Q610492"/>
    <tag k="brand:wikipedia" v="hu:Spar "/>
    <tag k="email" v="vevoszolgalat@spar.hu"/>
    <tag k="facebook" v="https://www.facebook.com/sparmagyarorszag"/>
    <tag k="import" v="osm_poi_matchmaker"/>
    <tag k="instagram" v="https://www.instagram.com/sparmagyarorszag"/>
    <tag k="name" v="Spar Expressz"/>
    <tag k="operator" v="SPAR Magyarország Kereskedelmi Kft."/>
    <tag k="payment:cash" v="yes"/>
    <tag k="payment:debit_cards" v="yes"/>
    <tag k="phone" v="+36208237727"/>
    <tag k="shop" v="convenience"/>
    <tag k="source" v="website"/>
    <tag k="source:date" v="2018-07-18"/>
    <tag k="website" v="https://www.spar.hu/content/aspiag_spar_hu/hu_HU/uzletek/10/spar-exp-fekete-sas-omv.html"/>
    <tag k="youtube" v="https://www.youtube.com/channel/UC9tu8COHiy4WkeTIN1k_Y8A"/>
  </node>
  <!-- OSM link: https://osm.org/way/252651600 -->
  <!-- Original coordinates: POINT (47.5510541 19.0445905) -->
  <!-- OSM <-> POI distance: 631.48436529 m-->
  <!-- Checker good: {not_in_water}; bad {}-->
  <!-- Original tags: 'building':'retail'; 'contact:website':'http://www.spar.hu'; 'name':'SPAR'; 'operator':'SPAR'; 'shop':'supermarket'; 'source':'Bing'; 'website':'http://www.spar.hu'; 'wheelchair':'yes';  -->
  <way action="modify" changeset="1" id="252651600" timestamp="2017-12-25T16:17:12Z" uid="4579407" user="KAMI" version="8">
    <nd ref="2586941850"/>
    <nd ref="2586941841"/>
    <nd ref="2586941817"/>
    <nd ref="2586941818"/>
    <nd ref="2586941814"/>
    <nd ref="2586941820"/>
    <nd ref="2586941833"/>
    <nd ref="2586941830"/>
    <nd ref="2586941850"/>
    <tag k="addr:city" v="Budapest"/>
    <tag k="addr:country" v="HU"/>
    <tag k="addr:housenumber" v="1"/>
    <tag k="addr:postcode" v="1033"/>
    <tag k="addr:street" v="Ladik utca"/>
    <tag k="branch" v="Spar express OMV Budapest"/>
    <tag k="brand" v="Spar"/>
    <tag k="brand:wikidata" v="Q610492"/>
    <tag k="brand:wikipedia" v="hu:Spar "/>
    <tag k="building" v="retail"/>
    <tag k="contact:website" v="http://www.spar.hu"/>
    <tag k="email" v="vevoszolgalat@spar.hu"/>
    <tag k="facebook" v="https://www.facebook.com/sparmagyarorszag"/>
    <tag k="import" v="osm_poi_matchmaker"/>
    <tag k="instagram" v="https://www.instagram.com/sparmagyarorszag"/>
    <tag k="name" v="Spar Expressz"/>
    <tag k="operator" v="SPAR Magyarország Kereskedelmi Kft."/>
    <tag k="payment:cash" v="yes"/>
    <tag k="payment:debit_cards" v="yes"/>
    <tag k="phone" v="+36208237727"/>
    <tag k="shop" v="convenience"/>
    <tag k="source" v="website"/>
    <tag k="source:date" v="2018-07-18"/>
    <tag k="website" v="https://www.spar.hu/content/aspiag_spar_hu/hu_HU/uzletek/10/spar-exp-ladik-u-omv.html"/>
    <tag k="wheelchair" v="yes"/>
    <tag k="youtube" v="https://www.youtube.com/channel/UC9tu8COHiy4WkeTIN1k_Y8A"/>
  </way>
  <!-- OSM link: https://osm.org/way/253131384 -->
  <!-- Original coordinates: POINT (47.579076119 19.0497911831) -->
  <!-- OSM <-> POI distance: 658.15394082 m-->
  <!-- Checker good: {not_in_water}; bad {}-->
  <!-- Original tags: 'addr:city':'Budapest'; 'addr:country':'HU'; 'addr:housenumber':'3'; 'addr:postcode':'1031'; 'addr:street':'Monostori út'; 'building':'retail'; 'contact:phone':'+36 20 8237769'; 'contact:website':'http://www.spar.hu'; 'name':'SPAR'; 'opening_hours':'Mo-Fr 07:00-20:00; Sa 07:00-18:00; Su 08:00-18:00'; 'ref':'11'; 'shop':'supermarket'; 'website':'http://www.spar.hu'; 'wheelchair':'yes';  -->
  <way action="modify" changeset="1" id="253131384" timestamp="2017-12-25T16:17:13Z" uid="4579407" user="KAMI" version="6">
    <nd ref="2591095459"/>
    <nd ref="2591095453"/>
    <nd ref="2591095434"/>
    <nd ref="2591095431"/>
    <nd ref="2591095414"/>
    <nd ref="2591095416"/>
    <nd ref="2591095413"/>
    <nd ref="2591095415"/>
    <nd ref="2591095417"/>
    <nd ref="2591095456"/>
    <nd ref="2591095459"/>
    <tag k="addr:city" v="Budapest"/>
    <tag k="addr:country" v="HU"/>
    <tag k="addr:housenumber" v="3"/>
    <tag k="addr:postcode" v="1039"/>
    <tag k="addr:street" v="Szentendrei- Czetz János utca sarok"/>
    <tag k="branch" v="Spar express OMV Budapest"/>
    <tag k="brand" v="Spar"/>
    <tag k="brand:wikidata" v="Q610492"/>
    <tag k="brand:wikipedia" v="hu:Spar "/>
    <tag k="building" v="retail"/>
    <tag k="contact:phone" v="+36 20 8237769"/>
    <tag k="contact:website" v="http://www.spar.hu"/>
    <tag k="email" v="vevoszolgalat@spar.hu"/>
    <tag k="facebook" v="https://www.facebook.com/sparmagyarorszag"/>
    <tag k="import" v="osm_poi_matchmaker"/>
    <tag k="instagram" v="https://www.instagram.com/sparmagyarorszag"/>
    <tag k="name" v="Spar Expressz"/>
    <tag k="opening_hours" v="Mo-Fr 07:00-20:00; Sa 07:00-18:00; Su 08:00-18:00"/>
    <tag k="operator" v="SPAR Magyarország Kereskedelmi Kft."/>
    <tag k="payment:cash" v="yes"/>
    <tag k="payment:debit_cards" v="yes"/>
    <tag k="phone" v="+36208237727"/>
    <tag k="ref" v="11"/>
    <tag k="shop" v="convenience"/>
    <tag k="source" v="website"/>
    <tag k="source:date" v="2018-07-18"/>
    <tag k="website" v="https://www.spar.hu/content/aspiag_spar_hu/hu_HU/uzletek/10/spar-exp-sztendrei-ut.html"/>
    <tag k="wheelchair" v="yes"/>
    <tag k="youtube" v="https://www.youtube.com/channel/UC9tu8COHiy4WkeTIN1k_Y8A"/>
  </way>
  <!-- Original coordinates: POINT (47.57714 19.081533) -->
  <!-- OSM <-> POI distance: None m-->
  <!-- Checker good: {not_in_water}; bad {}-->
  <!-- Original tags:  -->
  <node action="modify" changeset="99999" id="-6" lat="47.57714" lon="19.081533" timestamp="" uid="4579407" user="KAMI" version="99999">
    <tag k="addr:city" v="Budapest"/>
    <tag k="addr:country" v="HU"/>
    <tag k="addr:housenumber" v="77"/>
    <tag k="addr:postcode" v="1044"/>
    <tag k="addr:street" v="Váci út"/>
    <tag k="branch" v="Spar express OMV Budapest"/>
    <tag k="brand" v="Spar"/>
    <tag k="brand:wikidata" v="Q610492"/>
    <tag k="brand:wikipedia" v="hu:Spar "/>
    <tag k="email" v="vevoszolgalat@spar.hu"/>
    <tag k="facebook" v="https://www.facebook.com/sparmagyarorszag"/>
    <tag k="import" v="osm_poi_matchmaker"/>
    <tag k="instagram" v="https://www.instagram.com/sparmagyarorszag"/>
    <tag k="name" v="Spar Expressz"/>
    <tag k="operator" v="SPAR Magyarország Kereskedelmi Kft."/>
    <tag k="payment:cash" v="yes"/>
    <tag k="payment:debit_cards" v="yes"/>
    <tag k="phone" v="+36208237727"/>
    <tag k="shop" v="convenience"/>
    <tag k="source" v="website"/>
    <tag k="source:date" v="2018-07-18"/>
    <tag k="website" v="https://www.spar.hu/content/aspiag_spar_hu/hu_HU/uzletek/10/spar-exp-megyeri-ut-omv.html"/>
    <tag k="youtube" v="https://www.youtube.com/channel/UC9tu8COHiy4WkeTIN1k_Y8A"/>
  </node>
  <!-- OSM link: https://osm.org/way/261038036 -->
  <!-- Original coordinates: POINT (47.4934304 19.0846625) -->
  <!-- OSM <-> POI distance: 741.1749091 m-->
  <!-- Checker good: {not_in_water}; bad {}-->
  <!-- Original tags: 'addr:city':'Budapest'; 'addr:housenumber':'12'; 'addr:postcode':'1083'; 'addr:street':'Szigony utca'; 'building':'retail'; 'name':'SPAR szupermarket'; 'shop':'supermarket'; 'source':'Bing'; 'website':'http://spar.hu/'; 'wheelchair':'yes';  -->
  <way action="modify" changeset="1" id="261038036" timestamp="2017-12-25T16:17:18Z" uid="4579407" user="KAMI" version="6">
    <nd ref="2666411606"/>
    <nd ref="2936217810"/>
    <nd ref="2666411589"/>
    <nd ref="2666411590"/>
    <nd ref="2936217811"/>
    <nd ref="2666411583"/>
    <nd ref="2666411584"/>
    <nd ref="2666411587"/>
    <nd ref="2666411588"/>
    <nd ref="2666411601"/>
    <nd ref="2666411603"/>
    <nd ref="2666411608"/>
    <nd ref="2666411607"/>
    <nd ref="2666411606"/>
    <tag k="addr:city" v="Budapest"/>
    <tag k="addr:country" v="HU"/>
    <tag k="addr:housenumber" v="12"/>
    <tag k="addr:postcode" v="1086"/>
    <tag k="addr:street" v="Teleki tér"/>
    <tag k="branch" v="Spar express OMV Budapest"/>
    <tag k="brand" v="Spar"/>
    <tag k="brand:wikidata" v="Q610492"/>
    <tag k="brand:wikipedia" v="hu:Spar "/>
    <tag k="building" v="retail"/>
    <tag k="email" v="vevoszolgalat@spar.hu"/>
    <tag k="facebook" v="https://www.facebook.com/sparmagyarorszag"/>
    <tag k="import" v="osm_poi_matchmaker"/>
    <tag k="instagram" v="https://www.instagram.com/sparmagyarorszag"/>
    <tag k="name" v="Spar Expressz"/>
    <tag k="operator" v="SPAR Magyarország Kereskedelmi Kft."/>
    <tag k="payment:cash" v="yes"/>
    <tag k="payment:debit_cards" v="yes"/>
    <tag k="phone" v="+36208237727"/>
    <tag k="shop" v="convenience"/>
    <tag k="source" v="website"/>
    <tag k="source:date" v="2018-07-18"/>
    <tag k="website" v="https://www.spar.hu/content/aspiag_spar_hu/hu_HU/uzletek/10/spar-exp-teleki-ter-omv.html"/>
    <tag k="wheelchair" v="yes"/>
    <tag k="youtube" v="https://www.youtube.com/channel/UC9tu8COHiy4WkeTIN1k_Y8A"/>
  </way>
  <!-- OSM link: https://osm.org/way/211334066 -->
  <!-- Original coordinates: POINT (47.442475 19.094101) -->
  <!-- OSM <-> POI distance: 270.40647436 m-->
  <!-- Checker good: {not_in_water}; bad {}-->
  <!-- Original tags: 'addr:city':'Budapest'; 'addr:housenumber':'5'; 'addr:postcode':'1203'; 'addr:street':'Baross utca'; 'building':'retail'; 'name':'SPAR'; 'opening_hours':'Mo-Fr 06:30-20:00; Sa 06:30-17:00'; 'phone':'+36 20 8237103'; 'ref':'103'; 'shop':'supermarket'; 'website':'http://www.spar.hu'; 'wheelchair':'limited';  -->
  <way action="modify" changeset="1" id="211334066" timestamp="2015-11-29T09:37:22Z" uid="4579407" user="KAMI" version="7">
    <nd ref="2213446177"/>
    <nd ref="2213446173"/>
    <nd ref="2213446171"/>
    <nd ref="2213446172"/>
    <nd ref="2213446177"/>
    <tag k="addr:city" v="Budapest"/>
    <tag k="addr:country" v="HU"/>
    <tag k="addr:housenumber" v="5"/>
    <tag k="addr:postcode" v="1097"/>
    <tag k="addr:street" v="Soroksári út - Határ út sarok"/>
    <tag k="branch" v="Spar express OMV Budapest"/>
    <tag k="brand" v="Spar"/>
    <tag k="brand:wikidata" v="Q610492"/>
    <tag k="brand:wikipedia" v="hu:Spar "/>
    <tag k="building" v="retail"/>
    <tag k="email" v="vevoszolgalat@spar.hu"/>
    <tag k="facebook" v="https://www.facebook.com/sparmagyarorszag"/>
    <tag k="import" v="osm_poi_matchmaker"/>
    <tag k="instagram" v="https://www.instagram.com/sparmagyarorszag"/>
    <tag k="name" v="Spar Expressz"/>
    <tag k="opening_hours" v="Mo-Fr 06:30-20:00; Sa 06:30-17:00"/>
    <tag k="operator" v="SPAR Magyarország Kereskedelmi Kft."/>
    <tag k="payment:cash" v="yes"/>
    <tag k="payment:debit_cards" v="yes"/>
    <tag k="phone" v="+36208237727"/>
    <tag k="ref" v="103"/>
    <tag k="shop" v="convenience"/>
    <tag k="source" v="website"/>
    <tag k="source:date" v="2018-07-18"/>
    <tag k="website" v="https://www.spar.hu/content/aspiag_spar_hu/hu_HU/uzletek/10/spar-exp-bp-soroksari-hatar-sarok.html"/>
    <tag k="wheelchair" v="limited"/>
    <tag k="youtube" v="https://www.youtube.com/channel/UC9tu8COHiy4WkeTIN1k_Y8A"/>
  </way>
  <!-- OSM link: https://osm.org/node/4939174000 -->
  <!-- Original coordinates: POINT (47.4714166 19.1074857) -->
  <!-- OSM <-> POI distance: 29.9908324 m-->
  <!-- Checker good: {not_in_water}; bad {}-->
  <!-- Original tags: 'fixme':'verify'; 'name':'Spar Expressz'; 'shop':'convenience'; 'source':'route4u';  -->
  <node action="modify" changeset="1" id="4939174000" lat="47.4715425949121" lon="19.1078384973402" timestamp="2017-08-07T22:04:27Z" uid="4579407" user="KAMI" version="2">
    <tag k="addr:city" v="Budapest"/>
    <tag k="addr:country" v="HU"/>
    <tag k="addr:housenumber" v="137"/>
    <tag k="addr:postcode" v="1098"/>
    <tag k="addr:street" v="Üllői út"/>
    <tag k="branch" v="Spar express OMV Budapest"/>
    <tag k="brand" v="Spar"/>
    <tag k="brand:wikidata" v="Q610492"/>
    <tag k="brand:wikipedia" v="hu:Spar "/>
    <tag k="email" v="vevoszolgalat@spar.hu"/>
    <tag k="facebook" v="https://www.facebook.com/sparmagyarorszag"/>
    <tag k="fixme" v="verify"/>
    <tag k="import" v="osm_poi_matchmaker"/>
    <tag k="instagram" v="https://www.instagram.com/sparmagyarorszag"/>
    <tag k="name" v="Spar Expressz"/>
    <tag k="operator" v="SPAR Magyarország Kereskedelmi Kft."/>
    <tag k="payment:cash" v="yes"/>
    <tag k="payment:debit_cards" v="yes"/>
    <tag k="phone" v="+36208237727"/>
    <tag k="shop" v="convenience"/>
    <tag k="source" v="website"/>
    <tag k="source:date" v="2018-07-18"/>
    <tag k="website" v="https://www.spar.hu/content/aspiag_spar_hu/hu_HU/uzletek/10/spar-exp-uell_i-ut.html"/>
    <tag k="youtube" v="https://www.youtube.com/channel/UC9tu8COHiy4WkeTIN1k_Y8A"/>
  </node>
  <!-- OSM link: https://osm.org/node/5440081550 -->
  <!-- Original coordinates: POINT (47.4720439 19.109074) -->
  <!-- OSM <-> POI distance: 43.65117029 m-->
  <!-- Checker good: {not_in_water}; bad {}-->
  <!-- Original tags: 'brand':'Spar'; 'name':'Spar Expressz'; 'shop':'convenience';  -->
  <node action="modify" changeset="1" id="5440081550" lat="47.472371094912" lon="19.1093948973399" timestamp="2018-02-27T13:06:03Z" uid="4579407" user="KAMI" version="1">
    <tag k="addr:city" v="Budapest"/>
    <tag k="addr:country" v="HU"/>
    <tag k="addr:housenumber" v="110-112"/>
    <tag k="addr:postcode" v="1107"/>
    <tag k="addr:street" v="Üllői út"/>
    <tag k="branch" v="Spar express OMV Budapest"/>
    <tag k="brand" v="Spar"/>
    <tag k="brand:wikidata" v="Q610492"/>
    <tag k="brand:wikipedia" v="hu:Spar "/>
    <tag k="email" v="vevoszolgalat@spar.hu"/>
    <tag k="facebook" v="https://www.facebook.com/sparmagyarorszag"/>
    <tag k="import" v="osm_poi_matchmaker"/>
    <tag k="instagram" v="https://www.instagram.com/sparmagyarorszag"/>
    <tag k="name" v="Spar Expressz"/>
    <tag k="operator" v="SPAR Magyarország Kereskedelmi Kft."/>
    <tag k="payment:cash" v="yes"/>
    <tag k="payment:debit_cards" v="yes"/>
    <tag k="phone" v="+36208237727"/>
    <tag k="shop" v="convenience"/>
    <tag k="source" v="website"/>
    <tag k="source:date" v="2018-07-18"/>
    <tag k="website" v="https://www.spar.hu/content/aspiag_spar_hu/hu_HU/uzletek/11/spar-exp-uell_i-ut-110.html"/>
    <tag k="youtube" v="https://www.youtube.com/channel/UC9tu8COHiy4WkeTIN1k_Y8A"/>
  </node>
  <!-- OSM link: https://osm.org/node/1013274374 -->
  <!-- Original coordinates: POINT (47.504477 19.150793) -->
  <!-- OSM <-> POI distance: 129.98690946 m-->
  <!-- Checker good: {not_in_water}; bad {}-->
  <!-- Original tags: 'contact:website':'http://www.spar.hu'; 'name':'SPAR'; 'shop':'convenience'; 'website':'http://www.spar.hu'; 'wheelchair':'yes';  -->
  <node action="modify" changeset="1" id="1013274374" lat="47.5037373949107" lon="19.152133097334" timestamp="2015-03-15T08:09:48Z" uid="4579407" user="KAMI" version="5">
    <tag k="addr:city" v="Budapest"/>
    <tag k="addr:country" v="HU"/>
    <tag k="addr:housenumber" v="73"/>
    <tag k="addr:postcode" v="1106"/>
    <tag k="addr:street" v="Kerepesi út"/>
    <tag k="branch" v="Spar express OMV Budapest"/>
    <tag k="brand" v="Spar"/>
    <tag k="brand:wikidata" v="Q610492"/>
    <tag k="brand:wikipedia" v="hu:Spar "/>
    <tag k="contact:website" v="http://www.spar.hu"/>
    <tag k="email" v="vevoszolgalat@spar.hu"/>
    <tag k="facebook" v="https://www.facebook.com/sparmagyarorszag"/>
    <tag k="import" v="osm_poi_matchmaker"/>
    <tag k="instagram" v="https://www.instagram.com/sparmagyarorszag"/>
    <tag k="name" v="Spar Expressz"/>
    <tag k="operator" v="SPAR Magyarország Kereskedelmi Kft."/>
    <tag k="payment:cash" v="yes"/>
    <tag k="payment:debit_cards" v="yes"/>
    <tag k="phone" v="+36208237727"/>
    <tag k="shop" v="convenience"/>
    <tag k="source" v="website"/>
    <tag k="source:date" v="2018-07-18"/>
    <tag k="website" v="https://www.spar.hu/content/aspiag_spar_hu/hu_HU/uzletek/11/spar-exp-bp-kerepesi.html"/>
    <tag k="wheelchair" v="yes"/>
    <tag k="youtube" v="https://www.youtube.com/channel/UC9tu8COHiy4WkeTIN1k_Y8A"/>
  </node>
  <!-- OSM link: https://osm.org/way/265244195 -->
  <!-- Original coordinates: POINT (47.465336 19.103918) -->
  <!-- OSM <-> POI distance: 739.57136505 m-->
  <!-- Checker good: {not_in_water}; bad {}-->
  <!-- Original tags: 'building':'retail'; 'contact:website':'http://www.spar.hu'; 'name':'SPAR'; 'opening_hours':'Mo-Fri 06:30-21:00; Sa 06:30-20:00; Sun 7:00-14:00'; 'payment:cash':'yes'; 'payment:coins':'yes'; 'payment:credit_cards':'yes'; 'payment:mastercard':'yes'; 'payment:visa':'yes'; 'shop':'supermarket'; 'website':'http://www.spar.hu'; 'wheelchair':'yes';  -->
  <way action="modify" changeset="1" id="265244195" timestamp="2018-02-27T12:24:40Z" uid="4579407" user="KAMI" version="5">
    <nd ref="1409791763"/>
    <nd ref="2709106934"/>
    <nd ref="2709106907"/>
    <nd ref="2709106947"/>
    <nd ref="1409791763"/>
    <tag k="addr:city" v="Budapest"/>
    <tag k="addr:country" v="HU"/>
    <tag k="addr:housenumber" v="112"/>
    <tag k="addr:postcode" v="1097"/>
    <tag k="addr:street" v="Budaörsi utca"/>
    <tag k="branch" v="Spar express OMV Budapest"/>
    <tag k="brand" v="Spar"/>
    <tag k="brand:wikidata" v="Q610492"/>
    <tag k="brand:wikipedia" v="hu:Spar "/>
    <tag k="building" v="retail"/>
    <tag k="contact:website" v="http://www.spar.hu"/>
    <tag k="email" v="vevoszolgalat@spar.hu"/>
    <tag k="facebook" v="https://www.facebook.com/sparmagyarorszag"/>
    <tag k="import" v="osm_poi_matchmaker"/>
    <tag k="instagram" v="https://www.instagram.com/sparmagyarorszag"/>
    <tag k="name" v="Spar Expressz"/>
    <tag k="opening_hours" v="Mo-Fri 06:30-21:00; Sa 06:30-20:00; Sun 7:00-14:00"/>
    <tag k="operator" v="SPAR Magyarország Kereskedelmi Kft."/>
    <tag k="payment:cash" v="yes"/>
    <tag k="payment:coins" v="yes"/>
    <tag k="payment:credit_cards" v="yes"/>
    <tag k="payment:debit_cards" v="yes"/>
    <tag k="payment:mastercard" v="yes"/>
    <tag k="payment:visa" v="yes"/>
    <tag k="phone" v="+36208237727"/>
    <tag k="shop" v="convenience"/>
    <tag k="source" v="website"/>
    <tag k="source:date" v="2018-07-18"/>
    <tag k="website" v="https://www.spar.hu/content/aspiag_spar_hu/hu_HU/uzletek/11/spar-exp-budaoersi-ut.html"/>
    <tag k="wheelchair" v="yes"/>
    <tag k="youtube" v="https://www.youtube.com/channel/UC9tu8COHiy4WkeTIN1k_Y8A"/>
  </way>
  <!-- OSM link: https://osm.org/way/104055140 -->
  <!-- Original coordinates: POINT (47.451272 19.038794) -->
  <!-- OSM <-> POI distance: 593.09323568 m-->
  <!-- Checker good: {not_in_water}; bad {}-->
  <!-- Original tags: 'building':'retail'; 'contact:website':'http://www.spar.hu'; 'name':'SPAR'; 'opening_hours':'Mo-Fr 07:00-21:00; Sa 07:00-17:30; Su 08:00-15:00'; 'payment:contactless':'yes'; 'payment:mastercard':'yes'; 'shop':'supermarket'; 'website':'http://www.spar.hu'; 'wheelchair':'limited';  -->
  <way action="modify" changeset="1" id="104055140" timestamp="2017-12-25T16:15:58Z" uid="4579407" user="KAMI" version="8">
    <nd ref="1200851417"/>
    <nd ref="1200851461"/>
    <nd ref="1200851428"/>
    <nd ref="1200851432"/>
    <nd ref="5254021219"/>
    <nd ref="5254021214"/>
    <nd ref="1200851438"/>
    <nd ref="5254021217"/>
    <nd ref="5254021216"/>
    <nd ref="5254021215"/>
    <nd ref="5254021218"/>
    <nd ref="1200851487"/>
    <nd ref="5254021212"/>
    <nd ref="5254021213"/>
    <nd ref="1200851458"/>
    <nd ref="1200851417"/>
    <tag k="addr:city" v="Budapest"/>
    <tag k="addr:country" v="HU"/>
    <tag k="addr:housenumber" v="166"/>
    <tag k="addr:postcode" v="1116"/>
    <tag k="addr:street" v="Fehérvári út"/>
    <tag k="branch" v="Spar express OMV Budapest"/>
    <tag k="brand" v="Spar"/>
    <tag k="brand:wikidata" v="Q610492"/>
    <tag k="brand:wikipedia" v="hu:Spar "/>
    <tag k="building" v="retail"/>
    <tag k="contact:website" v="http://www.spar.hu"/>
    <tag k="email" v="vevoszolgalat@spar.hu"/>
    <tag k="facebook" v="https://www.facebook.com/sparmagyarorszag"/>
    <tag k="import" v="osm_poi_matchmaker"/>
    <tag k="instagram" v="https://www.instagram.com/sparmagyarorszag"/>
    <tag k="name" v="Spar Expressz"/>
    <tag k="opening_hours" v="Mo-Fr 07:00-21:00; Sa 07:00-17:30; Su 08:00-15:00"/>
    <tag k="operator" v="SPAR Magyarország Kereskedelmi Kft."/>
    <tag k="payment:cash" v="yes"/>
    <tag k="payment:contactless" v="yes"/>
    <tag k="payment:debit_cards" v="yes"/>
    <tag k="payment:mastercard" v="yes"/>
    <tag k="phone" v="+36208237727"/>
    <tag k="shop" v="convenience"/>
    <tag k="source" v="website"/>
    <tag k="source:date" v="2018-07-18"/>
    <tag k="website" v="https://www.spar.hu/content/aspiag_spar_hu/hu_HU/uzletek/11/spar-exp-f-vari-ut-omv.html"/>
    <tag k="wheelchair" v="limited"/>
    <tag k="youtube" v="https://www.youtube.com/channel/UC9tu8COHiy4WkeTIN1k_Y8A"/>
  </way>
  <!-- Original coordinates: POINT (47.461479 19.052095) -->
  <!-- OSM <-> POI distance: None m-->
  <!-- Checker good: {not_in_water}; bad {}-->
  <!-- Original tags:  -->
  <node action="modify" changeset="99999" id="-14" lat="47.461479" lon="19.052095" timestamp="" uid="4579407" user="KAMI" version="99999">
    <tag k="addr:city" v="Budapest"/>
    <tag k="addr:country" v="HU"/>
    <tag k="addr:housenumber" v="111-113"/>
    <tag k="addr:postcode" v="1117"/>
    <tag k="addr:street" v="Budafoki utca"/>
    <tag k="branch" v="Spar express OMV Budapest"/>
    <tag k="brand" v="Spar"/>
    <tag k="brand:wikidata" v="Q610492"/>
    <tag k="brand:wikipedia" v="hu:Spar "/>
    <tag k="email" v="vevoszolgalat@spar.hu"/>
    <tag k="facebook" v="https://www.facebook.com/sparmagyarorszag"/>
    <tag k="import" v="osm_poi_matchmaker"/>
    <tag k="instagram" v="https://www.instagram.com/sparmagyarorszag"/>
    <tag k="name" v="Spar Expressz"/>
    <tag k="operator" v="SPAR Magyarország Kereskedelmi Kft."/>
    <tag k="payment:cash" v="yes"/>
    <tag k="payment:debit_cards" v="yes"/>
    <tag k="phone" v="+36208237727"/>
    <tag k="shop" v="convenience"/>
    <tag k="source" v="website"/>
    <tag k="source:date" v="2018-07-18"/>
    <tag k="website" v="https://www.spar.hu/content/aspiag_spar_hu/hu_HU/uzletek/11/spar-exp-budafoki-ut.html"/>
    <tag k="youtube" v="https://www.youtube.com/channel/UC9tu8COHiy4WkeTIN1k_Y8A"/>
  </node>
  <!-- Original coordinates: POINT (47.4867593 19.0242397) -->
  <!-- OSM <-> POI distance: None m-->
  <!-- Checker good: {not_in_water}; bad {}-->
  <!-- Original tags:  -->
  <node action="modify" changeset="99999" id="-15" lat="47.4867593" lon="19.0242397" timestamp="" uid="4579407" user="KAMI" version="99999">
    <tag k="addr:city" v="Budapest"/>
    <tag k="addr:country" v="HU"/>
    <tag k="addr:housenumber" v="1"/>
    <tag k="addr:postcode" v="1118"/>
    <tag k="addr:street" v="Budaörsi út"/>
    <tag k="branch" v="Spar express OMV Budapest"/>
    <tag k="brand" v="Spar"/>
    <tag k="brand:wikidata" v="Q610492"/>
    <tag k="brand:wikipedia" v="hu:Spar "/>
    <tag k="email" v="vevoszolgalat@spar.hu"/>
    <tag k="facebook" v="https://www.facebook.com/sparmagyarorszag"/>
    <tag k="import" v="osm_poi_matchmaker"/>
    <tag k="instagram" v="https://www.instagram.com/sparmagyarorszag"/>
    <tag k="name" v="Spar Expressz"/>
    <tag k="operator" v="SPAR Magyarország Kereskedelmi Kft."/>
    <tag k="payment:cash" v="yes"/>
    <tag k="payment:debit_cards" v="yes"/>
    <tag k="phone" v="+36208237727"/>
    <tag k="shop" v="convenience"/>
    <tag k="source" v="website"/>
    <tag k="source:date" v="2018-07-18"/>
    <tag k="website" v="https://www.spar.hu/content/aspiag_spar_hu/hu_HU/uzletek/11/spar-exp-bah-csp-omv.html"/>
    <tag k="youtube" v="https://www.youtube.com/channel/UC9tu8COHiy4WkeTIN1k_Y8A"/>
  </node>
  <!-- Original coordinates: POINT (47.5270563 19.075513) -->
  <!-- OSM <-> POI distance: None m-->
  <!-- Checker good: {not_in_water}; bad {}-->
  <!-- Original tags:  -->
  <node action="modify" changeset="99999" id="-16" lat="47.5270563" lon="19.075513" timestamp="" uid="4579407" user="KAMI" version="99999">
    <tag k="addr:city" v="Budapest"/>
    <tag k="addr:country" v="HU"/>
    <tag k="addr:housenumber" v="64-66"/>
    <tag k="addr:postcode" v="1135"/>
    <tag k="addr:street" v="Róbert Károly körút"/>
    <tag k="branch" v="Spar express OMV Budapest"/>
    <tag k="brand" v="Spar"/>
    <tag k="brand:wikidata" v="Q610492"/>
    <tag k="brand:wikipedia" v="hu:Spar "/>
    <tag k="email" v="vevoszolgalat@spar.hu"/>
    <tag k="facebook" v="https://www.facebook.com/sparmagyarorszag"/>
    <tag k="import" v="osm_poi_matchmaker"/>
    <tag k="instagram" v="https://www.instagram.com/sparmagyarorszag"/>
    <tag k="name" v="Spar Expressz"/>
    <tag k="operator" v="SPAR Magyarország Kereskedelmi Kft."/>
    <tag k="payment:cash" v="yes"/>
    <tag k="payment:debit_cards" v="yes"/>
    <tag k="phone" v="+36208237727"/>
    <tag k="shop" v="convenience"/>
    <tag k="source" v="website"/>
    <tag k="source:date" v="2018-07-18"/>
    <tag k="website" v="https://www.spar.hu/content/aspiag_spar_hu/hu_HU/uzletek/11/spar-exp-robert-k.html"/>
    <tag k="youtube" v="https://www.youtube.com/channel/UC9tu8COHiy4WkeTIN1k_Y8A"/>
  </node>
  <!-- Original coordinates: POINT (47.5390079 19.0699432) -->
  <!-- OSM <-> POI distance: None m-->
  <!-- Checker good: {not_in_water}; bad {}-->
  <!-- Original tags:  -->
  <node action="modify" changeset="99999" id="-17" lat="47.5390079" lon="19.0699432" timestamp="" uid="4579407" user="KAMI" version="99999">
    <tag k="addr:city" v="Budapest"/>
    <tag k="addr:country" v="HU"/>
    <tag k="addr:housenumber" v="95"/>
    <tag k="addr:postcode" v="1139"/>
    <tag k="addr:street" v="Váci út"/>
    <tag k="branch" v="Spar express OMV Budapest"/>
    <tag k="brand" v="Spar"/>
    <tag k="brand:wikidata" v="Q610492"/>
    <tag k="brand:wikipedia" v="hu:Spar "/>
    <tag k="email" v="vevoszolgalat@spar.hu"/>
    <tag k="facebook" v="https://www.facebook.com/sparmagyarorszag"/>
    <tag k="import" v="osm_poi_matchmaker"/>
    <tag k="instagram" v="https://www.instagram.com/sparmagyarorszag"/>
    <tag k="name" v="Spar Expressz"/>
    <tag k="operator" v="SPAR Magyarország Kereskedelmi Kft."/>
    <tag k="payment:cash" v="yes"/>
    <tag k="payment:debit_cards" v="yes"/>
    <tag k="phone" v="+36208237727"/>
    <tag k="shop" v="convenience"/>
    <tag k="source" v="website"/>
    <tag k="source:date" v="2018-07-18"/>
    <tag k="website" v="https://www.spar.hu/content/aspiag_spar_hu/hu_HU/uzletek/11/spar-exp-vaci-ut-omv.html"/>
    <tag k="youtube" v="https://www.youtube.com/channel/UC9tu8COHiy4WkeTIN1k_Y8A"/>
  </node>
  <!-- OSM link: https://osm.org/way/256936352 -->
  <!-- Original coordinates: POINT (47.50853 19.101894) -->
  <!-- OSM <-> POI distance: 0.0 m-->
  <!-- Checker good: {not_in_water}; bad {}-->
  <!-- Original tags: 'building':'commercial'; 'name':'SPAR express'; 'shop':'convenience'; 'wheelchair':'yes';  -->
  <way action="modify" changeset="1" id="256936352" timestamp="2014-09-10T15:12:25Z" uid="4579407" user="KAMI" version="3">
    <nd ref="2625570639"/>
    <nd ref="2625570625"/>
    <nd ref="2625570623"/>
    <nd ref="2625570632"/>
    <nd ref="2625570633"/>
    <nd ref="2625570635"/>
    <nd ref="2625570637"/>
    <nd ref="2625570639"/>
    <tag k="addr:city" v="Budapest"/>
    <tag k="addr:country" v="HU"/>
    <tag k="addr:housenumber" v="116"/>
    <tag k="addr:postcode" v="1143"/>
    <tag k="addr:street" v="Hungária  körút"/>
    <tag k="branch" v="Spar express OMV Budapest"/>
    <tag k="brand" v="Spar"/>
    <tag k="brand:wikidata" v="Q610492"/>
    <tag k="brand:wikipedia" v="hu:Spar "/>
    <tag k="building" v="commercial"/>
    <tag k="email" v="vevoszolgalat@spar.hu"/>
    <tag k="facebook" v="https://www.facebook.com/sparmagyarorszag"/>
    <tag k="import" v="osm_poi_matchmaker"/>
    <tag k="instagram" v="https://www.instagram.com/sparmagyarorszag"/>
    <tag k="name" v="Spar Expressz"/>
    <tag k="operator" v="SPAR Magyarország Kereskedelmi Kft."/>
    <tag k="payment:cash" v="yes"/>
    <tag k="payment:debit_cards" v="yes"/>
    <tag k="phone" v="+36208237727"/>
    <tag k="shop" v="convenience"/>
    <tag k="source" v="website"/>
    <tag k="source:date" v="2018-07-18"/>
    <tag k="website" v="https://www.spar.hu/content/aspiag_spar_hu/hu_HU/uzletek/11/spar-exp-hung-krt-omv.html"/>
    <tag k="wheelchair" v="yes"/>
    <tag k="youtube" v="https://www.youtube.com/channel/UC9tu8COHiy4WkeTIN1k_Y8A"/>
  </way>
  <!-- Original coordinates: POINT (47.5327743 19.1023526) -->
  <!-- OSM <-> POI distance: None m-->
  <!-- Checker good: {not_in_water}; bad {}-->
  <!-- Original tags:  -->
  <node action="modify" changeset="99999" id="-19" lat="47.5327743" lon="19.1023526" timestamp="" uid="4579407" user="KAMI" version="99999">
    <tag k="addr:city" v="Budapest"/>
    <tag k="addr:country" v="HU"/>
    <tag k="addr:housenumber" v="131"/>
    <tag k="addr:postcode" v="1142"/>
    <tag k="addr:street" v="Kacsóh Pongrác út"/>
    <tag k="branch" v="Spar express OMV Budapest"/>
    <tag k="brand" v="Spar"/>
    <tag k="brand:wikidata" v="Q610492"/>
    <tag k="brand:wikipedia" v="hu:Spar "/>
    <tag k="email" v="vevoszolgalat@spar.hu"/>
    <tag k="facebook" v="https://www.facebook.com/sparmagyarorszag"/>
    <tag k="import" v="osm_poi_matchmaker"/>
    <tag k="instagram" v="https://www.instagram.com/sparmagyarorszag"/>
    <tag k="name" v="Spar Expressz"/>
    <tag k="operator" v="SPAR Magyarország Kereskedelmi Kft."/>
    <tag k="payment:cash" v="yes"/>
    <tag k="payment:debit_cards" v="yes"/>
    <tag k="phone" v="+36208237727"/>
    <tag k="shop" v="convenience"/>
    <tag k="source" v="website"/>
    <tag k="source:date" v="2018-07-18"/>
    <tag k="website" v="https://www.spar.hu/content/aspiag_spar_hu/hu_HU/uzletek/11/spar-exp-kacsoh-p-omv.html"/>
    <tag k="youtube" v="https://www.youtube.com/channel/UC9tu8COHiy4WkeTIN1k_Y8A"/>
  </node>
  <!-- Original coordinates: POINT (47.5047833 19.1205336) -->
  <!-- OSM <-> POI distance: None m-->
  <!-- Checker good: {not_in_water}; bad {}-->
  <!-- Original tags:  -->
  <node action="modify" changeset="99999" id="-20" lat="47.5047833" lon="19.1205336" timestamp="" uid="4579407" user="KAMI" version="99999">
    <tag k="addr:city" v="Budapest"/>
    <tag k="addr:country" v="HU"/>
    <tag k="addr:housenumber" v="56/A"/>
    <tag k="addr:postcode" v="1149"/>
    <tag k="addr:street" v="Fogarasi út"/>
    <tag k="branch" v="Spar express OMV Budapest"/>
    <tag k="brand" v="Spar"/>
    <tag k="brand:wikidata" v="Q610492"/>
    <tag k="brand:wikipedia" v="hu:Spar "/>
    <tag k="email" v="vevoszolgalat@spar.hu"/>
    <tag k="facebook" v="https://www.facebook.com/sparmagyarorszag"/>
    <tag k="import" v="osm_poi_matchmaker"/>
    <tag k="instagram" v="https://www.instagram.com/sparmagyarorszag"/>
    <tag k="name" v="Spar Expressz"/>
    <tag k="operator" v="SPAR Magyarország Kereskedelmi Kft."/>
    <tag k="payment:cash" v="yes"/>
    <tag k="payment:debit_cards" v="yes"/>
    <tag k="phone" v="+36208237727"/>
    <tag k="shop" v="convenience"/>
    <tag k="source" v="website"/>
    <tag k="source:date" v="2018-07-18"/>
    <tag k="website" v="https://www.spar.hu/content/aspiag_spar_hu/hu_HU/uzletek/11/spar-exp-fogarasi-ut.html"/>
    <tag k="youtube" v="https://www.youtube.com/channel/UC9tu8COHiy4WkeTIN1k_Y8A"/>
  </node>
  <!-- OSM link: https://osm.org/way/120135964 -->
  <!-- Original coordinates: POINT (47.5605718 19.1209905) -->
  <!-- OSM <-> POI distance: 39.84054948 m-->
  <!-- Checker good: {not_in_water}; bad {}-->
  <!-- Original tags: 'building':'retail'; 'contact:website':'http://www.penny.hu'; 'name':'Penny Market'; 'shop':'supermarket'; 'website':'http://www.penny.hu'; 'wheelchair':'yes';  -->
  <way action="modify" changeset="1" id="120135964" timestamp="2017-12-25T16:16:04Z" uid="4579407" user="KAMI" version="5">
    <nd ref="1347735880"/>
    <nd ref="1347735846"/>
    <nd ref="1347735876"/>
    <nd ref="1347735874"/>
    <nd ref="2005164706"/>
    <nd ref="2005164705"/>
    <nd ref="1347735880"/>
    <tag k="addr:city" v="Budapest"/>
    <tag k="addr:country" v="HU"/>
    <tag k="addr:housenumber" v="1"/>
    <tag k="addr:postcode" v="1152"/>
    <tag k="addr:street" v="Széchenyi tér"/>
    <tag k="branch" v="Spar express OMV Budapest"/>
    <tag k="brand" v="Spar"/>
    <tag k="brand:wikidata" v="Q610492"/>
    <tag k="brand:wikipedia" v="hu:Spar "/>
    <tag k="building" v="retail"/>
    <tag k="contact:website" v="http://www.penny.hu"/>
    <tag k="email" v="vevoszolgalat@spar.hu"/>
    <tag k="facebook" v="https://www.facebook.com/sparmagyarorszag"/>
    <tag k="import" v="osm_poi_matchmaker"/>
    <tag k="instagram" v="https://www.instagram.com/sparmagyarorszag"/>
    <tag k="name" v="Spar Expressz"/>
    <tag k="operator" v="SPAR Magyarország Kereskedelmi Kft."/>
    <tag k="payment:cash" v="yes"/>
    <tag k="payment:debit_cards" v="yes"/>
    <tag k="phone" v="+36208237727"/>
    <tag k="shop" v="convenience"/>
    <tag k="source" v="website"/>
    <tag k="source:date" v="2018-07-18"/>
    <tag k="website" v="https://www.spar.hu/content/aspiag_spar_hu/hu_HU/uzletek/11/spar-exp-bp-szechenyi-ter.html"/>
    <tag k="wheelchair" v="yes"/>
    <tag k="youtube" v="https://www.youtube.com/channel/UC9tu8COHiy4WkeTIN1k_Y8A"/>
  </way>
  <!-- OSM link: https://osm.org/way/372441944 -->
  <!-- Original coordinates: POINT (47.551514 19.138835) -->
  <!-- OSM <-> POI distance: 597.24159845 m-->
  <!-- Checker good: {not_in_water}; bad {}-->
  <!-- Original tags: 'building':'retail'; 'contact:website':'http://www.spar.hu'; 'name':'SPAR'; 'shop':'supermarket'; 'source:geometry':'Interspect ortofotó 2014'; 'wheelchair':'yes';  -->
  <way action="modify" changeset="1" id="372441944" timestamp="2017-12-25T16:18:06Z" uid="4579407" user="KAMI" version="3">
    <nd ref="483598655"/>
    <nd ref="3760004843"/>
    <nd ref="3760004836"/>
    <nd ref="3760004831"/>
    <nd ref="483598655"/>
    <tag k="addr:city" v="Budapest"/>
    <tag k="addr:country" v="HU"/>
    <tag k="addr:housenumber" v="131"/>
    <tag k="addr:postcode" v="1152"/>
    <tag k="addr:street" v="Szentmihályi út"/>
    <tag k="branch" v="Spar express OMV Budapest"/>
    <tag k="brand" v="Spar"/>
    <tag k="brand:wikidata" v="Q610492"/>
    <tag k="brand:wikipedia" v="hu:Spar "/>
    <tag k="building" v="retail"/>
    <tag k="contact:website" v="http://www.spar.hu"/>
    <tag k="email" v="vevoszolgalat@spar.hu"/>
    <tag k="facebook" v="https://www.facebook.com/sparmagyarorszag"/>
    <tag k="import" v="osm_poi_matchmaker"/>
    <tag k="instagram" v="https://www.instagram.com/sparmagyarorszag"/>
    <tag k="name" v="Spar Expressz"/>
    <tag k="operator" v="SPAR Magyarország Kereskedelmi Kft."/>
    <tag k="payment:cash" v="yes"/>
    <tag k="payment:debit_cards" v="yes"/>
    <tag k="phone" v="+36208237727"/>
    <tag k="shop" v="convenience"/>
    <tag k="source" v="website"/>
    <tag k="source:date" v="2018-07-18"/>
    <tag k="source:geometry" v="Interspect ortofotó 2014"/>
    <tag k="website" v="https://www.spar.hu/content/aspiag_spar_hu/hu_HU/uzletek/11/spar-exp-szmih-ut-omv.html"/>
    <tag k="wheelchair" v="yes"/>
    <tag k="youtube" v="https://www.youtube.com/channel/UC9tu8COHiy4WkeTIN1k_Y8A"/>
  </way>
  <!-- Original coordinates: POINT (47.53493 19.18064) -->
  <!-- OSM <-> POI distance: None m-->
  <!-- Checker good: {not_in_water}; bad {}-->
  <!-- Original tags:  -->
  <node action="modify" changeset="99999" id="-23" lat="47.53493" lon="19.18064" timestamp="" uid="4579407" user="KAMI" version="99999">
    <tag k="addr:city" v="Budapest"/>
    <tag k="addr:country" v="HU"/>
    <tag k="addr:postcode" v="1162"/>
    <tag k="addr:street" v="Csömöri és Szlovák utca sarok"/>
    <tag k="branch" v="Spar express OMV Budapest"/>
    <tag k="brand" v="Spar"/>
    <tag k="brand:wikidata" v="Q610492"/>
    <tag k="brand:wikipedia" v="hu:Spar "/>
    <tag k="email" v="vevoszolgalat@spar.hu"/>
    <tag k="facebook" v="https://www.facebook.com/sparmagyarorszag"/>
    <tag k="import" v="osm_poi_matchmaker"/>
    <tag k="instagram" v="https://www.instagram.com/sparmagyarorszag"/>
    <tag k="name" v="Spar Expressz"/>
    <tag k="operator" v="SPAR Magyarország Kereskedelmi Kft."/>
    <tag k="payment:cash" v="yes"/>
    <tag k="payment:debit_cards" v="yes"/>
    <tag k="phone" v="+36208237727"/>
    <tag k="shop" v="convenience"/>
    <tag k="source" v="website"/>
    <tag k="source:date" v="2018-07-18"/>
    <tag k="website" v="https://www.spar.hu/content/aspiag_spar_hu/hu_HU/uzletek/11/spar-exp-csoemoeri.html"/>
    <tag k="youtube" v="https://www.youtube.com/channel/UC9tu8COHiy4WkeTIN1k_Y8A"/>
  </node>
  <!-- OSM link: https://osm.org/way/586897013 -->
  <!-- Original coordinates: POINT (47.4840875 19.2354205) -->
  <!-- OSM <-> POI distance: 23.5362497 m-->
  <!-- Checker good: {not_in_water}; bad {}-->
  <!-- Original tags: 'addr:city':'Budapest'; 'addr:country':'HU'; 'addr:housenumber':'18'; 'addr:postcode':'1173'; 'addr:street':'Pesti út'; 'amenity':'fuel'; 'brand':'OMV'; 'building':'retail'; 'car_wash':'yes'; 'opening_hours':'24/7'; 'operator':'OMV'; 'shop':'convenience';  -->
  <way action="modify" changeset="1" id="586897013" timestamp="2018-05-09T10:56:28Z" uid="4579407" user="KAMI" version="1">
    <nd ref="5606889059"/>
    <nd ref="5606889057"/>
    <nd ref="2006361221"/>
    <nd ref="2006361224"/>
    <nd ref="5606889059"/>
    <tag k="addr:city" v="Budapest"/>
    <tag k="addr:country" v="HU"/>
    <tag k="addr:housenumber" v="18"/>
    <tag k="addr:postcode" v="1173"/>
    <tag k="addr:street" v="Pesti út"/>
    <tag k="amenity" v="fuel"/>
    <tag k="branch" v="Spar express OMV Budapest"/>
    <tag k="brand" v="Spar"/>
    <tag k="brand:wikidata" v="Q610492"/>
    <tag k="brand:wikipedia" v="hu:Spar "/>
    <tag k="building" v="retail"/>
    <tag k="car_wash" v="yes"/>
    <tag k="email" v="vevoszolgalat@spar.hu"/>
    <tag k="facebook" v="https://www.facebook.com/sparmagyarorszag"/>
    <tag k="import" v="osm_poi_matchmaker"/>
    <tag k="instagram" v="https://www.instagram.com/sparmagyarorszag"/>
    <tag k="name" v="Spar Expressz"/>
    <tag k="opening_hours" v="24/7"/>
    <tag k="operator" v="SPAR Magyarország Kereskedelmi Kft."/>
    <tag k="payment:cash" v="yes"/>
    <tag k="payment:debit_cards" v="yes"/>
    <tag k="phone" v="+36208237727"/>
    <tag k="shop" v="convenience"/>
    <tag k="source" v="website"/>
    <tag k="source:date" v="2018-07-18"/>
    <tag k="website" v="https://www.spar.hu/content/aspiag_spar_hu/hu_HU/uzletek/11/spar-exp-pesti-ut-omv.html"/>
    <tag k="youtube" v="https://www.youtube.com/channel/UC9tu8COHiy4WkeTIN1k_Y8A"/>
  </way>
  <!-- OSM link: https://osm.org/way/323710322 -->
  <!-- Original coordinates: POINT (47.4459023 19.1901158) -->
  <!-- OSM <-> POI distance: 86.51771943 m-->
  <!-- Checker good: {not_in_water}; bad {}-->
  <!-- Original tags: 'addr:city':'Budapest'; 'building':'retail'; 'contact:website':'http://www.spar.hu'; 'name':'SPAR'; 'shop':'supermarket'; 'website':'http://www.spar.hu'; 'wheelchair':'yes';  -->
  <way action="modify" changeset="1" id="323710322" timestamp="2018-01-03T06:36:04Z" uid="4579407" user="KAMI" version="5">
    <nd ref="3304901446"/>
    <nd ref="3304901452"/>
    <nd ref="3304901450"/>
    <nd ref="3304901449"/>
    <nd ref="3304901448"/>
    <nd ref="3304901447"/>
    <nd ref="1084319777"/>
    <nd ref="3304901444"/>
    <nd ref="3304901443"/>
    <nd ref="3304901446"/>
    <tag k="addr:city" v="Budapest"/>
    <tag k="addr:country" v="HU"/>
    <tag k="addr:housenumber" v="39"/>
    <tag k="addr:postcode" v="1183"/>
    <tag k="addr:street" v="Haladás utca"/>
    <tag k="branch" v="Spar express OMV Budapest"/>
    <tag k="brand" v="Spar"/>
    <tag k="brand:wikidata" v="Q610492"/>
    <tag k="brand:wikipedia" v="hu:Spar "/>
    <tag k="building" v="retail"/>
    <tag k="contact:website" v="http://www.spar.hu"/>
    <tag k="email" v="vevoszolgalat@spar.hu"/>
    <tag k="facebook" v="https://www.facebook.com/sparmagyarorszag"/>
    <tag k="import" v="osm_poi_matchmaker"/>
    <tag k="instagram" v="https://www.instagram.com/sparmagyarorszag"/>
    <tag k="name" v="Spar Expressz"/>
    <tag k="operator" v="SPAR Magyarország Kereskedelmi Kft."/>
    <tag k="payment:cash" v="yes"/>
    <tag k="payment:debit_cards" v="yes"/>
    <tag k="phone" v="+36208237727"/>
    <tag k="shop" v="convenience"/>
    <tag k="source" v="website"/>
    <tag k="source:date" v="2018-07-18"/>
    <tag k="website" v="https://www.spar.hu/content/aspiag_spar_hu/hu_HU/uzletek/11/spar-exp-haladas-omv.html"/>
    <tag k="wheelchair" v="yes"/>
    <tag k="youtube" v="https://www.youtube.com/channel/UC9tu8COHiy4WkeTIN1k_Y8A"/>
  </way>
  <!-- OSM link: https://osm.org/way/40813408 -->
  <!-- Original coordinates: POINT (47.4168387 19.2074616) -->
  <!-- OSM <-> POI distance: 56.42420632 m-->
  <!-- Checker good: {not_in_water}; bad {}-->
  <!-- Original tags: 'building':'retail'; 'contact:website':'http://www.spar.hu'; 'name':'SPAR'; 'shop':'supermarket'; 'website':'http://www.spar.hu'; 'wheelchair':'yes';  -->
  <way action="modify" changeset="1" id="40813408" timestamp="2017-12-25T16:15:47Z" uid="4579407" user="KAMI" version="7">
    <nd ref="496234137"/>
    <nd ref="496234138"/>
    <nd ref="3132147732"/>
    <nd ref="615268161"/>
    <nd ref="496234139"/>
    <nd ref="496234142"/>
    <nd ref="496234137"/>
    <tag k="addr:city" v="Budapest"/>
    <tag k="addr:country" v="HU"/>
    <tag k="addr:housenumber" v="1"/>
    <tag k="addr:postcode" v="1188"/>
    <tag k="addr:street" v="Alacskai út"/>
    <tag k="branch" v="Spar express OMV Budapest"/>
    <tag k="brand" v="Spar"/>
    <tag k="brand:wikidata" v="Q610492"/>
    <tag k="brand:wikipedia" v="hu:Spar "/>
    <tag k="building" v="retail"/>
    <tag k="contact:website" v="http://www.spar.hu"/>
    <tag k="email" v="vevoszolgalat@spar.hu"/>
    <tag k="facebook" v="https://www.facebook.com/sparmagyarorszag"/>
    <tag k="import" v="osm_poi_matchmaker"/>
    <tag k="instagram" v="https://www.instagram.com/sparmagyarorszag"/>
    <tag k="name" v="Spar Expressz"/>
    <tag k="operator" v="SPAR Magyarország Kereskedelmi Kft."/>
    <tag k="payment:cash" v="yes"/>
    <tag k="payment:debit_cards" v="yes"/>
    <tag k="phone" v="+36208237727"/>
    <tag k="shop" v="convenience"/>
    <tag k="source" v="website"/>
    <tag k="source:date" v="2018-07-18"/>
    <tag k="website" v="https://www.spar.hu/content/aspiag_spar_hu/hu_HU/uzletek/11/spar-exp-alacska-omv.html"/>
    <tag k="wheelchair" v="yes"/>
    <tag k="youtube" v="https://www.youtube.com/channel/UC9tu8COHiy4WkeTIN1k_Y8A"/>
  </way>
  <!-- Original coordinates: POINT (47.4408156 19.134403) -->
  <!-- OSM <-> POI distance: None m-->
  <!-- Checker good: {not_in_water}; bad {}-->
  <!-- Original tags:  -->
  <node action="modify" changeset="99999" id="-27" lat="47.4408156" lon="19.134403" timestamp="" uid="4579407" user="KAMI" version="99999">
    <tag k="addr:city" v="Budapest"/>
    <tag k="addr:country" v="HU"/>
    <tag k="addr:housenumber" v="185"/>
    <tag k="addr:postcode" v="1202"/>
    <tag k="addr:street" v="Nagykőrösi út"/>
    <tag k="branch" v="Spar express OMV Budapest"/>
    <tag k="brand" v="Spar"/>
    <tag k="brand:wikidata" v="Q610492"/>
    <tag k="brand:wikipedia" v="hu:Spar "/>
    <tag k="email" v="vevoszolgalat@spar.hu"/>
    <tag k="facebook" v="https://www.facebook.com/sparmagyarorszag"/>
    <tag k="import" v="osm_poi_matchmaker"/>
    <tag k="instagram" v="https://www.instagram.com/sparmagyarorszag"/>
    <tag k="name" v="Spar Expressz"/>
    <tag k="operator" v="SPAR Magyarország Kereskedelmi Kft."/>
    <tag k="payment:cash" v="yes"/>
    <tag k="payment:debit_cards" v="yes"/>
    <tag k="phone" v="+36208237727"/>
    <tag k="shop" v="convenience"/>
    <tag k="source" v="website"/>
    <tag k="source:date" v="2018-07-18"/>
    <tag k="website" v="https://www.spar.hu/content/aspiag_spar_hu/hu_HU/uzletek/12/spar-exp-nagyk-omv.html"/>
    <tag k="youtube" v="https://www.youtube.com/channel/UC9tu8COHiy4WkeTIN1k_Y8A"/>
  </node>
  <!-- OSM link: https://osm.org/node/3995421197 -->
  <!-- Original coordinates: POINT (47.414734 19.0589308) -->
  <!-- OSM <-> POI distance: 116.18773332 m-->
  <!-- Checker good: {not_in_water}; bad {}-->
  <!-- Original tags: 'addr:city':'Budapest'; 'addr:housenumber':'189'; 'addr:postcode':'1214'; 'addr:street':'II. Rákóczi Ferenc út'; 'name':'SPAR express OMV'; 'opening_hours':'24/7'; 'operator':'SPAR Magyarország Kereskedelmi Korlátolt Felelősségű Társaság'; 'phone':'+36306889268'; 'shop':'supermarket'; 'website':'http://www.spar.hu/';  -->
  <node action="modify" changeset="1" id="3995421197" lat="47.4138738949145" lon="19.0580539973471" timestamp="2016-02-08T13:30:25Z" uid="4579407" user="KAMI" version="1">
    <tag k="addr:city" v="Budapest"/>
    <tag k="addr:country" v="HU"/>
    <tag k="addr:housenumber" v="189"/>
    <tag k="addr:postcode" v="1214"/>
    <tag k="addr:street" v="Rákóczi Ferenc utca"/>
    <tag k="branch" v="Spar express OMV Budapest"/>
    <tag k="brand" v="Spar"/>
    <tag k="brand:wikidata" v="Q610492"/>
    <tag k="brand:wikipedia" v="hu:Spar "/>
    <tag k="email" v="vevoszolgalat@spar.hu"/>
    <tag k="facebook" v="https://www.facebook.com/sparmagyarorszag"/>
    <tag k="import" v="osm_poi_matchmaker"/>
    <tag k="instagram" v="https://www.instagram.com/sparmagyarorszag"/>
    <tag k="name" v="Spar Expressz"/>
    <tag k="opening_hours" v="24/7"/>
    <tag k="operator" v="SPAR Magyarország Kereskedelmi Kft."/>
    <tag k="payment:cash" v="yes"/>
    <tag k="payment:debit_cards" v="yes"/>
    <tag k="phone" v="+36208237727"/>
    <tag k="shop" v="convenience"/>
    <tag k="source" v="website"/>
    <tag k="source:date" v="2018-07-18"/>
    <tag k="website" v="https://www.spar.hu/content/aspiag_spar_hu/hu_HU/uzletek/12/spar-exp-rakoczi-u-omv.html"/>
    <tag k="youtube" v="https://www.youtube.com/channel/UC9tu8COHiy4WkeTIN1k_Y8A"/>
  </node>
  <!-- OSM link: https://osm.org/node/3995421196 -->
  <!-- Original coordinates: POINT (47.436087 19.084468) -->
  <!-- OSM <-> POI distance: 30.68436153 m-->
  <!-- Checker good: {not_in_water}; bad {}-->
  <!-- Original tags: 'addr:city':'Budapest'; 'addr:housenumber':'47'; 'addr:postcode':'1215'; 'addr:street':'Védgát utca'; 'name':'SPAR express OMV'; 'opening_hours':'24/7'; 'operator':'SPAR Magyarország Kereskedelmi Korlátolt Felelősségű Társaság'; 'phone':'+36208237930'; 'shop':'supermarket'; 'website':'http://www.spar.hu/';  -->
  <node action="modify" changeset="1" id="3995421196" lat="47.4359160949136" lon="19.0841476973435" timestamp="2017-01-10T11:09:02Z" uid="4579407" user="KAMI" version="3">
    <tag k="addr:city" v="Budapest"/>
    <tag k="addr:country" v="HU"/>
    <tag k="addr:housenumber" v="47"/>
    <tag k="addr:postcode" v="1215"/>
    <tag k="addr:street" v="Védgát utca"/>
    <tag k="branch" v="Spar express OMV Budapest"/>
    <tag k="brand" v="Spar"/>
    <tag k="brand:wikidata" v="Q610492"/>
    <tag k="brand:wikipedia" v="hu:Spar "/>
    <tag k="email" v="vevoszolgalat@spar.hu"/>
    <tag k="facebook" v="https://www.facebook.com/sparmagyarorszag"/>
    <tag k="import" v="osm_poi_matchmaker"/>
    <tag k="instagram" v="https://www.instagram.com/sparmagyarorszag"/>
    <tag k="name" v="Spar Expressz"/>
    <tag k="opening_hours" v="24/7"/>
    <tag k="operator" v="SPAR Magyarország Kereskedelmi Kft."/>
    <tag k="payment:cash" v="yes"/>
    <tag k="payment:debit_cards" v="yes"/>
    <tag k="phone" v="+36208237727"/>
    <tag k="shop" v="convenience"/>
    <tag k="source" v="website"/>
    <tag k="source:date" v="2018-07-18"/>
    <tag k="website" v="https://www.spar.hu/content/aspiag_spar_hu/hu_HU/uzletek/12/spar-exp-vedgat-u.html"/>
    <tag k="youtube" v="https://www.youtube.com/channel/UC9tu8COHiy4WkeTIN1k_Y8A"/>
  </node>
  <!-- OSM link: https://osm.org/node/5326036803 -->
  <!-- Original coordinates: POINT (47.4236 19.159443) -->
  <!-- OSM <-> POI distance: 23.68905831 m-->
  <!-- Checker good: {not_in_water}; bad {}-->
  <!-- Original tags: 'name':'Spar express'; 'shop':'supermarket';  -->
  <node action="modify" changeset="1" id="5326036803" lat="47.4234399949141" lon="19.159650897333" timestamp="2018-01-08T17:03:24Z" uid="4579407" user="KAMI" version="2">
    <tag k="addr:city" v="Budapest"/>
    <tag k="addr:country" v="HU"/>
    <tag k="addr:housenumber" v="349"/>
    <tag k="addr:postcode" v="1238"/>
    <tag k="addr:street" v="Nagykőrösi út"/>
    <tag k="branch" v="Spar express OMV Budapest"/>
    <tag k="brand" v="Spar"/>
    <tag k="brand:wikidata" v="Q610492"/>
    <tag k="brand:wikipedia" v="hu:Spar "/>
    <tag k="email" v="vevoszolgalat@spar.hu"/>
    <tag k="facebook" v="https://www.facebook.com/sparmagyarorszag"/>
    <tag k="import" v="osm_poi_matchmaker"/>
    <tag k="instagram" v="https://www.instagram.com/sparmagyarorszag"/>
    <tag k="name" v="Spar Expressz"/>
    <tag k="operator" v="SPAR Magyarország Kereskedelmi Kft."/>
    <tag k="payment:cash" v="yes"/>
    <tag k="payment:debit_cards" v="yes"/>
    <tag k="phone" v="+36208237727"/>
    <tag k="shop" v="convenience"/>
    <tag k="source" v="website"/>
    <tag k="source:date" v="2018-07-18"/>
    <tag k="website" v="https://www.spar.hu/content/aspiag_spar_hu/hu_HU/uzletek/12/spar-exp-n-k_roesi-ut.html"/>
    <tag k="youtube" v="https://www.youtube.com/channel/UC9tu8COHiy4WkeTIN1k_Y8A"/>
  </node>
  <!-- OSM link: https://osm.org/node/4771754224 -->
  <!-- Original coordinates: POINT (47.641814 19.0674) -->
  <!-- OSM <-> POI distance: 9.17408232 m-->
  <!-- Checker good: {not_in_water}; bad {}-->
  <!-- Original tags: 'addr:city':'Szentendre'; 'addr:postcode':'2000'; 'addr:street':'11-es út  17km'; 'name':'Spar'; 'opening_hours':'24/7'; 'shop':'supermarket';  -->
  <node action="modify" changeset="1" id="4771754224" lat="47.6418339949049" lon="19.0672811973458" timestamp="2017-04-03T20:03:59Z" uid="4579407" user="KAMI" version="2">
    <tag k="addr:city" v="Szentendre"/>
    <tag k="addr:country" v="HU"/>
    <tag k="addr:housenumber" v="17"/>
    <tag k="addr:postcode" v="2000"/>
    <tag k="addr:street" v="11-es út"/>
    <tag k="branch" v="Spar express OMV Szentendre"/>
    <tag k="brand" v="Spar"/>
    <tag k="brand:wikidata" v="Q610492"/>
    <tag k="brand:wikipedia" v="hu:Spar "/>
    <tag k="email" v="vevoszolgalat@spar.hu"/>
    <tag k="facebook" v="https://www.facebook.com/sparmagyarorszag"/>
    <tag k="import" v="osm_poi_matchmaker"/>
    <tag k="instagram" v="https://www.instagram.com/sparmagyarorszag"/>
    <tag k="name" v="Spar Expressz"/>
    <tag k="opening_hours" v="24/7"/>
    <tag k="operator" v="SPAR Magyarország Kereskedelmi Kft."/>
    <tag k="payment:cash" v="yes"/>
    <tag k="payment:debit_cards" v="yes"/>
    <tag k="phone" v="+36208237727"/>
    <tag k="shop" v="convenience"/>
    <tag k="source" v="website"/>
    <tag k="source:date" v="2018-07-18"/>
    <tag k="website" v="https://www.spar.hu/content/aspiag_spar_hu/hu_HU/uzletek/20/spar-exp-szentendre.html"/>
    <tag k="youtube" v="https://www.youtube.com/channel/UC9tu8COHiy4WkeTIN1k_Y8A"/>
  </node>
  <!-- OSM link: https://osm.org/node/4337023760 -->
  <!-- Original coordinates: POINT (47.541014 18.723711) -->
  <!-- OSM <-> POI distance: 24.66617695 m-->
  <!-- Checker good: {not_in_water}; bad {}-->
  <!-- Original tags: 'name':'Spar express'; 'opening_hours':'24/7'; 'shop':'supermarket';  -->
  <node action="modify" changeset="1" id="4337023760" lat="47.5408458949091" lon="18.7234965973937" timestamp="2016-08-05T13:18:05Z" uid="4579407" user="KAMI" version="1">
    <tag k="addr:city" v="Zsámbék"/>
    <tag k="addr:country" v="HU"/>
    <tag k="addr:housenumber" v="578/A"/>
    <tag k="addr:postcode" v="2072"/>
    <tag k="addr:street" v="Herceghalmi út"/>
    <tag k="branch" v="Spar express OMV Zsámbék"/>
    <tag k="brand" v="Spar"/>
    <tag k="brand:wikidata" v="Q610492"/>
    <tag k="brand:wikipedia" v="hu:Spar "/>
    <tag k="email" v="vevoszolgalat@spar.hu"/>
    <tag k="facebook" v="https://www.facebook.com/sparmagyarorszag"/>
    <tag k="import" v="osm_poi_matchmaker"/>
    <tag k="instagram" v="https://www.instagram.com/sparmagyarorszag"/>
    <tag k="name" v="Spar Expressz"/>
    <tag k="opening_hours" v="24/7"/>
    <tag k="operator" v="SPAR Magyarország Kereskedelmi Kft."/>
    <tag k="payment:cash" v="yes"/>
    <tag k="payment:debit_cards" v="yes"/>
    <tag k="phone" v="+36208237727"/>
    <tag k="shop" v="convenience"/>
    <tag k="source" v="website"/>
    <tag k="source:date" v="2018-07-18"/>
    <tag k="website" v="https://www.spar.hu/content/aspiag_spar_hu/hu_HU/uzletek/20/spar-exp-zsambek.html"/>
    <tag k="youtube" v="https://www.youtube.com/channel/UC9tu8COHiy4WkeTIN1k_Y8A"/>
  </node>
  <!-- Original coordinates: POINT (47.584936 18.99847) -->
  <!-- OSM <-> POI distance: None m-->
  <!-- Checker good: {not_in_water}; bad {}-->
  <!-- Original tags:  -->
  <node action="modify" changeset="99999" id="-33" lat="47.584936" lon="18.99847" timestamp="" uid="4579407" user="KAMI" version="99999">
    <tag k="addr:city" v="Üröm"/>
    <tag k="addr:country" v="HU"/>
    <tag k="addr:housenumber" v="2"/>
    <tag k="addr:postcode" v="2096"/>
    <tag k="addr:street" v="Bécsi út"/>
    <tag k="branch" v="Spar express OMV Üröm"/>
    <tag k="brand" v="Spar"/>
    <tag k="brand:wikidata" v="Q610492"/>
    <tag k="brand:wikipedia" v="hu:Spar "/>
    <tag k="email" v="vevoszolgalat@spar.hu"/>
    <tag k="facebook" v="https://www.facebook.com/sparmagyarorszag"/>
    <tag k="import" v="osm_poi_matchmaker"/>
    <tag k="instagram" v="https://www.instagram.com/sparmagyarorszag"/>
    <tag k="name" v="Spar Expressz"/>
    <tag k="operator" v="SPAR Magyarország Kereskedelmi Kft."/>
    <tag k="payment:cash" v="yes"/>
    <tag k="payment:debit_cards" v="yes"/>
    <tag k="phone" v="+36208237727"/>
    <tag k="shop" v="convenience"/>
    <tag k="source" v="website"/>
    <tag k="source:date" v="2018-07-18"/>
    <tag k="website" v="https://www.spar.hu/content/aspiag_spar_hu/hu_HU/uzletek/20/spar-exp-ueroem.html"/>
    <tag k="youtube" v="https://www.youtube.com/channel/UC9tu8COHiy4WkeTIN1k_Y8A"/>
  </node>
  <!-- OSM link: https://osm.org/node/2594303412 -->
  <!-- Original coordinates: POINT (47.616688 19.197648) -->
  <!-- OSM <-> POI distance: 25.74094248 m-->
  <!-- Checker good: {not_in_water}; bad {}-->
  <!-- Original tags: 'contact:website':'http://www.spar.hu'; 'name':'SPAR'; 'shop':'convenience'; 'toilets:wheelchair':'yes'; 'website':'http://www.spar.hu'; 'wheelchair':'yes';  -->
  <node action="modify" changeset="1" id="2594303412" lat="47.6164594949059" lon="19.1975929973277" timestamp="2017-09-18T12:59:55Z" uid="4579407" user="KAMI" version="3">
    <tag k="addr:city" v="Fót"/>
    <tag k="addr:country" v="HU"/>
    <tag k="addr:housenumber" v="2/B"/>
    <tag k="addr:postcode" v="2151"/>
    <tag k="addr:street" v="Szabó Dezső út"/>
    <tag k="branch" v="Spar express OMV Budapest"/>
    <tag k="brand" v="Spar"/>
    <tag k="brand:wikidata" v="Q610492"/>
    <tag k="brand:wikipedia" v="hu:Spar "/>
    <tag k="contact:website" v="http://www.spar.hu"/>
    <tag k="email" v="vevoszolgalat@spar.hu"/>
    <tag k="facebook" v="https://www.facebook.com/sparmagyarorszag"/>
    <tag k="import" v="osm_poi_matchmaker"/>
    <tag k="instagram" v="https://www.instagram.com/sparmagyarorszag"/>
    <tag k="name" v="Spar Expressz"/>
    <tag k="operator" v="SPAR Magyarország Kereskedelmi Kft."/>
    <tag k="payment:cash" v="yes"/>
    <tag k="payment:debit_cards" v="yes"/>
    <tag k="phone" v="+36208237727"/>
    <tag k="shop" v="convenience"/>
    <tag k="source" v="website"/>
    <tag k="source:date" v="2018-07-18"/>
    <tag k="toilets:wheelchair" v="yes"/>
    <tag k="website" v="https://www.spar.hu/content/aspiag_spar_hu/hu_HU/uzletek/21/spar-exp-fot-omv.html"/>
    <tag k="wheelchair" v="yes"/>
    <tag k="youtube" v="https://www.youtube.com/channel/UC9tu8COHiy4WkeTIN1k_Y8A"/>
  </node>
  <!-- OSM link: https://osm.org/node/5350685445 -->
  <!-- Original coordinates: POINT (47.3992422311 19.2482949793) -->
  <!-- OSM <-> POI distance: 15.89815539 m-->
  <!-- Checker good: {not_in_water}; bad {}-->
  <!-- Original tags: 'addr:city':'Vecsés'; 'addr:housenumber':'20-22'; 'addr:postcode':'2220'; 'addr:street':'Gyáli út'; 'name':'Spar Express'; 'opening_hours':'24/7'; 'shop':'supermarket';  -->
  <node action="modify" changeset="1" id="5350685445" lat="47.3991340949151" lon="19.2481567973206" timestamp="2018-01-20T08:59:38Z" uid="4579407" user="KAMI" version="1">
    <tag k="addr:city" v="Vecsés"/>
    <tag k="addr:country" v="HU"/>
    <tag k="addr:housenumber" v="20-22"/>
    <tag k="addr:postcode" v="2220"/>
    <tag k="addr:street" v="Gyáli út"/>
    <tag k="branch" v="Spar express OMV Vecsés"/>
    <tag k="brand" v="Spar"/>
    <tag k="brand:wikidata" v="Q610492"/>
    <tag k="brand:wikipedia" v="hu:Spar "/>
    <tag k="email" v="vevoszolgalat@spar.hu"/>
    <tag k="facebook" v="https://www.facebook.com/sparmagyarorszag"/>
    <tag k="import" v="osm_poi_matchmaker"/>
    <tag k="instagram" v="https://www.instagram.com/sparmagyarorszag"/>
    <tag k="name" v="Spar Expressz"/>
    <tag k="opening_hours" v="24/7"/>
    <tag k="operator" v="SPAR Magyarország Kereskedelmi Kft."/>
    <tag k="payment:cash" v="yes"/>
    <tag k="payment:debit_cards" v="yes"/>
    <tag k="phone" v="+36208237727"/>
    <tag k="shop" v="convenience"/>
    <tag k="source" v="website"/>
    <tag k="source:date" v="2018-07-18"/>
    <tag k="website" v="https://www.spar.hu/content/aspiag_spar_hu/hu_HU/uzletek/22/spar-exp-vecses-omv.html"/>
    <tag k="youtube" v="https://www.youtube.com/channel/UC9tu8COHiy4WkeTIN1k_Y8A"/>
  </node>
  <!-- Original coordinates: POINT (47.3796 19.0528) -->
  <!-- OSM <-> POI distance: None m-->
  <!-- Checker good: {not_in_water}; bad {}-->
  <!-- Original tags:  -->
  <node action="modify" changeset="99999" id="-36" lat="47.3796" lon="19.0528" timestamp="" uid="4579407" user="KAMI" version="99999">
    <tag k="addr:city" v="Szigetszentmiklós"/>
    <tag k="addr:country" v="HU"/>
    <tag k="addr:postcode" v="2310"/>
    <tag k="branch" v="Spar express OMV Szigetszentmiklós"/>
    <tag k="brand" v="Spar"/>
    <tag k="brand:wikidata" v="Q610492"/>
    <tag k="brand:wikipedia" v="hu:Spar "/>
    <tag k="email" v="vevoszolgalat@spar.hu"/>
    <tag k="facebook" v="https://www.facebook.com/sparmagyarorszag"/>
    <tag k="import" v="osm_poi_matchmaker"/>
    <tag k="instagram" v="https://www.instagram.com/sparmagyarorszag"/>
    <tag k="name" v="Spar Expressz"/>
    <tag k="operator" v="SPAR Magyarország Kereskedelmi Kft."/>
    <tag k="payment:cash" v="yes"/>
    <tag k="payment:debit_cards" v="yes"/>
    <tag k="phone" v="+36208237727"/>
    <tag k="shop" v="convenience"/>
    <tag k="source" v="website"/>
    <tag k="source:date" v="2018-07-18"/>
    <tag k="website" v="https://www.spar.hu/content/aspiag_spar_hu/hu_HU/uzletek/23/spar-exp-sz-miklos.html"/>
    <tag k="youtube" v="https://www.youtube.com/channel/UC9tu8COHiy4WkeTIN1k_Y8A"/>
  </node>
  <!-- Original coordinates: POINT (47.3536817 19.0970722) -->
  <!-- OSM <-> POI distance: None m-->
  <!-- Checker good: {not_in_water}; bad {}-->
  <!-- Original tags:  -->
  <node action="modify" changeset="99999" id="-37" lat="47.3536817" lon="19.0970722" timestamp="" uid="4579407" user="KAMI" version="99999">
    <tag k="addr:city" v="Dunaharaszti"/>
    <tag k="addr:country" v="HU"/>
    <tag k="addr:postcode" v="2330"/>
    <tag k="addr:street" v="51. számú - Némedi út sarok"/>
    <tag k="branch" v="Spar express OMV Dunaharaszti"/>
    <tag k="brand" v="Spar"/>
    <tag k="brand:wikidata" v="Q610492"/>
    <tag k="brand:wikipedia" v="hu:Spar "/>
    <tag k="email" v="vevoszolgalat@spar.hu"/>
    <tag k="facebook" v="https://www.facebook.com/sparmagyarorszag"/>
    <tag k="import" v="osm_poi_matchmaker"/>
    <tag k="instagram" v="https://www.instagram.com/sparmagyarorszag"/>
    <tag k="name" v="Spar Expressz"/>
    <tag k="operator" v="SPAR Magyarország Kereskedelmi Kft."/>
    <tag k="payment:cash" v="yes"/>
    <tag k="payment:debit_cards" v="yes"/>
    <tag k="phone" v="+36208237727"/>
    <tag k="shop" v="convenience"/>
    <tag k="source" v="website"/>
    <tag k="source:date" v="2018-07-18"/>
    <tag k="website" v="https://www.spar.hu/content/aspiag_spar_hu/hu_HU/uzletek/23/spar-exp-dunaharaszti.html"/>
    <tag k="youtube" v="https://www.youtube.com/channel/UC9tu8COHiy4WkeTIN1k_Y8A"/>
  </node>
  <!-- Original coordinates: POINT (47.30212 19.17968) -->
  <!-- OSM <-> POI distance: None m-->
  <!-- Checker good: {not_in_water}; bad {}-->
  <!-- Original tags:  -->
  <node action="modify" changeset="99999" id="-38" lat="47.30212" lon="19.17968" timestamp="" uid="4579407" user="KAMI" version="99999">
    <tag k="addr:city" v="Alsónémedi"/>
    <tag k="addr:conscriptionnumber" v="2553"/>
    <tag k="addr:country" v="HU"/>
    <tag k="addr:postcode" v="2351"/>
    <tag k="addr:street" v="5. számú főút"/>
    <tag k="branch" v="Spar express OMV Alsónémedi"/>
    <tag k="brand" v="Spar"/>
    <tag k="brand:wikidata" v="Q610492"/>
    <tag k="brand:wikipedia" v="hu:Spar "/>
    <tag k="email" v="vevoszolgalat@spar.hu"/>
    <tag k="facebook" v="https://www.facebook.com/sparmagyarorszag"/>
    <tag k="import" v="osm_poi_matchmaker"/>
    <tag k="instagram" v="https://www.instagram.com/sparmagyarorszag"/>
    <tag k="name" v="Spar Expressz"/>
    <tag k="operator" v="SPAR Magyarország Kereskedelmi Kft."/>
    <tag k="payment:cash" v="yes"/>
    <tag k="payment:debit_cards" v="yes"/>
    <tag k="phone" v="+36208237727"/>
    <tag k="shop" v="convenience"/>
    <tag k="source" v="website"/>
    <tag k="source:date" v="2018-07-18"/>
    <tag k="website" v="https://www.spar.hu/content/aspiag_spar_hu/hu_HU/uzletek/23/spar-exp-alsonemedi.html"/>
    <tag k="youtube" v="https://www.youtube.com/channel/UC9tu8COHiy4WkeTIN1k_Y8A"/>
  </node>
  <!-- Original coordinates: POINT (46.9669211954 18.9363084733) -->
  <!-- OSM <-> POI distance: None m-->
  <!-- Checker good: {not_in_water}; bad {}-->
  <!-- Original tags:  -->
  <node action="modify" changeset="99999" id="-39" lat="46.9669211954" lon="18.9363084733" timestamp="" uid="4579407" user="KAMI" version="99999">
    <tag k="addr:city" v="Dunaújváros"/>
    <tag k="addr:country" v="HU"/>
    <tag k="addr:postcode" v="2400"/>
    <tag k="addr:street" v="Aranyvölgyi utca"/>
    <tag k="branch" v="Spar express OMV Dunaújváros"/>
    <tag k="brand" v="Spar"/>
    <tag k="brand:wikidata" v="Q610492"/>
    <tag k="brand:wikipedia" v="hu:Spar "/>
    <tag k="email" v="vevoszolgalat@spar.hu"/>
    <tag k="facebook" v="https://www.facebook.com/sparmagyarorszag"/>
    <tag k="import" v="osm_poi_matchmaker"/>
    <tag k="instagram" v="https://www.instagram.com/sparmagyarorszag"/>
    <tag k="name" v="Spar Expressz"/>
    <tag k="operator" v="SPAR Magyarország Kereskedelmi Kft."/>
    <tag k="payment:cash" v="yes"/>
    <tag k="payment:debit_cards" v="yes"/>
    <tag k="phone" v="+36208237727"/>
    <tag k="shop" v="convenience"/>
    <tag k="source" v="website"/>
    <tag k="source:date" v="2018-07-18"/>
    <tag k="website" v="https://www.spar.hu/content/aspiag_spar_hu/hu_HU/uzletek/24/spar-exp-dujvaros-omv.html"/>
    <tag k="youtube" v="https://www.youtube.com/channel/UC9tu8COHiy4WkeTIN1k_Y8A"/>
  </node>
  <!-- OSM link: https://osm.org/way/78220327 -->
  <!-- Original coordinates: POINT (47.764058 19.1408) -->
  <!-- OSM <-> POI distance: 512.00310356 m-->
  <!-- Checker good: {not_in_water}; bad {}-->
  <!-- Original tags: 'building':'retail'; 'contact:website':'http://www.spar.hu'; 'name':'SPAR'; 'opening_hours':'Mo-Fr 07:00-21:00; Sa-Su 07:00-18:00'; 'shop':'supermarket'; 'source':'survey'; 'website':'http://www.spar.hu'; 'wheelchair':'yes';  -->
  <way action="modify" changeset="1" id="78220327" timestamp="2017-12-25T16:15:51Z" uid="4579407" user="KAMI" version="6">
    <nd ref="918711770"/>
    <nd ref="918712848"/>
    <nd ref="918710330"/>
    <nd ref="918712448"/>
    <nd ref="918711615"/>
    <nd ref="918709658"/>
    <nd ref="918711770"/>
    <tag k="addr:city" v="Vác"/>
    <tag k="addr:country" v="HU"/>
    <tag k="addr:housenumber" v="1"/>
    <tag k="addr:postcode" v="2600"/>
    <tag k="addr:street" v="Gödöllői út"/>
    <tag k="branch" v="Spar express OMV Vác"/>
    <tag k="brand" v="Spar"/>
    <tag k="brand:wikidata" v="Q610492"/>
    <tag k="brand:wikipedia" v="hu:Spar "/>
    <tag k="building" v="retail"/>
    <tag k="contact:website" v="http://www.spar.hu"/>
    <tag k="email" v="vevoszolgalat@spar.hu"/>
    <tag k="facebook" v="https://www.facebook.com/sparmagyarorszag"/>
    <tag k="import" v="osm_poi_matchmaker"/>
    <tag k="instagram" v="https://www.instagram.com/sparmagyarorszag"/>
    <tag k="name" v="Spar Expressz"/>
    <tag k="opening_hours" v="Mo-Fr 07:00-21:00; Sa-Su 07:00-18:00"/>
    <tag k="operator" v="SPAR Magyarország Kereskedelmi Kft."/>
    <tag k="payment:cash" v="yes"/>
    <tag k="payment:debit_cards" v="yes"/>
    <tag k="phone" v="+36208237727"/>
    <tag k="shop" v="convenience"/>
    <tag k="source" v="website"/>
    <tag k="source:date" v="2018-07-18"/>
    <tag k="website" v="https://www.spar.hu/content/aspiag_spar_hu/hu_HU/uzletek/26/spar-express-omv-vac-6717110-.html"/>
    <tag k="wheelchair" v="yes"/>
    <tag k="youtube" v="https://www.youtube.com/channel/UC9tu8COHiy4WkeTIN1k_Y8A"/>
  </way>
  <!-- OSM link: https://osm.org/way/103323647 -->
  <!-- Original coordinates: POINT (47.5560605 18.4204121) -->
  <!-- OSM <-> POI distance: 579.06827216 m-->
  <!-- Checker good: {not_in_water}; bad {}-->
  <!-- Original tags: 'addr:postcode':'2800'; 'building':'retail'; 'contact:website':'http://www.spar.hu'; 'name':'SPAR'; 'shop':'supermarket'; 'toilets:wheelchair':'no'; 'website':'http://www.spar.hu'; 'wheelchair':'limited';  -->
  <way action="modify" changeset="1" id="103323647" timestamp="2018-03-29T15:13:58Z" uid="4579407" user="KAMI" version="6">
    <nd ref="1193217226"/>
    <nd ref="1193217327"/>
    <nd ref="1193217188"/>
    <nd ref="1193217344"/>
    <nd ref="1193217226"/>
    <tag k="addr:city" v="Tatabánya"/>
    <tag k="addr:country" v="HU"/>
    <tag k="addr:housenumber" v="4"/>
    <tag k="addr:postcode" v="2800"/>
    <tag k="addr:street" v="Károlyi út-Ságvári út"/>
    <tag k="branch" v="Spar express OMV Tatabánya"/>
    <tag k="brand" v="Spar"/>
    <tag k="brand:wikidata" v="Q610492"/>
    <tag k="brand:wikipedia" v="hu:Spar "/>
    <tag k="building" v="retail"/>
    <tag k="contact:website" v="http://www.spar.hu"/>
    <tag k="email" v="vevoszolgalat@spar.hu"/>
    <tag k="facebook" v="https://www.facebook.com/sparmagyarorszag"/>
    <tag k="import" v="osm_poi_matchmaker"/>
    <tag k="instagram" v="https://www.instagram.com/sparmagyarorszag"/>
    <tag k="name" v="Spar Expressz"/>
    <tag k="operator" v="SPAR Magyarország Kereskedelmi Kft."/>
    <tag k="payment:cash" v="yes"/>
    <tag k="payment:debit_cards" v="yes"/>
    <tag k="phone" v="+36208237727"/>
    <tag k="shop" v="convenience"/>
    <tag k="source" v="website"/>
    <tag k="source:date" v="2018-07-18"/>
    <tag k="toilets:wheelchair" v="no"/>
    <tag k="website" v="https://www.spar.hu/content/aspiag_spar_hu/hu_HU/uzletek/28/spar-exp-tatabanya.html"/>
    <tag k="wheelchair" v="limited"/>
    <tag k="youtube" v="https://www.youtube.com/channel/UC9tu8COHiy4WkeTIN1k_Y8A"/>
  </way>
  <!-- OSM link: https://osm.org/node/4939279268 -->
  <!-- Original coordinates: POINT (47.890619 20.3790417) -->
  <!-- OSM <-> POI distance: 53.67346729 m-->
  <!-- Checker good: {not_in_water}; bad {}-->
  <!-- Original tags: 'fixme':'verify'; 'name':'Omw-Spar Express'; 'shop':'convenience'; 'source':'route4u';  -->
  <node action="modify" changeset="1" id="4939279268" lat="47.8902159948947" lon="20.3786454971633" timestamp="2017-08-07T22:06:55Z" uid="4579407" user="KAMI" version="2">
    <tag k="addr:city" v="Eger"/>
    <tag k="addr:country" v="HU"/>
    <tag k="addr:housenumber" v="2"/>
    <tag k="addr:postcode" v="3300"/>
    <tag k="addr:street" v="Mátyás király utca"/>
    <tag k="branch" v="Spar express OMV Eger"/>
    <tag k="brand" v="Spar"/>
    <tag k="brand:wikidata" v="Q610492"/>
    <tag k="brand:wikipedia" v="hu:Spar "/>
    <tag k="email" v="vevoszolgalat@spar.hu"/>
    <tag k="facebook" v="https://www.facebook.com/sparmagyarorszag"/>
    <tag k="fixme" v="verify"/>
    <tag k="import" v="osm_poi_matchmaker"/>
    <tag k="instagram" v="https://www.instagram.com/sparmagyarorszag"/>
    <tag k="name" v="Spar Expressz"/>
    <tag k="operator" v="SPAR Magyarország Kereskedelmi Kft."/>
    <tag k="payment:cash" v="yes"/>
    <tag k="payment:debit_cards" v="yes"/>
    <tag k="phone" v="+36208237727"/>
    <tag k="shop" v="convenience"/>
    <tag k="source" v="website"/>
    <tag k="source:date" v="2018-07-18"/>
    <tag k="website" v="https://www.spar.hu/content/aspiag_spar_hu/hu_HU/uzletek/33/spar-exp-eger-matyas.html"/>
    <tag k="youtube" v="https://www.youtube.com/channel/UC9tu8COHiy4WkeTIN1k_Y8A"/>
  </node>
  <!-- OSM link: https://osm.org/node/3220867630 -->
  <!-- Original coordinates: POINT (48.105664 20.789879) -->
  <!-- OSM <-> POI distance: 274.39680952 m-->
  <!-- Checker good: {not_in_water}; bad {}-->
  <!-- Original tags: 'addr:city':'Miskolc'; 'addr:housenumber':'111'; 'addr:postcode':'3525'; 'addr:street':'Széchenyi István út'; 'contact:website':'http://www.spar.hu'; 'name':'SPAR'; 'opening_hours':'Mo-Fr 06:30-21:00;Sa 06:30-17:00;Su 08:00-13:00'; 'operator':'Spar magyarország'; 'ref':'8268'; 'shop':'supermarket'; 'website':'http://www.spar.hu'; 'wheelchair':'yes';  -->
  <node action="modify" changeset="1" id="3220867630" lat="48.1031979948861" lon="20.790016197106" timestamp="2015-11-20T21:39:54Z" uid="4579407" user="KAMI" version="4">
    <tag k="addr:city" v="Miskolc"/>
    <tag k="addr:country" v="HU"/>
    <tag k="addr:housenumber" v="16"/>
    <tag k="addr:postcode" v="3525"/>
    <tag k="addr:street" v="Búza tér"/>
    <tag k="branch" v="Spar express OMV Miskolc"/>
    <tag k="brand" v="Spar"/>
    <tag k="brand:wikidata" v="Q610492"/>
    <tag k="brand:wikipedia" v="hu:Spar "/>
    <tag k="contact:website" v="http://www.spar.hu"/>
    <tag k="email" v="vevoszolgalat@spar.hu"/>
    <tag k="facebook" v="https://www.facebook.com/sparmagyarorszag"/>
    <tag k="import" v="osm_poi_matchmaker"/>
    <tag k="instagram" v="https://www.instagram.com/sparmagyarorszag"/>
    <tag k="name" v="Spar Expressz"/>
    <tag k="opening_hours" v="Mo-Fr 06:30-21:00;Sa 06:30-17:00;Su 08:00-13:00"/>
    <tag k="operator" v="SPAR Magyarország Kereskedelmi Kft."/>
    <tag k="payment:cash" v="yes"/>
    <tag k="payment:debit_cards" v="yes"/>
    <tag k="phone" v="+36208237727"/>
    <tag k="ref" v="8268"/>
    <tag k="shop" v="convenience"/>
    <tag k="source" v="website"/>
    <tag k="source:date" v="2018-07-18"/>
    <tag k="website" v="https://www.spar.hu/content/aspiag_spar_hu/hu_HU/uzletek/35/spar-exp-miskolc.html"/>
    <tag k="wheelchair" v="yes"/>
    <tag k="youtube" v="https://www.youtube.com/channel/UC9tu8COHiy4WkeTIN1k_Y8A"/>
  </node>
  <!-- OSM link: https://osm.org/node/4692486089 -->
  <!-- Original coordinates: POINT (48.083609 20.78413) -->
  <!-- OSM <-> POI distance: 55.0679291 m-->
  <!-- Checker good: {not_in_water}; bad {}-->
  <!-- Original tags: 'name':'Spar express'; 'name:hu':'Spar express'; 'shop':'supermarket';  -->
  <node action="modify" changeset="1" id="4692486089" lat="48.0832770948869" lon="20.7846801971067" timestamp="2017-02-18T17:34:26Z" uid="4579407" user="KAMI" version="1">
    <tag k="addr:city" v="Miskolc"/>
    <tag k="addr:country" v="HU"/>
    <tag k="addr:housenumber" v="2/A"/>
    <tag k="addr:postcode" v="3529"/>
    <tag k="addr:street" v="Testvérvárosok útja"/>
    <tag k="branch" v="Spar express OMV Miskolc"/>
    <tag k="brand" v="Spar"/>
    <tag k="brand:wikidata" v="Q610492"/>
    <tag k="brand:wikipedia" v="hu:Spar "/>
    <tag k="email" v="vevoszolgalat@spar.hu"/>
    <tag k="facebook" v="https://www.facebook.com/sparmagyarorszag"/>
    <tag k="import" v="osm_poi_matchmaker"/>
    <tag k="instagram" v="https://www.instagram.com/sparmagyarorszag"/>
    <tag k="name" v="Spar Expressz"/>
    <tag k="name:hu" v="Spar express"/>
    <tag k="operator" v="SPAR Magyarország Kereskedelmi Kft."/>
    <tag k="payment:cash" v="yes"/>
    <tag k="payment:debit_cards" v="yes"/>
    <tag k="phone" v="+36208237727"/>
    <tag k="shop" v="convenience"/>
    <tag k="source" v="website"/>
    <tag k="source:date" v="2018-07-18"/>
    <tag k="website" v="https://www.spar.hu/content/aspiag_spar_hu/hu_HU/uzletek/35/spar-exp-miskolc-omv.html"/>
    <tag k="youtube" v="https://www.youtube.com/channel/UC9tu8COHiy4WkeTIN1k_Y8A"/>
  </node>
  <!-- Original coordinates: POINT (48.099723 20.70297) -->
  <!-- OSM <-> POI distance: None m-->
  <!-- Checker good: {not_in_water}; bad {}-->
  <!-- Original tags:  -->
  <node action="modify" changeset="99999" id="-45" lat="48.099723" lon="20.70297" timestamp="" uid="4579407" user="KAMI" version="99999">
    <tag k="addr:city" v="Miskolc"/>
    <tag k="addr:country" v="HU"/>
    <tag k="addr:postcode" v="3534"/>
    <tag k="addr:street" v="Kiss Tábornok - Kandó Kálmán utca sarok"/>
    <tag k="branch" v="Spar express OMV Miskolc"/>
    <tag k="brand" v="Spar"/>
    <tag k="brand:wikidata" v="Q610492"/>
    <tag k="brand:wikipedia" v="hu:Spar "/>
    <tag k="email" v="vevoszolgalat@spar.hu"/>
    <tag k="facebook" v="https://www.facebook.com/sparmagyarorszag"/>
    <tag k="import" v="osm_poi_matchmaker"/>
    <tag k="instagram" v="https://www.instagram.com/sparmagyarorszag"/>
    <tag k="name" v="Spar Expressz"/>
    <tag k="operator" v="SPAR Magyarország Kereskedelmi Kft."/>
    <tag k="payment:cash" v="yes"/>
    <tag k="payment:debit_cards" v="yes"/>
    <tag k="phone" v="+36208237727"/>
    <tag k="shop" v="convenience"/>
    <tag k="source" v="website"/>
    <tag k="source:date" v="2018-07-18"/>
    <tag k="website" v="https://www.spar.hu/content/aspiag_spar_hu/hu_HU/uzletek/35/spar-exp-miskolc0.html"/>
    <tag k="youtube" v="https://www.youtube.com/channel/UC9tu8COHiy4WkeTIN1k_Y8A"/>
  </node>
  <!-- OSM link: https://osm.org/node/1944079233 -->
  <!-- Original coordinates: POINT (47.54172 21.620341) -->
  <!-- OSM <-> POI distance: 75.06221336 m-->
  <!-- Checker good: {not_in_water}; bad {}-->
  <!-- Original tags: 'name':'INTERSPAR'; 'shop':'supermarket'; 'toilets:wheelchair':'yes'; 'website':'http://www.spar.hu'; 'wheelchair':'yes';  -->
  <node action="modify" changeset="1" id="1944079233" lat="47.5423789949091" lon="21.6205577969904" timestamp="2017-09-01T05:33:03Z" uid="4579407" user="KAMI" version="5">
    <tag k="addr:city" v="Debrecen"/>
    <tag k="addr:country" v="HU"/>
    <tag k="addr:housenumber" v="27"/>
    <tag k="addr:postcode" v="4027"/>
    <tag k="addr:street" v="Füredi út"/>
    <tag k="branch" v="Spar express OMV Debrecen"/>
    <tag k="brand" v="Spar"/>
    <tag k="brand:wikidata" v="Q610492"/>
    <tag k="brand:wikipedia" v="hu:Spar "/>
    <tag k="email" v="vevoszolgalat@spar.hu"/>
    <tag k="facebook" v="https://www.facebook.com/sparmagyarorszag"/>
    <tag k="import" v="osm_poi_matchmaker"/>
    <tag k="instagram" v="https://www.instagram.com/sparmagyarorszag"/>
    <tag k="name" v="Spar Expressz"/>
    <tag k="operator" v="SPAR Magyarország Kereskedelmi Kft."/>
    <tag k="payment:cash" v="yes"/>
    <tag k="payment:debit_cards" v="yes"/>
    <tag k="phone" v="+36208237727"/>
    <tag k="shop" v="convenience"/>
    <tag k="source" v="website"/>
    <tag k="source:date" v="2018-07-18"/>
    <tag k="toilets:wheelchair" v="yes"/>
    <tag k="website" v="https://www.spar.hu/content/aspiag_spar_hu/hu_HU/uzletek/40/spar-exp-debrecen1.html"/>
    <tag k="wheelchair" v="yes"/>
    <tag k="youtube" v="https://www.youtube.com/channel/UC9tu8COHiy4WkeTIN1k_Y8A"/>
  </node>
  <!-- Original coordinates: POINT (47.551512 21.648301) -->
  <!-- OSM <-> POI distance: None m-->
  <!-- Checker good: {not_in_water}; bad {}-->
  <!-- Original tags:  -->
  <node action="modify" changeset="99999" id="-47" lat="47.551512" lon="21.648301" timestamp="" uid="4579407" user="KAMI" version="99999">
    <tag k="addr:city" v="Debrecen"/>
    <tag k="addr:country" v="HU"/>
    <tag k="addr:housenumber" v="2"/>
    <tag k="addr:postcode" v="4028"/>
    <tag k="addr:street" v="Kassai utca"/>
    <tag k="branch" v="Spar express OMV Debrecen"/>
    <tag k="brand" v="Spar"/>
    <tag k="brand:wikidata" v="Q610492"/>
    <tag k="brand:wikipedia" v="hu:Spar "/>
    <tag k="email" v="vevoszolgalat@spar.hu"/>
    <tag k="facebook" v="https://www.facebook.com/sparmagyarorszag"/>
    <tag k="import" v="osm_poi_matchmaker"/>
    <tag k="instagram" v="https://www.instagram.com/sparmagyarorszag"/>
    <tag k="name" v="Spar Expressz"/>
    <tag k="operator" v="SPAR Magyarország Kereskedelmi Kft."/>
    <tag k="payment:cash" v="yes"/>
    <tag k="payment:debit_cards" v="yes"/>
    <tag k="phone" v="+36208237727"/>
    <tag k="shop" v="convenience"/>
    <tag k="source" v="website"/>
    <tag k="source:date" v="2018-07-18"/>
    <tag k="website" v="https://www.spar.hu/content/aspiag_spar_hu/hu_HU/uzletek/40/spar-exp-debrecen0.html"/>
    <tag k="youtube" v="https://www.youtube.com/channel/UC9tu8COHiy4WkeTIN1k_Y8A"/>
  </node>
  <!-- OSM link: https://osm.org/way/314167262 -->
  <!-- Original coordinates: POINT (47.516091 21.605806) -->
  <!-- OSM <-> POI distance: 736.92386284 m-->
  <!-- Checker good: {not_in_water}; bad {}-->
  <!-- Original tags: 'building':'retail'; 'name':'Spar'; 'shop':'supermarket';  -->
  <way action="modify" changeset="1" id="314167262" timestamp="2017-12-25T16:17:51Z" uid="4579407" user="KAMI" version="3">
    <nd ref="3202144320"/>
    <nd ref="3202144321"/>
    <nd ref="3202144322"/>
    <nd ref="3202144323"/>
    <nd ref="3202144320"/>
    <tag k="addr:city" v="Debrecen"/>
    <tag k="addr:country" v="HU"/>
    <tag k="addr:housenumber" v="137"/>
    <tag k="addr:postcode" v="4031"/>
    <tag k="addr:street" v="István út"/>
    <tag k="branch" v="Spar express OMV Debrecen"/>
    <tag k="brand" v="Spar"/>
    <tag k="brand:wikidata" v="Q610492"/>
    <tag k="brand:wikipedia" v="hu:Spar "/>
    <tag k="building" v="retail"/>
    <tag k="email" v="vevoszolgalat@spar.hu"/>
    <tag k="facebook" v="https://www.facebook.com/sparmagyarorszag"/>
    <tag k="import" v="osm_poi_matchmaker"/>
    <tag k="instagram" v="https://www.instagram.com/sparmagyarorszag"/>
    <tag k="name" v="Spar Expressz"/>
    <tag k="operator" v="SPAR Magyarország Kereskedelmi Kft."/>
    <tag k="payment:cash" v="yes"/>
    <tag k="payment:debit_cards" v="yes"/>
    <tag k="phone" v="+36208237727"/>
    <tag k="shop" v="convenience"/>
    <tag k="source" v="website"/>
    <tag k="source:date" v="2018-07-18"/>
    <tag k="website" v="https://www.spar.hu/content/aspiag_spar_hu/hu_HU/uzletek/40/spar-exp-debrecen.html"/>
    <tag k="youtube" v="https://www.youtube.com/channel/UC9tu8COHiy4WkeTIN1k_Y8A"/>
  </way>
  <!-- OSM link: https://osm.org/way/171691976 -->
  <!-- Original coordinates: POINT (47.957281 21.685581) -->
  <!-- OSM <-> POI distance: 72.9558625 m-->
  <!-- Checker good: {not_in_water}; bad {}-->
  <!-- Original tags: 'addr:city':'Nyíregyháza'; 'addr:housenumber':'95'; 'addr:postcode':'4400'; 'addr:street':'Tiszavasvári út'; 'building':'retail'; 'contact:website':'http://www.spar.hu'; 'name':'Spar'; 'opening_hours':'Mo-Fr 06:00-21:00; Sa 06:30-18:00; Su 08:00-18:00'; 'phone':'+36 20 823 8053'; 'shop':'supermarket'; 'website':'http://www.spar.hu';  -->
  <way action="modify" changeset="1" id="171691976" timestamp="2017-12-25T16:16:23Z" uid="4579407" user="KAMI" version="5">
    <nd ref="1826841332"/>
    <nd ref="1826841304"/>
    <nd ref="1826841302"/>
    <nd ref="1826841251"/>
    <nd ref="1826841337"/>
    <nd ref="1826841333"/>
    <nd ref="1826841353"/>
    <nd ref="1826841352"/>
    <nd ref="1826841332"/>
    <tag k="addr:city" v="Nyíregyháza"/>
    <tag k="addr:country" v="HU"/>
    <tag k="addr:housenumber" v="95"/>
    <tag k="addr:postcode" v="4400"/>
    <tag k="addr:street" v="Tiszavasvári út- Alkotás út sarok"/>
    <tag k="branch" v="Spar express OMV Nyíregyháza"/>
    <tag k="brand" v="Spar"/>
    <tag k="brand:wikidata" v="Q610492"/>
    <tag k="brand:wikipedia" v="hu:Spar "/>
    <tag k="building" v="retail"/>
    <tag k="contact:website" v="http://www.spar.hu"/>
    <tag k="email" v="vevoszolgalat@spar.hu"/>
    <tag k="facebook" v="https://www.facebook.com/sparmagyarorszag"/>
    <tag k="import" v="osm_poi_matchmaker"/>
    <tag k="instagram" v="https://www.instagram.com/sparmagyarorszag"/>
    <tag k="name" v="Spar Expressz"/>
    <tag k="opening_hours" v="Mo-Fr 06:00-21:00; Sa 06:30-18:00; Su 08:00-18:00"/>
    <tag k="operator" v="SPAR Magyarország Kereskedelmi Kft."/>
    <tag k="payment:cash" v="yes"/>
    <tag k="payment:debit_cards" v="yes"/>
    <tag k="phone" v="+36208237727"/>
    <tag k="shop" v="convenience"/>
    <tag k="source" v="website"/>
    <tag k="source:date" v="2018-07-18"/>
    <tag k="website" v="https://www.spar.hu/content/aspiag_spar_hu/hu_HU/uzletek/44/spar-exp-nyiregyhaza.html"/>
    <tag k="youtube" v="https://www.youtube.com/channel/UC9tu8COHiy4WkeTIN1k_Y8A"/>
  </way>
  <!-- OSM link: https://osm.org/node/4108418145 -->
  <!-- Original coordinates: POINT (47.944923 21.725386) -->
  <!-- OSM <-> POI distance: 88.795968 m-->
  <!-- Checker good: {not_in_water}; bad {}-->
  <!-- Original tags: 'addr:city':'Nyíregyháza'; 'addr:housenumber':'47'; 'addr:postcode':'4400'; 'addr:street':'Kert utca'; 'name':'Spar'; 'opening_hours':'24/7'; 'phone':'+36 42 461 301'; 'shop':'supermarket';  -->
  <node action="modify" changeset="1" id="4108418145" lat="47.9457159948924" lon="21.7252454969758" timestamp="2017-12-14T05:52:26Z" uid="4579407" user="KAMI" version="4">
    <tag k="addr:city" v="Nyíregyháza"/>
    <tag k="addr:country" v="HU"/>
    <tag k="addr:housenumber" v="47"/>
    <tag k="addr:postcode" v="4400"/>
    <tag k="addr:street" v="Kert utca"/>
    <tag k="branch" v="Spar express OMV Nyíregyháza"/>
    <tag k="brand" v="Spar"/>
    <tag k="brand:wikidata" v="Q610492"/>
    <tag k="brand:wikipedia" v="hu:Spar "/>
    <tag k="email" v="vevoszolgalat@spar.hu"/>
    <tag k="facebook" v="https://www.facebook.com/sparmagyarorszag"/>
    <tag k="import" v="osm_poi_matchmaker"/>
    <tag k="instagram" v="https://www.instagram.com/sparmagyarorszag"/>
    <tag k="name" v="Spar Expressz"/>
    <tag k="opening_hours" v="24/7"/>
    <tag k="operator" v="SPAR Magyarország Kereskedelmi Kft."/>
    <tag k="payment:cash" v="yes"/>
    <tag k="payment:debit_cards" v="yes"/>
    <tag k="phone" v="+36208237727"/>
    <tag k="shop" v="convenience"/>
    <tag k="source" v="website"/>
    <tag k="source:date" v="2018-07-18"/>
    <tag k="website" v="https://www.spar.hu/content/aspiag_spar_hu/hu_HU/uzletek/44/spar-exp-nyegyhaza.html"/>
    <tag k="youtube" v="https://www.youtube.com/channel/UC9tu8COHiy4WkeTIN1k_Y8A"/>
  </node>
  <!-- OSM link: https://osm.org/way/168588596 -->
  <!-- Original coordinates: POINT (47.182342 20.183801) -->
  <!-- OSM <-> POI distance: 196.4933571 m-->
  <!-- Checker good: {not_in_water}; bad {}-->
  <!-- Original tags: 'addr:city':'Szolnok'; 'addr:housenumber':'29'; 'addr:postcode':'5000'; 'addr:street':'Mátyás Király út'; 'building':'retail'; 'name':'INTERSPAR'; 'opening_hours':'Mo-Fr 08:30-21:00'; 'shop':'supermarket'; 'toilets:wheelchair':'yes'; 'website':'http://www.spar.hu'; 'wheelchair':'yes';  -->
  <way action="modify" changeset="1" id="168588596" timestamp="2017-09-15T09:27:54Z" uid="4579407" user="KAMI" version="10">
    <nd ref="1798291160"/>
    <nd ref="1798291166"/>
    <nd ref="1798291168"/>
    <nd ref="1798291172"/>
    <nd ref="1798291170"/>
    <nd ref="1798291173"/>
    <nd ref="1798291165"/>
    <nd ref="1798291163"/>
    <nd ref="1798291158"/>
    <nd ref="3265308894"/>
    <nd ref="3265308895"/>
    <nd ref="1798291151"/>
    <nd ref="1798291150"/>
    <nd ref="1798291149"/>
    <nd ref="1798291156"/>
    <nd ref="1798291155"/>
    <nd ref="1798291160"/>
    <tag k="addr:city" v="Szolnok"/>
    <tag k="addr:country" v="HU"/>
    <tag k="addr:housenumber" v="51"/>
    <tag k="addr:postcode" v="5000"/>
    <tag k="addr:street" v="Thököly út"/>
    <tag k="branch" v="Spar express OMV Szolnok"/>
    <tag k="brand" v="Spar"/>
    <tag k="brand:wikidata" v="Q610492"/>
    <tag k="brand:wikipedia" v="hu:Spar "/>
    <tag k="building" v="retail"/>
    <tag k="email" v="vevoszolgalat@spar.hu"/>
    <tag k="facebook" v="https://www.facebook.com/sparmagyarorszag"/>
    <tag k="import" v="osm_poi_matchmaker"/>
    <tag k="instagram" v="https://www.instagram.com/sparmagyarorszag"/>
    <tag k="name" v="Spar Expressz"/>
    <tag k="opening_hours" v="Mo-Fr 08:30-21:00"/>
    <tag k="operator" v="SPAR Magyarország Kereskedelmi Kft."/>
    <tag k="payment:cash" v="yes"/>
    <tag k="payment:debit_cards" v="yes"/>
    <tag k="phone" v="+36208237727"/>
    <tag k="shop" v="convenience"/>
    <tag k="source" v="website"/>
    <tag k="source:date" v="2018-07-18"/>
    <tag k="toilets:wheelchair" v="yes"/>
    <tag k="website" v="https://www.spar.hu/content/aspiag_spar_hu/hu_HU/uzletek/50/spar-exp-szolnok-omv.html"/>
    <tag k="wheelchair" v="yes"/>
    <tag k="youtube" v="https://www.youtube.com/channel/UC9tu8COHiy4WkeTIN1k_Y8A"/>
  </way>
  <!-- Original coordinates: POINT (46.6837338 21.0597964) -->
  <!-- OSM <-> POI distance: None m-->
  <!-- Checker good: {not_in_water}; bad {}-->
  <!-- Original tags:  -->
  <node action="modify" changeset="99999" id="-52" lat="46.6837338" lon="21.0597964" timestamp="" uid="4579407" user="KAMI" version="99999">
    <tag k="addr:city" v="Békéscsaba"/>
    <tag k="addr:country" v="HU"/>
    <tag k="addr:housenumber" v="103"/>
    <tag k="addr:postcode" v="5600"/>
    <tag k="addr:street" v="Szarvasi út"/>
    <tag k="branch" v="Spar express OMV Békéscsaba"/>
    <tag k="brand" v="Spar"/>
    <tag k="brand:wikidata" v="Q610492"/>
    <tag k="brand:wikipedia" v="hu:Spar "/>
    <tag k="email" v="vevoszolgalat@spar.hu"/>
    <tag k="facebook" v="https://www.facebook.com/sparmagyarorszag"/>
    <tag k="import" v="osm_poi_matchmaker"/>
    <tag k="instagram" v="https://www.instagram.com/sparmagyarorszag"/>
    <tag k="name" v="Spar Expressz"/>
    <tag k="operator" v="SPAR Magyarország Kereskedelmi Kft."/>
    <tag k="payment:cash" v="yes"/>
    <tag k="payment:debit_cards" v="yes"/>
    <tag k="phone" v="+36208237727"/>
    <tag k="shop" v="convenience"/>
    <tag k="source" v="website"/>
    <tag k="source:date" v="2018-07-18"/>
    <tag k="website" v="https://www.spar.hu/content/aspiag_spar_hu/hu_HU/uzletek/56/spar-exp-bekescsaba.html"/>
    <tag k="youtube" v="https://www.youtube.com/channel/UC9tu8COHiy4WkeTIN1k_Y8A"/>
  </node>
  <!-- OSM link: https://osm.org/node/1824657103 -->
  <!-- Original coordinates: POINT (46.9209 19.6793) -->
  <!-- OSM <-> POI distance: 40.65194192 m-->
  <!-- Checker good: {not_in_water}; bad {}-->
  <!-- Original tags: 'addr:city':'Kecskemét'; 'addr:postcode':'6000'; 'addr:street':'Budai út'; 'name':'Spar Express'; 'shop':'convenience';  -->
  <node action="modify" changeset="1" id="1824657103" lat="46.921145594936" lon="19.6789034972607" timestamp="2017-10-10T14:50:03Z" uid="4579407" user="KAMI" version="8">
    <tag k="addr:city" v="Kecskemét"/>
    <tag k="addr:country" v="HU"/>
    <tag k="addr:postcode" v="6000"/>
    <tag k="addr:street" v="Budai út"/>
    <tag k="branch" v="Spar express OMV Kecskemét"/>
    <tag k="brand" v="Spar"/>
    <tag k="brand:wikidata" v="Q610492"/>
    <tag k="brand:wikipedia" v="hu:Spar "/>
    <tag k="email" v="vevoszolgalat@spar.hu"/>
    <tag k="facebook" v="https://www.facebook.com/sparmagyarorszag"/>
    <tag k="import" v="osm_poi_matchmaker"/>
    <tag k="instagram" v="https://www.instagram.com/sparmagyarorszag"/>
    <tag k="name" v="Spar Expressz"/>
    <tag k="operator" v="SPAR Magyarország Kereskedelmi Kft."/>
    <tag k="payment:cash" v="yes"/>
    <tag k="payment:debit_cards" v="yes"/>
    <tag k="phone" v="+36208237727"/>
    <tag k="shop" v="convenience"/>
    <tag k="source" v="website"/>
    <tag k="source:date" v="2018-07-18"/>
    <tag k="website" v="https://www.spar.hu/content/aspiag_spar_hu/hu_HU/uzletek/60/spar-exp-kecskemet-omv.html"/>
    <tag k="youtube" v="https://www.youtube.com/channel/UC9tu8COHiy4WkeTIN1k_Y8A"/>
  </node>
  <!-- Original coordinates: POINT (46.625715 19.274241) -->
  <!-- OSM <-> POI distance: None m-->
  <!-- Checker good: {not_in_water}; bad {}-->
  <!-- Original tags:  -->
  <node action="modify" changeset="99999" id="-54" lat="46.625715" lon="19.274241" timestamp="" uid="4579407" user="KAMI" version="99999">
    <tag k="addr:city" v="Kiskőrös"/>
    <tag k="addr:country" v="HU"/>
    <tag k="addr:housenumber" v="99"/>
    <tag k="addr:postcode" v="6200"/>
    <tag k="addr:street" v="Dózsa György út"/>
    <tag k="branch" v="Spar express OMV Kiskőrös"/>
    <tag k="brand" v="Spar"/>
    <tag k="brand:wikidata" v="Q610492"/>
    <tag k="brand:wikipedia" v="hu:Spar "/>
    <tag k="email" v="vevoszolgalat@spar.hu"/>
    <tag k="facebook" v="https://www.facebook.com/sparmagyarorszag"/>
    <tag k="import" v="osm_poi_matchmaker"/>
    <tag k="instagram" v="https://www.instagram.com/sparmagyarorszag"/>
    <tag k="name" v="Spar Expressz"/>
    <tag k="operator" v="SPAR Magyarország Kereskedelmi Kft."/>
    <tag k="payment:cash" v="yes"/>
    <tag k="payment:debit_cards" v="yes"/>
    <tag k="phone" v="+36208237727"/>
    <tag k="shop" v="convenience"/>
    <tag k="source" v="website"/>
    <tag k="source:date" v="2018-07-18"/>
    <tag k="website" v="https://www.spar.hu/content/aspiag_spar_hu/hu_HU/uzletek/62/spar-exp-kisk_roes.html"/>
    <tag k="youtube" v="https://www.youtube.com/channel/UC9tu8COHiy4WkeTIN1k_Y8A"/>
  </node>
  <!-- OSM link: https://osm.org/node/4196023533 -->
  <!-- Original coordinates: POINT (46.2733692 20.1579439) -->
  <!-- OSM <-> POI distance: 78.36663617 m-->
  <!-- Checker good: {not_in_water}; bad {}-->
  <!-- Original tags: 'addr:city':'Szeged'; 'addr:housenumber':'1'; 'addr:postcode':'6723'; 'addr:street':'Makkosházi körút'; 'name':'SPAR Express (6720340)'; 'opening_hours':'24/7'; 'phone':'+36 62 484 734'; 'shop':'supermarket'; 'website':'http://spar.hu';  -->
  <node action="modify" changeset="1" id="4196023533" lat="46.2731785949658" lon="20.1569622971941" timestamp="2017-08-26T21:15:59Z" uid="4579407" user="KAMI" version="2">
    <tag k="addr:city" v="Szeged"/>
    <tag k="addr:country" v="HU"/>
    <tag k="addr:housenumber" v="1"/>
    <tag k="addr:postcode" v="6723"/>
    <tag k="addr:street" v="Makkosházi körút"/>
    <tag k="branch" v="Spar express OMV Szeged"/>
    <tag k="brand" v="Spar"/>
    <tag k="brand:wikidata" v="Q610492"/>
    <tag k="brand:wikipedia" v="hu:Spar "/>
    <tag k="email" v="vevoszolgalat@spar.hu"/>
    <tag k="facebook" v="https://www.facebook.com/sparmagyarorszag"/>
    <tag k="import" v="osm_poi_matchmaker"/>
    <tag k="instagram" v="https://www.instagram.com/sparmagyarorszag"/>
    <tag k="name" v="Spar Expressz"/>
    <tag k="opening_hours" v="24/7"/>
    <tag k="operator" v="SPAR Magyarország Kereskedelmi Kft."/>
    <tag k="payment:cash" v="yes"/>
    <tag k="payment:debit_cards" v="yes"/>
    <tag k="phone" v="+36208237727"/>
    <tag k="shop" v="convenience"/>
    <tag k="source" v="website"/>
    <tag k="source:date" v="2018-07-18"/>
    <tag k="website" v="https://www.spar.hu/content/aspiag_spar_hu/hu_HU/uzletek/67/spar-exp-szeged-makkos.html"/>
    <tag k="youtube" v="https://www.youtube.com/channel/UC9tu8COHiy4WkeTIN1k_Y8A"/>
  </node>
  <!-- OSM link: https://osm.org/way/242562824 -->
  <!-- Original coordinates: POINT (46.22034 20.47701) -->
  <!-- OSM <-> POI distance: 73.79813697 m-->
  <!-- Checker good: {not_in_water}; bad {}-->
  <!-- Original tags: 'addr:street':'Kossuth utca'; 'building':'retail'; 'contact:website':'http://www.spar.hu'; 'name':'SPAR'; 'shop':'supermarket'; 'website':'http://www.spar.hu';  -->
  <way action="modify" changeset="1" id="242562824" timestamp="2017-12-25T16:17:09Z" uid="4579407" user="KAMI" version="5">
    <nd ref="2500329066"/>
    <nd ref="2500329076"/>
    <nd ref="2500329053"/>
    <nd ref="2500329009"/>
    <nd ref="2500329042"/>
    <nd ref="2500329036"/>
    <nd ref="2500329055"/>
    <nd ref="2500329102"/>
    <nd ref="2500329066"/>
    <tag k="addr:city" v="Makó"/>
    <tag k="addr:country" v="HU"/>
    <tag k="addr:postcode" v="6900"/>
    <tag k="addr:street" v="Kossuth Lajos utca"/>
    <tag k="branch" v="Spar express OMV Makó"/>
    <tag k="brand" v="Spar"/>
    <tag k="brand:wikidata" v="Q610492"/>
    <tag k="brand:wikipedia" v="hu:Spar "/>
    <tag k="building" v="retail"/>
    <tag k="contact:website" v="http://www.spar.hu"/>
    <tag k="email" v="vevoszolgalat@spar.hu"/>
    <tag k="facebook" v="https://www.facebook.com/sparmagyarorszag"/>
    <tag k="import" v="osm_poi_matchmaker"/>
    <tag k="instagram" v="https://www.instagram.com/sparmagyarorszag"/>
    <tag k="name" v="Spar Expressz"/>
    <tag k="operator" v="SPAR Magyarország Kereskedelmi Kft."/>
    <tag k="payment:cash" v="yes"/>
    <tag k="payment:debit_cards" v="yes"/>
    <tag k="phone" v="+36208237727"/>
    <tag k="shop" v="convenience"/>
    <tag k="source" v="website"/>
    <tag k="source:date" v="2018-07-18"/>
    <tag k="website" v="https://www.spar.hu/content/aspiag_spar_hu/hu_HU/uzletek/69/spar-exp-mako.html"/>
    <tag k="youtube" v="https://www.youtube.com/channel/UC9tu8COHiy4WkeTIN1k_Y8A"/>
  </way>
  <!-- OSM link: https://osm.org/node/4939279684 -->
  <!-- Original coordinates: POINT (46.354611 17.7854394) -->
  <!-- OSM <-> POI distance: 66.82847067 m-->
  <!-- Checker good: {not_in_water}; bad {}-->
  <!-- Original tags: 'fixme':'verify'; 'name':'Spar Express 6720780'; 'shop':'convenience'; 'source':'route4u';  -->
  <node action="modify" changeset="1" id="4939279684" lat="46.355072794962" lon="17.7859966975242" timestamp="2017-08-07T22:06:58Z" uid="4579407" user="KAMI" version="2">
    <tag k="addr:city" v="Kaposvár"/>
    <tag k="addr:conscriptionnumber" v="113/14"/>
    <tag k="addr:country" v="HU"/>
    <tag k="addr:postcode" v="7400"/>
    <tag k="addr:street" v="Áchim András utca"/>
    <tag k="branch" v="Spar express OMV Kaposvár"/>
    <tag k="brand" v="Spar"/>
    <tag k="brand:wikidata" v="Q610492"/>
    <tag k="brand:wikipedia" v="hu:Spar "/>
    <tag k="email" v="vevoszolgalat@spar.hu"/>
    <tag k="facebook" v="https://www.facebook.com/sparmagyarorszag"/>
    <tag k="fixme" v="verify"/>
    <tag k="import" v="osm_poi_matchmaker"/>
    <tag k="instagram" v="https://www.instagram.com/sparmagyarorszag"/>
    <tag k="name" v="Spar Expressz"/>
    <tag k="operator" v="SPAR Magyarország Kereskedelmi Kft."/>
    <tag k="payment:cash" v="yes"/>
    <tag k="payment:debit_cards" v="yes"/>
    <tag k="phone" v="+36208237727"/>
    <tag k="shop" v="convenience"/>
    <tag k="source" v="website"/>
    <tag k="source:date" v="2018-07-18"/>
    <tag k="website" v="https://www.spar.hu/content/aspiag_spar_hu/hu_HU/uzletek/74/spar-exp-kaposvar.html"/>
    <tag k="youtube" v="https://www.youtube.com/channel/UC9tu8COHiy4WkeTIN1k_Y8A"/>
  </node>
  <!-- OSM link: https://osm.org/way/35096436 -->
  <!-- Original coordinates: POINT (46.0555444 18.2311233) -->
  <!-- OSM <-> POI distance: 196.53294311 m-->
  <!-- Checker good: {not_in_water}; bad {}-->
  <!-- Original tags: 'building':'retail'; 'name':'Interspar'; 'shop':'supermarket'; 'toilets:wheelchair':'yes'; 'website':'http://www.spar.hu'; 'wheelchair':'yes';  -->
  <way action="modify" changeset="1" id="35096436" timestamp="2017-12-25T16:15:44Z" uid="4579407" user="KAMI" version="9">
    <nd ref="411729371"/>
    <nd ref="3893925777"/>
    <nd ref="411729375"/>
    <nd ref="411729378"/>
    <nd ref="3208558771"/>
    <nd ref="411729380"/>
    <nd ref="411729371"/>
    <tag k="addr:city" v="Pécs"/>
    <tag k="addr:country" v="HU"/>
    <tag k="addr:housenumber" v="45"/>
    <tag k="addr:postcode" v="7632"/>
    <tag k="addr:street" v="Siklósi út"/>
    <tag k="branch" v="Spar express OMV Pécs"/>
    <tag k="brand" v="Spar"/>
    <tag k="brand:wikidata" v="Q610492"/>
    <tag k="brand:wikipedia" v="hu:Spar "/>
    <tag k="building" v="retail"/>
    <tag k="email" v="vevoszolgalat@spar.hu"/>
    <tag k="facebook" v="https://www.facebook.com/sparmagyarorszag"/>
    <tag k="import" v="osm_poi_matchmaker"/>
    <tag k="instagram" v="https://www.instagram.com/sparmagyarorszag"/>
    <tag k="name" v="Spar Expressz"/>
    <tag k="operator" v="SPAR Magyarország Kereskedelmi Kft."/>
    <tag k="payment:cash" v="yes"/>
    <tag k="payment:debit_cards" v="yes"/>
    <tag k="phone" v="+36208237727"/>
    <tag k="shop" v="convenience"/>
    <tag k="source" v="website"/>
    <tag k="source:date" v="2018-07-18"/>
    <tag k="toilets:wheelchair" v="yes"/>
    <tag k="website" v="https://www.spar.hu/content/aspiag_spar_hu/hu_HU/uzletek/76/spar-expr-pecs-omv.html"/>
    <tag k="wheelchair" v="yes"/>
    <tag k="youtube" v="https://www.youtube.com/channel/UC9tu8COHiy4WkeTIN1k_Y8A"/>
  </way>
  <!-- Original coordinates: POINT (47.195781 18.458692) -->
  <!-- OSM <-> POI distance: None m-->
  <!-- Checker good: {not_in_water}; bad {}-->
  <!-- Original tags:  -->
  <node action="modify" changeset="99999" id="-59" lat="47.195781" lon="18.458692" timestamp="" uid="4579407" user="KAMI" version="99999">
    <tag k="addr:city" v="Székesfehérvár"/>
    <tag k="addr:country" v="HU"/>
    <tag k="addr:housenumber" v="6"/>
    <tag k="addr:postcode" v="8000"/>
    <tag k="addr:street" v="Donáth utca"/>
    <tag k="branch" v="Spar express OMV Székesfehérvár"/>
    <tag k="brand" v="Spar"/>
    <tag k="brand:wikidata" v="Q610492"/>
    <tag k="brand:wikipedia" v="hu:Spar "/>
    <tag k="email" v="vevoszolgalat@spar.hu"/>
    <tag k="facebook" v="https://www.facebook.com/sparmagyarorszag"/>
    <tag k="import" v="osm_poi_matchmaker"/>
    <tag k="instagram" v="https://www.instagram.com/sparmagyarorszag"/>
    <tag k="name" v="Spar Expressz"/>
    <tag k="operator" v="SPAR Magyarország Kereskedelmi Kft."/>
    <tag k="payment:cash" v="yes"/>
    <tag k="payment:debit_cards" v="yes"/>
    <tag k="phone" v="+36208237727"/>
    <tag k="shop" v="convenience"/>
    <tag k="source" v="website"/>
    <tag k="source:date" v="2018-07-18"/>
    <tag k="website" v="https://www.spar.hu/content/aspiag_spar_hu/hu_HU/uzletek/80/spar-exp-szfvar.html"/>
    <tag k="youtube" v="https://www.youtube.com/channel/UC9tu8COHiy4WkeTIN1k_Y8A"/>
  </node>
  <!-- OSM link: https://osm.org/way/211944203 -->
  <!-- Original coordinates: POINT (47.1911958 18.4224656) -->
  <!-- OSM <-> POI distance: 84.89760119 m-->
  <!-- Checker good: {not_in_water}; bad {}-->
  <!-- Original tags: 'building':'yes'; 'name':'Interspar'; 'shop':'supermarket';  -->
  <way action="modify" changeset="1" id="211944203" timestamp="2018-01-27T20:29:14Z" uid="4579407" user="KAMI" version="7">
    <nd ref="2218677354"/>
    <nd ref="2218677319"/>
    <nd ref="2218677334"/>
    <nd ref="2218677359"/>
    <nd ref="2218677403"/>
    <nd ref="2218677356"/>
    <nd ref="2218677373"/>
    <nd ref="2218677345"/>
    <nd ref="2218677384"/>
    <nd ref="2218677380"/>
    <nd ref="2218677388"/>
    <nd ref="2218677376"/>
    <nd ref="2218677342"/>
    <nd ref="2218677352"/>
    <nd ref="2218677350"/>
    <nd ref="2218677347"/>
    <nd ref="2218677360"/>
    <nd ref="2218677336"/>
    <nd ref="2218677355"/>
    <nd ref="2218677357"/>
    <nd ref="2218677358"/>
    <nd ref="2218677362"/>
    <nd ref="2218677399"/>
    <nd ref="2218677393"/>
    <nd ref="2218677369"/>
    <nd ref="2218677340"/>
    <nd ref="2218677396"/>
    <nd ref="2218677338"/>
    <nd ref="2218677344"/>
    <nd ref="2218677400"/>
    <nd ref="2218677361"/>
    <nd ref="2218677391"/>
    <nd ref="2218677366"/>
    <nd ref="2218677354"/>
    <tag k="addr:city" v="Székesfehérvár"/>
    <tag k="addr:country" v="HU"/>
    <tag k="addr:housenumber" v="29"/>
    <tag k="addr:postcode" v="8000"/>
    <tag k="addr:street" v="Budai út"/>
    <tag k="branch" v="Spar express OMV Székesfehérvár"/>
    <tag k="brand" v="Spar"/>
    <tag k="brand:wikidata" v="Q610492"/>
    <tag k="brand:wikipedia" v="hu:Spar "/>
    <tag k="building" v="yes"/>
    <tag k="email" v="vevoszolgalat@spar.hu"/>
    <tag k="facebook" v="https://www.facebook.com/sparmagyarorszag"/>
    <tag k="import" v="osm_poi_matchmaker"/>
    <tag k="instagram" v="https://www.instagram.com/sparmagyarorszag"/>
    <tag k="name" v="Spar Expressz"/>
    <tag k="operator" v="SPAR Magyarország Kereskedelmi Kft."/>
    <tag k="payment:cash" v="yes"/>
    <tag k="payment:debit_cards" v="yes"/>
    <tag k="phone" v="+36208237727"/>
    <tag k="shop" v="convenience"/>
    <tag k="source" v="website"/>
    <tag k="source:date" v="2018-07-18"/>
    <tag k="website" v="https://www.spar.hu/content/aspiag_spar_hu/hu_HU/uzletek/80/spar-exp-sz-fehervar.html"/>
    <tag k="youtube" v="https://www.youtube.com/channel/UC9tu8COHiy4WkeTIN1k_Y8A"/>
  </way>
  <!-- OSM link: https://osm.org/node/4317001496 -->
  <!-- Original coordinates: POINT (47.112271 17.924475) -->
  <!-- OSM <-> POI distance: 17.00624797 m-->
  <!-- Checker good: {not_in_water}; bad {}-->
  <!-- Original tags: 'internet_access':'wlan'; 'name':'Spar Express'; 'opening_hours':'24/7'; 'shop':'convenience';  -->
  <node action="modify" changeset="1" id="4317001496" lat="47.1121888949276" lon="17.9246645975049" timestamp="2016-07-23T13:27:35Z" uid="4579407" user="KAMI" version="1">
    <tag k="addr:city" v="Veszprém"/>
    <tag k="addr:country" v="HU"/>
    <tag k="addr:housenumber" v="11"/>
    <tag k="addr:postcode" v="8200"/>
    <tag k="addr:street" v="Aradi Vértanúk útja"/>
    <tag k="branch" v="Spar Express OMV Veszprém"/>
    <tag k="brand" v="Spar"/>
    <tag k="brand:wikidata" v="Q610492"/>
    <tag k="brand:wikipedia" v="hu:Spar "/>
    <tag k="email" v="vevoszolgalat@spar.hu"/>
    <tag k="facebook" v="https://www.facebook.com/sparmagyarorszag"/>
    <tag k="import" v="osm_poi_matchmaker"/>
    <tag k="instagram" v="https://www.instagram.com/sparmagyarorszag"/>
    <tag k="internet_access" v="wlan"/>
    <tag k="name" v="Spar Expressz"/>
    <tag k="opening_hours" v="24/7"/>
    <tag k="operator" v="SPAR Magyarország Kereskedelmi Kft."/>
    <tag k="payment:cash" v="yes"/>
    <tag k="payment:debit_cards" v="yes"/>
    <tag k="phone" v="+36208237727"/>
    <tag k="shop" v="convenience"/>
    <tag k="source" v="website"/>
    <tag k="source:date" v="2018-07-18"/>
    <tag k="website" v="https://www.spar.hu/content/aspiag_spar_hu/hu_HU/uzletek/82/spar-express-veszprem.html"/>
    <tag k="youtube" v="https://www.youtube.com/channel/UC9tu8COHiy4WkeTIN1k_Y8A"/>
  </node>
  <!-- OSM link: https://osm.org/node/4317069293 -->
  <!-- Original coordinates: POINT (47.0944911 17.9164813) -->
  <!-- OSM <-> POI distance: 12.33195311 m-->
  <!-- Checker good: {not_in_water}; bad {}-->
  <!-- Original tags: 'internet_access':'wlan'; 'name':'Spar Express'; 'opening_hours':'24/7'; 'shop':'convenience';  -->
  <node action="modify" changeset="1" id="4317069293" lat="47.0945560949283" lon="17.916613297506" timestamp="2016-07-23T13:29:34Z" uid="4579407" user="KAMI" version="1">
    <tag k="addr:city" v="Veszprém"/>
    <tag k="addr:country" v="HU"/>
    <tag k="addr:housenumber" v="12"/>
    <tag k="addr:postcode" v="8200"/>
    <tag k="addr:street" v="Budapesti út"/>
    <tag k="branch" v="Spar express OMV Veszprém"/>
    <tag k="brand" v="Spar"/>
    <tag k="brand:wikidata" v="Q610492"/>
    <tag k="brand:wikipedia" v="hu:Spar "/>
    <tag k="email" v="vevoszolgalat@spar.hu"/>
    <tag k="facebook" v="https://www.facebook.com/sparmagyarorszag"/>
    <tag k="import" v="osm_poi_matchmaker"/>
    <tag k="instagram" v="https://www.instagram.com/sparmagyarorszag"/>
    <tag k="internet_access" v="wlan"/>
    <tag k="name" v="Spar Expressz"/>
    <tag k="opening_hours" v="24/7"/>
    <tag k="operator" v="SPAR Magyarország Kereskedelmi Kft."/>
    <tag k="payment:cash" v="yes"/>
    <tag k="payment:debit_cards" v="yes"/>
    <tag k="phone" v="+36208237727"/>
    <tag k="shop" v="convenience"/>
    <tag k="source" v="website"/>
    <tag k="source:date" v="2018-07-18"/>
    <tag k="website" v="https://www.spar.hu/content/aspiag_spar_hu/hu_HU/uzletek/82/spar-exp-veszprem.html"/>
    <tag k="youtube" v="https://www.youtube.com/channel/UC9tu8COHiy4WkeTIN1k_Y8A"/>
  </node>
  <!-- OSM link: https://osm.org/way/230260456 -->
  <!-- Original coordinates: POINT (46.90163 18.0484459) -->
  <!-- OSM <-> POI distance: 64.45426422 m-->
  <!-- Checker good: {not_in_water}; bad {}-->
  <!-- Original tags: 'building':'retail'; 'contact:website':'http://www.penny.hu'; 'name':'Penny Market'; 'shop':'supermarket'; 'website':'http://www.penny.hu'; 'wheelchair':'yes';  -->
  <way action="modify" changeset="1" id="230260456" timestamp="2018-04-01T14:33:37Z" uid="4579407" user="KAMI" version="5">
    <nd ref="2387844888"/>
    <nd ref="5520454546"/>
    <nd ref="5520454545"/>
    <nd ref="2387844891"/>
    <nd ref="2387844893"/>
    <nd ref="2387844894"/>
    <nd ref="2387844896"/>
    <nd ref="2387844898"/>
    <nd ref="2387844900"/>
    <nd ref="2387844902"/>
    <nd ref="2387844888"/>
    <tag k="addr:city" v="Siófok"/>
    <tag k="addr:country" v="HU"/>
    <tag k="addr:housenumber" v="1"/>
    <tag k="addr:postcode" v="8600"/>
    <tag k="addr:street" v="Vak Bottyán út"/>
    <tag k="branch" v="Spar express OMV Siófok"/>
    <tag k="brand" v="Spar"/>
    <tag k="brand:wikidata" v="Q610492"/>
    <tag k="brand:wikipedia" v="hu:Spar "/>
    <tag k="building" v="retail"/>
    <tag k="contact:website" v="http://www.penny.hu"/>
    <tag k="email" v="vevoszolgalat@spar.hu"/>
    <tag k="facebook" v="https://www.facebook.com/sparmagyarorszag"/>
    <tag k="import" v="osm_poi_matchmaker"/>
    <tag k="instagram" v="https://www.instagram.com/sparmagyarorszag"/>
    <tag k="name" v="Spar Expressz"/>
    <tag k="operator" v="SPAR Magyarország Kereskedelmi Kft."/>
    <tag k="payment:cash" v="yes"/>
    <tag k="payment:debit_cards" v="yes"/>
    <tag k="phone" v="+36208237727"/>
    <tag k="shop" v="convenience"/>
    <tag k="source" v="website"/>
    <tag k="source:date" v="2018-07-18"/>
    <tag k="website" v="https://www.spar.hu/content/aspiag_spar_hu/hu_HU/uzletek/86/spar-exp-siofok-omv.html"/>
    <tag k="wheelchair" v="yes"/>
    <tag k="youtube" v="https://www.youtube.com/channel/UC9tu8COHiy4WkeTIN1k_Y8A"/>
  </way>
  <!-- OSM link: https://osm.org/way/116730869 -->
  <!-- Original coordinates: POINT (46.7876292453 17.6993434131) -->
  <!-- OSM <-> POI distance: 87.34639759 m-->
  <!-- Checker good: {not_in_water}; bad {}-->
  <!-- Original tags: 'building':'retail'; 'contact:website':'http://www.spar.hu'; 'lastcheck':'2017-06-06'; 'name':'SPAR'; 'opening_hours':'Mo-Sa 06:30-21:00; Su 07:00-17:00'; 'shop':'supermarket'; 'toilets:wheelchair':'no'; 'website':'http://www.spar.hu'; 'wheelchair':'yes';  -->
  <way action="modify" changeset="1" id="116730869" timestamp="2017-12-25T16:16:01Z" uid="4579407" user="KAMI" version="7">
    <nd ref="1315257471"/>
    <nd ref="1315257174"/>
    <nd ref="1315256863"/>
    <nd ref="1315257025"/>
    <nd ref="1315257408"/>
    <nd ref="1315257084"/>
    <nd ref="4946197998"/>
    <nd ref="1315257471"/>
    <tag k="addr:city" v="Balatonlelle"/>
    <tag k="addr:conscriptionnumber" v="3069"/>
    <tag k="addr:country" v="HU"/>
    <tag k="addr:postcode" v="8638"/>
    <tag k="addr:street" v="Rákóczi út"/>
    <tag k="branch" v="Spar express OMV Balatonlelle"/>
    <tag k="brand" v="Spar"/>
    <tag k="brand:wikidata" v="Q610492"/>
    <tag k="brand:wikipedia" v="hu:Spar "/>
    <tag k="building" v="retail"/>
    <tag k="contact:website" v="http://www.spar.hu"/>
    <tag k="email" v="vevoszolgalat@spar.hu"/>
    <tag k="facebook" v="https://www.facebook.com/sparmagyarorszag"/>
    <tag k="import" v="osm_poi_matchmaker"/>
    <tag k="instagram" v="https://www.instagram.com/sparmagyarorszag"/>
    <tag k="lastcheck" v="2017-06-06"/>
    <tag k="name" v="Spar Expressz"/>
    <tag k="opening_hours" v="Mo-Sa 06:30-21:00; Su 07:00-17:00"/>
    <tag k="operator" v="SPAR Magyarország Kereskedelmi Kft."/>
    <tag k="payment:cash" v="yes"/>
    <tag k="payment:debit_cards" v="yes"/>
    <tag k="phone" v="+36208237727"/>
    <tag k="shop" v="convenience"/>
    <tag k="source" v="website"/>
    <tag k="source:date" v="2018-07-18"/>
    <tag k="toilets:wheelchair" v="no"/>
    <tag k="website" v="https://www.spar.hu/content/aspiag_spar_hu/hu_HU/uzletek/86/spar-exp-balatonlelle.html"/>
    <tag k="wheelchair" v="yes"/>
    <tag k="youtube" v="https://www.youtube.com/channel/UC9tu8COHiy4WkeTIN1k_Y8A"/>
  </way>
  <!-- OSM link: https://osm.org/node/4939280641 -->
  <!-- Original coordinates: POINT (46.456071 17.009847) -->
  <!-- OSM <-> POI distance: 267.21756049 m-->
  <!-- Checker good: {not_in_water}; bad {}-->
  <!-- Original tags: 'fixme':'verify'; 'name':'8238 Interspar Nagykanizsa'; 'shop':'convenience'; 'source':'route4u';  -->
  <node action="modify" changeset="1" id="4939280641" lat="46.4540448949573" lon="17.011722797632" timestamp="2017-08-07T22:07:06Z" uid="4579407" user="KAMI" version="2">
    <tag k="addr:city" v="Nagykanizsa"/>
    <tag k="addr:country" v="HU"/>
    <tag k="addr:housenumber" v="5"/>
    <tag k="addr:postcode" v="8800"/>
    <tag k="addr:street" v="Hevesi Sándor  utca"/>
    <tag k="branch" v="Spar express OMV Nagykanizsa"/>
    <tag k="brand" v="Spar"/>
    <tag k="brand:wikidata" v="Q610492"/>
    <tag k="brand:wikipedia" v="hu:Spar "/>
    <tag k="email" v="vevoszolgalat@spar.hu"/>
    <tag k="facebook" v="https://www.facebook.com/sparmagyarorszag"/>
    <tag k="fixme" v="verify"/>
    <tag k="import" v="osm_poi_matchmaker"/>
    <tag k="instagram" v="https://www.instagram.com/sparmagyarorszag"/>
    <tag k="name" v="Spar Expressz"/>
    <tag k="operator" v="SPAR Magyarország Kereskedelmi Kft."/>
    <tag k="payment:cash" v="yes"/>
    <tag k="payment:debit_cards" v="yes"/>
    <tag k="phone" v="+36208237727"/>
    <tag k="shop" v="convenience"/>
    <tag k="source" v="website"/>
    <tag k="source:date" v="2018-07-18"/>
    <tag k="website" v="https://www.spar.hu/content/aspiag_spar_hu/hu_HU/uzletek/88/spar-exp-nagykanizsa.html"/>
    <tag k="youtube" v="https://www.youtube.com/channel/UC9tu8COHiy4WkeTIN1k_Y8A"/>
  </node>
  <!-- OSM link: https://osm.org/way/207229424 -->
  <!-- Original coordinates: POINT (46.835042 16.830809) -->
  <!-- OSM <-> POI distance: 521.90373045 m-->
  <!-- Checker good: {not_in_water}; bad {}-->
  <!-- Original tags: 'building':'retail'; 'contact:website':'http://www.spar.hu'; 'name':'SPAR'; 'shop':'supermarket'; 'toilets:wheelchair':'no'; 'website':'http://www.spar.hu'; 'wheelchair':'yes';  -->
  <way action="modify" changeset="1" id="207229424" timestamp="2017-12-25T16:16:39Z" uid="4579407" user="KAMI" version="5">
    <nd ref="2173931610"/>
    <nd ref="2173931611"/>
    <nd ref="2173931613"/>
    <nd ref="2173931602"/>
    <nd ref="2173931607"/>
    <nd ref="2173931610"/>
    <tag k="addr:city" v="Zalaegerszeg"/>
    <tag k="addr:country" v="HU"/>
    <tag k="addr:housenumber" v="26"/>
    <tag k="addr:postcode" v="8900"/>
    <tag k="addr:street" v="Göcseji utca"/>
    <tag k="branch" v="Spar express OMV Zalaegerszeg"/>
    <tag k="brand" v="Spar"/>
    <tag k="brand:wikidata" v="Q610492"/>
    <tag k="brand:wikipedia" v="hu:Spar "/>
    <tag k="building" v="retail"/>
    <tag k="contact:website" v="http://www.spar.hu"/>
    <tag k="email" v="vevoszolgalat@spar.hu"/>
    <tag k="facebook" v="https://www.facebook.com/sparmagyarorszag"/>
    <tag k="import" v="osm_poi_matchmaker"/>
    <tag k="instagram" v="https://www.instagram.com/sparmagyarorszag"/>
    <tag k="name" v="Spar Expressz"/>
    <tag k="operator" v="SPAR Magyarország Kereskedelmi Kft."/>
    <tag k="payment:cash" v="yes"/>
    <tag k="payment:debit_cards" v="yes"/>
    <tag k="phone" v="+36208237727"/>
    <tag k="shop" v="convenience"/>
    <tag k="source" v="website"/>
    <tag k="source:date" v="2018-07-18"/>
    <tag k="toilets:wheelchair" v="no"/>
    <tag k="website" v="https://www.spar.hu/content/aspiag_spar_hu/hu_HU/uzletek/89/spar-exp-zalaegerszeg.html"/>
    <tag k="wheelchair" v="yes"/>
    <tag k="youtube" v="https://www.youtube.com/channel/UC9tu8COHiy4WkeTIN1k_Y8A"/>
  </way>
  <!-- OSM link: https://osm.org/way/136081025 -->
  <!-- Original coordinates: POINT (47.656914 17.633928) -->
  <!-- OSM <-> POI distance: 426.74068604 m-->
  <!-- Checker good: {not_in_water}; bad {}-->
  <!-- Original tags: 'addr:city':'Győr'; 'addr:postcode':'9024'; 'addr:street':'Pátzay Pál utca'; 'building':'retail'; 'contact:website':'http://www.spar.hu'; 'name':'SPAR'; 'shop':'supermarket'; 'toilets:wheelchair':'no'; 'website':'http://www.spar.hu'; 'wheelchair':'limited';  -->
  <way action="modify" changeset="1" id="136081025" timestamp="2017-12-25T16:16:12Z" uid="4579407" user="KAMI" version="5">
    <nd ref="1493285025"/>
    <nd ref="1493285027"/>
    <nd ref="1493285015"/>
    <nd ref="1493285014"/>
    <nd ref="1493285019"/>
    <nd ref="1493285018"/>
    <nd ref="1493285025"/>
    <tag k="addr:city" v="Győr"/>
    <tag k="addr:country" v="HU"/>
    <tag k="addr:housenumber" v="771"/>
    <tag k="addr:postcode" v="9024"/>
    <tag k="addr:street" v="Pápai út"/>
    <tag k="branch" v="Spar express OMV Győr"/>
    <tag k="brand" v="Spar"/>
    <tag k="brand:wikidata" v="Q610492"/>
    <tag k="brand:wikipedia" v="hu:Spar "/>
    <tag k="building" v="retail"/>
    <tag k="contact:website" v="http://www.spar.hu"/>
    <tag k="email" v="vevoszolgalat@spar.hu"/>
    <tag k="facebook" v="https://www.facebook.com/sparmagyarorszag"/>
    <tag k="import" v="osm_poi_matchmaker"/>
    <tag k="instagram" v="https://www.instagram.com/sparmagyarorszag"/>
    <tag k="name" v="Spar Expressz"/>
    <tag k="operator" v="SPAR Magyarország Kereskedelmi Kft."/>
    <tag k="payment:cash" v="yes"/>
    <tag k="payment:debit_cards" v="yes"/>
    <tag k="phone" v="+36208237727"/>
    <tag k="shop" v="convenience"/>
    <tag k="source" v="website"/>
    <tag k="source:date" v="2018-07-18"/>
    <tag k="toilets:wheelchair" v="no"/>
    <tag k="website" v="https://www.spar.hu/content/aspiag_spar_hu/hu_HU/uzletek/90/spar-exp-gy_r.html"/>
    <tag k="wheelchair" v="limited"/>
    <tag k="youtube" v="https://www.youtube.com/channel/UC9tu8COHiy4WkeTIN1k_Y8A"/>
  </way>
  <!-- OSM link: https://osm.org/way/90177960 -->
  <!-- Original coordinates: POINT (47.676419 16.596474) -->
  <!-- OSM <-> POI distance: 553.72311007 m-->
  <!-- Checker good: {not_in_water}; bad {}-->
  <!-- Original tags: 'addr:city':'Sopron'; 'addr:housenumber':'16'; 'addr:postcode':'9400'; 'addr:street':'Arany János utca'; 'building':'retail'; 'contact:website':'http://www.spar.hu'; 'name':'SPAR'; 'opening_hours':'Mo-Fr 06:30-21:00;Sa 06:30-17:00;Su 08:00-13:00'; 'phone':'+36 20 8237404'; 'ref':'404'; 'shop':'supermarket'; 'toilets:wheelchair':'limited'; 'website':'http://www.spar.hu'; 'wheelchair':'yes';  -->
  <way action="modify" changeset="1" id="90177960" timestamp="2017-09-25T14:00:39Z" uid="4579407" user="KAMI" version="5">
    <nd ref="1045491383"/>
    <nd ref="1045491225"/>
    <nd ref="1045491374"/>
    <nd ref="1045491234"/>
    <nd ref="1045491383"/>
    <tag k="addr:city" v="Sopron"/>
    <tag k="addr:country" v="HU"/>
    <tag k="addr:housenumber" v="93"/>
    <tag k="addr:postcode" v="9400"/>
    <tag k="addr:street" v="Csengery utca"/>
    <tag k="branch" v="Spar express OMV Sopron"/>
    <tag k="brand" v="Spar"/>
    <tag k="brand:wikidata" v="Q610492"/>
    <tag k="brand:wikipedia" v="hu:Spar "/>
    <tag k="building" v="retail"/>
    <tag k="contact:website" v="http://www.spar.hu"/>
    <tag k="email" v="vevoszolgalat@spar.hu"/>
    <tag k="facebook" v="https://www.facebook.com/sparmagyarorszag"/>
    <tag k="import" v="osm_poi_matchmaker"/>
    <tag k="instagram" v="https://www.instagram.com/sparmagyarorszag"/>
    <tag k="name" v="Spar Expressz"/>
    <tag k="opening_hours" v="Mo-Fr 06:30-21:00;Sa 06:30-17:00;Su 08:00-13:00"/>
    <tag k="operator" v="SPAR Magyarország Kereskedelmi Kft."/>
    <tag k="payment:cash" v="yes"/>
    <tag k="payment:debit_cards" v="yes"/>
    <tag k="phone" v="+36208237727"/>
    <tag k="ref" v="404"/>
    <tag k="shop" v="convenience"/>
    <tag k="source" v="website"/>
    <tag k="source:date" v="2018-07-18"/>
    <tag k="toilets:wheelchair" v="limited"/>
    <tag k="website" v="https://www.spar.hu/content/aspiag_spar_hu/hu_HU/uzletek/94/spar-exp-sopron.html"/>
    <tag k="wheelchair" v="yes"/>
    <tag k="youtube" v="https://www.youtube.com/channel/UC9tu8COHiy4WkeTIN1k_Y8A"/>
  </way>
  <!-- Original coordinates: POINT (47.211575 16.618967) -->
  <!-- OSM <-> POI distance: None m-->
  <!-- Checker good: {not_in_water}; bad {}-->
  <!-- Original tags:  -->
  <node action="modify" changeset="99999" id="-69" lat="47.211575" lon="16.618967" timestamp="" uid="4579407" user="KAMI" version="99999">
    <tag k="addr:city" v="Szombathely"/>
    <tag k="addr:country" v="HU"/>
    <tag k="addr:housenumber" v="92"/>
    <tag k="addr:postcode" v="9700"/>
    <tag k="addr:street" v="Körmendi út"/>
    <tag k="branch" v="Spar express OMV Szombathely"/>
    <tag k="brand" v="Spar"/>
    <tag k="brand:wikidata" v="Q610492"/>
    <tag k="brand:wikipedia" v="hu:Spar "/>
    <tag k="email" v="vevoszolgalat@spar.hu"/>
    <tag k="facebook" v="https://www.facebook.com/sparmagyarorszag"/>
    <tag k="import" v="osm_poi_matchmaker"/>
    <tag k="instagram" v="https://www.instagram.com/sparmagyarorszag"/>
    <tag k="name" v="Spar Expressz"/>
    <tag k="operator" v="SPAR Magyarország Kereskedelmi Kft."/>
    <tag k="payment:cash" v="yes"/>
    <tag k="payment:debit_cards" v="yes"/>
    <tag k="phone" v="+36208237727"/>
    <tag k="shop" v="convenience"/>
    <tag k="source" v="website"/>
    <tag k="source:date" v="2018-07-18"/>
    <tag k="website" v="https://www.spar.hu/content/aspiag_spar_hu/hu_HU/uzletek/97/spar-exp-szombathely.html"/>
    <tag k="youtube" v="https://www.youtube.com/channel/UC9tu8COHiy4WkeTIN1k_Y8A"/>
  </node>
</osm>
