<?xml version='1.0' encoding='UTF-8'?>
<osm generator="JOSM" version="0.6">
  <!-- OSM link: https://osm.org/node/4933475361 -->
  <!-- Original coordinates: POINT (47.546497 19.028357) -->
  <!-- OSM <-> POI distance: 109.80691786 m-->
  <!-- Checker good: {not_in_water}; bad {}-->
  <!-- Original tags: 'fixme':'verify'; 'name':'5180 Interspar Eurocenter'; 'shop':'convenience'; 'source':'route4u'; 'toilets:wheelchair':'yes'; 'wheelchair':'yes';  -->
  <node action="modify" changeset="1" id="4933475361" lat="47.5455109949089" lon="19.0284378973512" timestamp="2017-09-11T09:28:16Z" uid="4579407" user="KAMI" version="3">
    <tag k="addr:city" v="Budapest"/>
    <tag k="addr:country" v="HU"/>
    <tag k="addr:housenumber" v="154"/>
    <tag k="addr:postcode" v="1037"/>
    <tag k="addr:street" v="Bécsi út"/>
    <tag k="branch" v="Interspar hipermarket Budapest"/>
    <tag k="brand" v="Spar"/>
    <tag k="brand:wikidata" v="Q610492"/>
    <tag k="brand:wikipedia" v="hu:Spar "/>
    <tag k="email" v="vevoszolgalat@spar.hu"/>
    <tag k="facebook" v="https://www.facebook.com/sparmagyarorszag"/>
    <tag k="fixme" v="verify"/>
    <tag k="import" v="osm_poi_matchmaker"/>
    <tag k="instagram" v="https://www.instagram.com/sparmagyarorszag"/>
    <tag k="name" v="Interspar"/>
    <tag k="operator" v="SPAR Magyarország Kereskedelmi Kft."/>
    <tag k="payment:cash" v="yes"/>
    <tag k="payment:debit_cards" v="yes"/>
    <tag k="phone" v="+36208237727"/>
    <tag k="shop" v="supermarket"/>
    <tag k="source" v="website"/>
    <tag k="source:date" v="2018-07-18"/>
    <tag k="toilets:wheelchair" v="yes"/>
    <tag k="website" v="https://www.spar.hu/content/aspiag_spar_hu/hu_HU/uzletek/10/interspar-hipermarket-3-keruelet.html"/>
    <tag k="wheelchair" v="yes"/>
    <tag k="youtube" v="https://www.youtube.com/channel/UC9tu8COHiy4WkeTIN1k_Y8A"/>
  </node>
  <!-- OSM link: https://osm.org/node/1167986293 -->
  <!-- Original coordinates: POINT (47.470433 19.156749) -->
  <!-- OSM <-> POI distance: 73.74565293 m-->
  <!-- Checker good: {not_in_water}; bad {}-->
  <!-- Original tags: 'name':'INTERSPAR'; 'shop':'supermarket'; 'website':'http://www.spar.hu'; 'wheelchair':'yes';  -->
  <node action="modify" changeset="1" id="1167986293" lat="47.4706267949121" lon="19.1558106973335" timestamp="2015-12-13T16:30:02Z" uid="4579407" user="KAMI" version="5">
    <tag k="addr:city" v="Budapest"/>
    <tag k="addr:country" v="HU"/>
    <tag k="addr:housenumber" v="30"/>
    <tag k="addr:postcode" v="1103"/>
    <tag k="addr:street" v="Sibrik Miklós út"/>
    <tag k="branch" v="Interspar hipermarket Budapest"/>
    <tag k="brand" v="Spar"/>
    <tag k="brand:wikidata" v="Q610492"/>
    <tag k="brand:wikipedia" v="hu:Spar "/>
    <tag k="email" v="vevoszolgalat@spar.hu"/>
    <tag k="facebook" v="https://www.facebook.com/sparmagyarorszag"/>
    <tag k="import" v="osm_poi_matchmaker"/>
    <tag k="instagram" v="https://www.instagram.com/sparmagyarorszag"/>
    <tag k="name" v="Interspar"/>
    <tag k="operator" v="SPAR Magyarország Kereskedelmi Kft."/>
    <tag k="payment:cash" v="yes"/>
    <tag k="payment:debit_cards" v="yes"/>
    <tag k="phone" v="+36208237727"/>
    <tag k="shop" v="supermarket"/>
    <tag k="source" v="website"/>
    <tag k="source:date" v="2018-07-18"/>
    <tag k="website" v="https://www.spar.hu/content/aspiag_spar_hu/hu_HU/uzletek/11/interspar-hipermarket-10-keruelet0.html"/>
    <tag k="wheelchair" v="yes"/>
    <tag k="youtube" v="https://www.youtube.com/channel/UC9tu8COHiy4WkeTIN1k_Y8A"/>
  </node>
  <!-- OSM link: https://osm.org/node/702905911 -->
  <!-- Original coordinates: POINT (47.5029 19.13633) -->
  <!-- OSM <-> POI distance: 179.3025195 m-->
  <!-- Checker good: {not_in_water}; bad {}-->
  <!-- Original tags: 'contact:website':'http://www.spar.hu'; 'name':'SPAR'; 'opening_hours':'Mo-Fr 06:30-21:30, Sa,Su 08:00-20:00'; 'shop':'supermarket'; 'website':'http://www.spar.hu'; 'wheelchair':'yes';  -->
  <node action="modify" changeset="1" id="702905911" lat="47.5041237949107" lon="19.137884297336" timestamp="2017-08-31T18:22:34Z" uid="4579407" user="KAMI" version="5">
    <tag k="addr:city" v="Budapest"/>
    <tag k="addr:country" v="HU"/>
    <tag k="addr:housenumber" v="61"/>
    <tag k="addr:postcode" v="1106"/>
    <tag k="addr:street" v="Kerepesi út"/>
    <tag k="branch" v="Interspar hipermarket Budapest"/>
    <tag k="brand" v="Spar"/>
    <tag k="brand:wikidata" v="Q610492"/>
    <tag k="brand:wikipedia" v="hu:Spar "/>
    <tag k="contact:website" v="http://www.spar.hu"/>
    <tag k="email" v="vevoszolgalat@spar.hu"/>
    <tag k="facebook" v="https://www.facebook.com/sparmagyarorszag"/>
    <tag k="import" v="osm_poi_matchmaker"/>
    <tag k="instagram" v="https://www.instagram.com/sparmagyarorszag"/>
    <tag k="name" v="Interspar"/>
    <tag k="opening_hours" v="Mo-Fr 06:30-21:30, Sa,Su 08:00-20:00"/>
    <tag k="operator" v="SPAR Magyarország Kereskedelmi Kft."/>
    <tag k="payment:cash" v="yes"/>
    <tag k="payment:debit_cards" v="yes"/>
    <tag k="phone" v="+36208237727"/>
    <tag k="shop" v="supermarket"/>
    <tag k="source" v="website"/>
    <tag k="source:date" v="2018-07-18"/>
    <tag k="website" v="https://www.spar.hu/content/aspiag_spar_hu/hu_HU/uzletek/11/interspar-hipermarket-10-keruelet.html"/>
    <tag k="wheelchair" v="yes"/>
    <tag k="youtube" v="https://www.youtube.com/channel/UC9tu8COHiy4WkeTIN1k_Y8A"/>
  </node>
  <!-- OSM link: https://osm.org/node/2398061520 -->
  <!-- Original coordinates: POINT (47.46405 19.12746) -->
  <!-- OSM <-> POI distance: 208.9883498 m-->
  <!-- Checker good: {not_in_water}; bad {}-->
  <!-- Original tags: 'name':'INTERSPAR'; 'opening_hours':'Mo-Th 07:00-21:00; Fr 07:00-22:00; Sa 07:00-21:00; Su 08:30-19:30'; 'shop':'supermarket'; 'website':'http://www.spar.hu'; 'wheelchair':'limited';  -->
  <node action="modify" changeset="1" id="2398061520" lat="47.4627804949124" lon="19.1295099973371" timestamp="2015-11-28T14:22:33Z" uid="4579407" user="KAMI" version="3">
    <tag k="addr:city" v="Budapest"/>
    <tag k="addr:country" v="HU"/>
    <tag k="addr:housenumber" v="201"/>
    <tag k="addr:postcode" v="1191"/>
    <tag k="addr:street" v="Üllői utca"/>
    <tag k="branch" v="Interspar hipermarket Budapest"/>
    <tag k="brand" v="Spar"/>
    <tag k="brand:wikidata" v="Q610492"/>
    <tag k="brand:wikipedia" v="hu:Spar "/>
    <tag k="email" v="vevoszolgalat@spar.hu"/>
    <tag k="facebook" v="https://www.facebook.com/sparmagyarorszag"/>
    <tag k="import" v="osm_poi_matchmaker"/>
    <tag k="instagram" v="https://www.instagram.com/sparmagyarorszag"/>
    <tag k="name" v="Interspar"/>
    <tag k="opening_hours" v="Mo-Th 07:00-21:00; Fr 07:00-22:00; Sa 07:00-21:00; Su 08:30-19:30"/>
    <tag k="operator" v="SPAR Magyarország Kereskedelmi Kft."/>
    <tag k="payment:cash" v="yes"/>
    <tag k="payment:debit_cards" v="yes"/>
    <tag k="phone" v="+36208237727"/>
    <tag k="shop" v="supermarket"/>
    <tag k="source" v="website"/>
    <tag k="source:date" v="2018-07-18"/>
    <tag k="website" v="https://www.spar.hu/content/aspiag_spar_hu/hu_HU/uzletek/11/interspar-hipermarket-budapest-19-keruelet.html"/>
    <tag k="wheelchair" v="limited"/>
    <tag k="youtube" v="https://www.youtube.com/channel/UC9tu8COHiy4WkeTIN1k_Y8A"/>
  </node>
  <!-- OSM link: https://osm.org/node/318617643 -->
  <!-- Original coordinates: POINT (47.43935 19.10088) -->
  <!-- OSM <-> POI distance: 41.48780626 m-->
  <!-- Checker good: {not_in_water}; bad {}-->
  <!-- Original tags: 'name':'INTERSPAR'; 'shop':'supermarket'; 'toilets:wheelchair':'no'; 'website':'http://www.spar.hu'; 'wheelchair':'yes';  -->
  <node action="modify" changeset="1" id="318617643" lat="47.4395460949134" lon="19.1004106973412" timestamp="2017-09-13T07:27:21Z" uid="4579407" user="KAMI" version="6">
    <tag k="addr:city" v="Budapest"/>
    <tag k="addr:country" v="HU"/>
    <tag k="addr:housenumber" v="1"/>
    <tag k="addr:postcode" v="1203"/>
    <tag k="addr:street" v="Széchenyi utca"/>
    <tag k="branch" v="Interspar hipermarket Budapest"/>
    <tag k="brand" v="Spar"/>
    <tag k="brand:wikidata" v="Q610492"/>
    <tag k="brand:wikipedia" v="hu:Spar "/>
    <tag k="email" v="vevoszolgalat@spar.hu"/>
    <tag k="facebook" v="https://www.facebook.com/sparmagyarorszag"/>
    <tag k="import" v="osm_poi_matchmaker"/>
    <tag k="instagram" v="https://www.instagram.com/sparmagyarorszag"/>
    <tag k="name" v="Interspar"/>
    <tag k="operator" v="SPAR Magyarország Kereskedelmi Kft."/>
    <tag k="payment:cash" v="yes"/>
    <tag k="payment:debit_cards" v="yes"/>
    <tag k="phone" v="+36208237727"/>
    <tag k="shop" v="supermarket"/>
    <tag k="source" v="website"/>
    <tag k="source:date" v="2018-07-18"/>
    <tag k="toilets:wheelchair" v="no"/>
    <tag k="website" v="https://www.spar.hu/content/aspiag_spar_hu/hu_HU/uzletek/12/interspar-hipermarket-budapest-20-keruelet.html"/>
    <tag k="wheelchair" v="yes"/>
    <tag k="youtube" v="https://www.youtube.com/channel/UC9tu8COHiy4WkeTIN1k_Y8A"/>
  </node>
  <!-- OSM link: https://osm.org/node/1963117485 -->
  <!-- Original coordinates: POINT (47.646068 19.063413) -->
  <!-- OSM <-> POI distance: 68.86685915 m-->
  <!-- Checker good: {not_in_water}; bad {}-->
  <!-- Original tags: 'name':'INTERSPAR'; 'shop':'supermarket'; 'toilets:wheelchair':'no'; 'website':'http://www.spar.hu'; 'wheelchair':'yes'; 'wheelchair:description':'nincs mozgáskorlátozottak számára kialakított mellékhelyiség';  -->
  <node action="modify" changeset="1" id="1963117485" lat="47.6466191949047" lon="19.0638321973463" timestamp="2017-09-11T11:33:48Z" uid="4579407" user="KAMI" version="3">
    <tag k="addr:city" v="Szentendre"/>
    <tag k="addr:country" v="HU"/>
    <tag k="addr:housenumber" v="4"/>
    <tag k="addr:postcode" v="2000"/>
    <tag k="addr:street" v="Dobogókői utca"/>
    <tag k="branch" v="Interspar hipermarket Szentendre"/>
    <tag k="brand" v="Spar"/>
    <tag k="brand:wikidata" v="Q610492"/>
    <tag k="brand:wikipedia" v="hu:Spar "/>
    <tag k="email" v="vevoszolgalat@spar.hu"/>
    <tag k="facebook" v="https://www.facebook.com/sparmagyarorszag"/>
    <tag k="import" v="osm_poi_matchmaker"/>
    <tag k="instagram" v="https://www.instagram.com/sparmagyarorszag"/>
    <tag k="name" v="Interspar"/>
    <tag k="operator" v="SPAR Magyarország Kereskedelmi Kft."/>
    <tag k="payment:cash" v="yes"/>
    <tag k="payment:debit_cards" v="yes"/>
    <tag k="phone" v="+36208237727"/>
    <tag k="shop" v="supermarket"/>
    <tag k="source" v="website"/>
    <tag k="source:date" v="2018-07-18"/>
    <tag k="toilets:wheelchair" v="no"/>
    <tag k="website" v="https://www.spar.hu/content/aspiag_spar_hu/hu_HU/uzletek/20/interspar-hipermarket-szentendre-.html"/>
    <tag k="wheelchair" v="yes"/>
    <tag k="wheelchair:description" v="nincs mozgáskorlátozottak számára kialakított mellékhelyiség"/>
    <tag k="youtube" v="https://www.youtube.com/channel/UC9tu8COHiy4WkeTIN1k_Y8A"/>
  </node>
  <!-- Original coordinates: POINT (47.41378 18.88284) -->
  <!-- OSM <-> POI distance: None m-->
  <!-- Checker good: {not_in_water}; bad {}-->
  <!-- Original tags:  -->
  <node action="modify" changeset="99999" id="-7" lat="47.41378" lon="18.88284" timestamp="" uid="4579407" user="KAMI" version="99999">
    <tag k="addr:city" v="Érd"/>
    <tag k="addr:country" v="HU"/>
    <tag k="addr:housenumber" v="5"/>
    <tag k="addr:postcode" v="2030"/>
    <tag k="addr:street" v="Iparos utca"/>
    <tag k="branch" v="Interspar hipermarket Érd"/>
    <tag k="brand" v="Spar"/>
    <tag k="brand:wikidata" v="Q610492"/>
    <tag k="brand:wikipedia" v="hu:Spar "/>
    <tag k="email" v="vevoszolgalat@spar.hu"/>
    <tag k="facebook" v="https://www.facebook.com/sparmagyarorszag"/>
    <tag k="import" v="osm_poi_matchmaker"/>
    <tag k="instagram" v="https://www.instagram.com/sparmagyarorszag"/>
    <tag k="name" v="Interspar"/>
    <tag k="operator" v="SPAR Magyarország Kereskedelmi Kft."/>
    <tag k="payment:cash" v="yes"/>
    <tag k="payment:debit_cards" v="yes"/>
    <tag k="phone" v="+36208237727"/>
    <tag k="shop" v="supermarket"/>
    <tag k="source" v="website"/>
    <tag k="source:date" v="2018-07-18"/>
    <tag k="website" v="https://www.spar.hu/content/aspiag_spar_hu/hu_HU/uzletek/20/interspar-hipermarket-erd.html"/>
    <tag k="youtube" v="https://www.youtube.com/channel/UC9tu8COHiy4WkeTIN1k_Y8A"/>
  </node>
  <!-- OSM link: https://osm.org/way/15117985 -->
  <!-- Original coordinates: POINT (47.404122 18.946629) -->
  <!-- OSM <-> POI distance: 12.23414179 m-->
  <!-- Checker good: {not_in_water}; bad {}-->
  <!-- Original tags: 'building':'retail'; 'name':'INTERSPAR'; 'shop':'supermarket'; 'toilets:wheelchair':'yes'; 'website':'http://www.spar.hu'; 'wheelchair':'yes'; 'wheelchair:description':'parkolóból mozgójárda';  -->
  <way action="modify" changeset="1" id="15117985" timestamp="2017-12-25T16:15:41Z" uid="4579407" user="KAMI" version="19">
    <nd ref="149377898"/>
    <nd ref="4899509764"/>
    <nd ref="4904115427"/>
    <nd ref="4904115426"/>
    <nd ref="2542278344"/>
    <nd ref="5276567987"/>
    <nd ref="4904115425"/>
    <nd ref="4904115424"/>
    <nd ref="2542278292"/>
    <nd ref="149377899"/>
    <nd ref="4915764863"/>
    <nd ref="149377900"/>
    <nd ref="5276568224"/>
    <nd ref="5276568223"/>
    <nd ref="5276568222"/>
    <nd ref="5276568019"/>
    <nd ref="2960192526"/>
    <nd ref="4915764886"/>
    <nd ref="5276568018"/>
    <nd ref="3791314868"/>
    <nd ref="149377901"/>
    <nd ref="5276568010"/>
    <nd ref="4904115428"/>
    <nd ref="149377898"/>
    <tag k="addr:city" v="Diósd"/>
    <tag k="addr:country" v="HU"/>
    <tag k="addr:housenumber" v="2/A"/>
    <tag k="addr:postcode" v="2049"/>
    <tag k="addr:street" v="Balatoni út"/>
    <tag k="branch" v="Interspar hipermarket Diósd"/>
    <tag k="brand" v="Spar"/>
    <tag k="brand:wikidata" v="Q610492"/>
    <tag k="brand:wikipedia" v="hu:Spar "/>
    <tag k="building" v="retail"/>
    <tag k="email" v="vevoszolgalat@spar.hu"/>
    <tag k="facebook" v="https://www.facebook.com/sparmagyarorszag"/>
    <tag k="import" v="osm_poi_matchmaker"/>
    <tag k="instagram" v="https://www.instagram.com/sparmagyarorszag"/>
    <tag k="name" v="Interspar"/>
    <tag k="operator" v="SPAR Magyarország Kereskedelmi Kft."/>
    <tag k="payment:cash" v="yes"/>
    <tag k="payment:debit_cards" v="yes"/>
    <tag k="phone" v="+36208237727"/>
    <tag k="shop" v="supermarket"/>
    <tag k="source" v="website"/>
    <tag k="source:date" v="2018-07-18"/>
    <tag k="toilets:wheelchair" v="yes"/>
    <tag k="website" v="https://www.spar.hu/content/aspiag_spar_hu/hu_HU/uzletek/20/interspar-hipermarket-diosd.html"/>
    <tag k="wheelchair" v="yes"/>
    <tag k="wheelchair:description" v="parkolóból mozgójárda"/>
    <tag k="youtube" v="https://www.youtube.com/channel/UC9tu8COHiy4WkeTIN1k_Y8A"/>
  </way>
  <!-- OSM link: https://osm.org/way/144206063 -->
  <!-- Original coordinates: POINT (46.9608 18.91948) -->
  <!-- OSM <-> POI distance: 21.47966234 m-->
  <!-- Checker good: {not_in_water}; bad {}-->
  <!-- Original tags: 'addr:city':'Dunaújváros'; 'addr:housenumber':'1'; 'addr:postcode':'2400'; 'addr:street':'Béke körút'; 'building':'retail'; 'building:levels':'1'; 'name':'InterSPAR'; 'opening_hours':'Mo-Sa 06:00-22:00; Su 06:00-19:00'; 'phone':'+36208238176'; 'shop':'supermarket'; 'toilets:wheelchair':'yes'; 'wheelchair':'yes';  -->
  <way action="modify" changeset="1" id="144206063" timestamp="2017-12-25T16:16:15Z" uid="4579407" user="KAMI" version="9">
    <nd ref="1577944362"/>
    <nd ref="1577944342"/>
    <nd ref="1577944355"/>
    <nd ref="1577944348"/>
    <nd ref="1577944362"/>
    <tag k="addr:city" v="Dunaújváros"/>
    <tag k="addr:country" v="HU"/>
    <tag k="addr:housenumber" v="2"/>
    <tag k="addr:postcode" v="2400"/>
    <tag k="addr:street" v="Béke körút"/>
    <tag k="branch" v="Interspar hipermarket Dunaújváros"/>
    <tag k="brand" v="Spar"/>
    <tag k="brand:wikidata" v="Q610492"/>
    <tag k="brand:wikipedia" v="hu:Spar "/>
    <tag k="building" v="retail"/>
    <tag k="building:levels" v="1"/>
    <tag k="email" v="vevoszolgalat@spar.hu"/>
    <tag k="facebook" v="https://www.facebook.com/sparmagyarorszag"/>
    <tag k="import" v="osm_poi_matchmaker"/>
    <tag k="instagram" v="https://www.instagram.com/sparmagyarorszag"/>
    <tag k="name" v="Interspar"/>
    <tag k="opening_hours" v="Mo-Sa 06:00-22:00; Su 06:00-19:00"/>
    <tag k="operator" v="SPAR Magyarország Kereskedelmi Kft."/>
    <tag k="payment:cash" v="yes"/>
    <tag k="payment:debit_cards" v="yes"/>
    <tag k="phone" v="+36208237727"/>
    <tag k="shop" v="supermarket"/>
    <tag k="source" v="website"/>
    <tag k="source:date" v="2018-07-18"/>
    <tag k="toilets:wheelchair" v="yes"/>
    <tag k="website" v="https://www.spar.hu/content/aspiag_spar_hu/hu_HU/uzletek/24/interspar-hipermarket-dunaujvaros.html"/>
    <tag k="wheelchair" v="yes"/>
    <tag k="youtube" v="https://www.youtube.com/channel/UC9tu8COHiy4WkeTIN1k_Y8A"/>
  </way>
  <!-- OSM link: https://osm.org/way/100860900 -->
  <!-- Original coordinates: POINT (47.591261 18.390463) -->
  <!-- OSM <-> POI distance: 28.37711444 m-->
  <!-- Checker good: {not_in_water}; bad {}-->
  <!-- Original tags: 'addr:postcode':'2800'; 'addr:street':'Jedlik Ányos utca'; 'building':'retail'; 'name':'Interspar Tatabánya'; 'shop':'supermarket';  -->
  <way action="modify" changeset="1" id="100860900" timestamp="2017-12-25T16:15:56Z" uid="4579407" user="KAMI" version="7">
    <nd ref="1165588745"/>
    <nd ref="1165588641"/>
    <nd ref="1165588690"/>
    <nd ref="1165589340"/>
    <nd ref="1165588745"/>
    <tag k="addr:city" v="Tatabánya"/>
    <tag k="addr:country" v="HU"/>
    <tag k="addr:housenumber" v="25"/>
    <tag k="addr:postcode" v="2800"/>
    <tag k="addr:street" v="Győri út"/>
    <tag k="branch" v="Interspar hipermarket Tatabánya"/>
    <tag k="brand" v="Spar"/>
    <tag k="brand:wikidata" v="Q610492"/>
    <tag k="brand:wikipedia" v="hu:Spar "/>
    <tag k="building" v="retail"/>
    <tag k="email" v="vevoszolgalat@spar.hu"/>
    <tag k="facebook" v="https://www.facebook.com/sparmagyarorszag"/>
    <tag k="import" v="osm_poi_matchmaker"/>
    <tag k="instagram" v="https://www.instagram.com/sparmagyarorszag"/>
    <tag k="name" v="Interspar"/>
    <tag k="operator" v="SPAR Magyarország Kereskedelmi Kft."/>
    <tag k="payment:cash" v="yes"/>
    <tag k="payment:debit_cards" v="yes"/>
    <tag k="phone" v="+36208237727"/>
    <tag k="shop" v="supermarket"/>
    <tag k="source" v="website"/>
    <tag k="source:date" v="2018-07-18"/>
    <tag k="website" v="https://www.spar.hu/content/aspiag_spar_hu/hu_HU/uzletek/28/interspar-hipermarket-tatabanya.html"/>
    <tag k="youtube" v="https://www.youtube.com/channel/UC9tu8COHiy4WkeTIN1k_Y8A"/>
  </way>
  <!-- OSM link: https://osm.org/node/3308611700 -->
  <!-- Original coordinates: POINT (48.10268 20.79223) -->
  <!-- OSM <-> POI distance: 13.87082664 m-->
  <!-- Checker good: {not_in_water}; bad {}-->
  <!-- Original tags: 'name':'Interspar'; 'shop':'supermarket'; 'website':'http://www.spar.hu'; 'wheelchair':'yes';  -->
  <node action="modify" changeset="1" id="3308611700" lat="48.1026907948861" lon="20.7924160971057" timestamp="2015-11-20T21:40:34Z" uid="4579407" user="KAMI" version="4">
    <tag k="addr:city" v="Miskolc"/>
    <tag k="addr:country" v="HU"/>
    <tag k="addr:housenumber" v="2-4"/>
    <tag k="addr:postcode" v="3530"/>
    <tag k="addr:street" v="Bajcsy-Zsilinszky út"/>
    <tag k="branch" v="Interspar hipermarket Miskolc"/>
    <tag k="brand" v="Spar"/>
    <tag k="brand:wikidata" v="Q610492"/>
    <tag k="brand:wikipedia" v="hu:Spar "/>
    <tag k="email" v="vevoszolgalat@spar.hu"/>
    <tag k="facebook" v="https://www.facebook.com/sparmagyarorszag"/>
    <tag k="import" v="osm_poi_matchmaker"/>
    <tag k="instagram" v="https://www.instagram.com/sparmagyarorszag"/>
    <tag k="name" v="Interspar"/>
    <tag k="operator" v="SPAR Magyarország Kereskedelmi Kft."/>
    <tag k="payment:cash" v="yes"/>
    <tag k="payment:debit_cards" v="yes"/>
    <tag k="phone" v="+36208237727"/>
    <tag k="shop" v="supermarket"/>
    <tag k="source" v="website"/>
    <tag k="source:date" v="2018-07-18"/>
    <tag k="website" v="https://www.spar.hu/content/aspiag_spar_hu/hu_HU/uzletek/35/interspar-hipermarket-miskolc.html"/>
    <tag k="wheelchair" v="yes"/>
    <tag k="youtube" v="https://www.youtube.com/channel/UC9tu8COHiy4WkeTIN1k_Y8A"/>
  </node>
  <!-- OSM link: https://osm.org/way/357284270 -->
  <!-- Original coordinates: POINT (48.22172 20.28103) -->
  <!-- OSM <-> POI distance: 6.77253329 m-->
  <!-- Checker good: {not_in_water}; bad {}-->
  <!-- Original tags: 'building':'retail'; 'name':'Interspar'; 'shop':'supermarket'; 'toilets:wheelchair':'yes'; 'wheelchair':'yes';  -->
  <way action="modify" changeset="1" id="357284270" timestamp="2017-12-25T16:18:04Z" uid="4579407" user="KAMI" version="7">
    <nd ref="3626013269"/>
    <nd ref="5246830034"/>
    <nd ref="5246830033"/>
    <nd ref="5246830028"/>
    <nd ref="5246830030"/>
    <nd ref="5246830031"/>
    <nd ref="5246830032"/>
    <nd ref="5246830029"/>
    <nd ref="3626013271"/>
    <nd ref="5246543445"/>
    <nd ref="5246543446"/>
    <nd ref="5246543447"/>
    <nd ref="5246543448"/>
    <nd ref="5246543444"/>
    <nd ref="5246543443"/>
    <nd ref="3626013272"/>
    <nd ref="5246830035"/>
    <nd ref="5246830036"/>
    <nd ref="3626013273"/>
    <nd ref="3626013274"/>
    <nd ref="3626013269"/>
    <tag k="addr:city" v="Ózd"/>
    <tag k="addr:country" v="HU"/>
    <tag k="addr:housenumber" v="4"/>
    <tag k="addr:postcode" v="3600"/>
    <tag k="addr:street" v="Sárli út"/>
    <tag k="branch" v="Interspar hipermarket Ózd"/>
    <tag k="brand" v="Spar"/>
    <tag k="brand:wikidata" v="Q610492"/>
    <tag k="brand:wikipedia" v="hu:Spar "/>
    <tag k="building" v="retail"/>
    <tag k="email" v="vevoszolgalat@spar.hu"/>
    <tag k="facebook" v="https://www.facebook.com/sparmagyarorszag"/>
    <tag k="import" v="osm_poi_matchmaker"/>
    <tag k="instagram" v="https://www.instagram.com/sparmagyarorszag"/>
    <tag k="name" v="Interspar"/>
    <tag k="operator" v="SPAR Magyarország Kereskedelmi Kft."/>
    <tag k="payment:cash" v="yes"/>
    <tag k="payment:debit_cards" v="yes"/>
    <tag k="phone" v="+36208237727"/>
    <tag k="shop" v="supermarket"/>
    <tag k="source" v="website"/>
    <tag k="source:date" v="2018-07-18"/>
    <tag k="toilets:wheelchair" v="yes"/>
    <tag k="website" v="https://www.spar.hu/content/aspiag_spar_hu/hu_HU/uzletek/36/interspar-hipermarket-ozd.html"/>
    <tag k="wheelchair" v="yes"/>
    <tag k="youtube" v="https://www.youtube.com/channel/UC9tu8COHiy4WkeTIN1k_Y8A"/>
  </way>
  <!-- OSM link: https://osm.org/node/1944079233 -->
  <!-- Original coordinates: POINT (47.54167 21.61981) -->
  <!-- OSM <-> POI distance: 96.77783917 m-->
  <!-- Checker good: {not_in_water}; bad {}-->
  <!-- Original tags: 'name':'INTERSPAR'; 'shop':'supermarket'; 'toilets:wheelchair':'yes'; 'website':'http://www.spar.hu'; 'wheelchair':'yes';  -->
  <node action="modify" changeset="1" id="1944079233" lat="47.5423789949091" lon="21.6205577969904" timestamp="2017-09-01T05:33:03Z" uid="4579407" user="KAMI" version="5">
    <tag k="addr:city" v="Debrecen"/>
    <tag k="addr:country" v="HU"/>
    <tag k="addr:housenumber" v="27"/>
    <tag k="addr:postcode" v="4027"/>
    <tag k="addr:street" v="Füredi út"/>
    <tag k="branch" v="Interspar hipermarket Debrecen"/>
    <tag k="brand" v="Spar"/>
    <tag k="brand:wikidata" v="Q610492"/>
    <tag k="brand:wikipedia" v="hu:Spar "/>
    <tag k="email" v="vevoszolgalat@spar.hu"/>
    <tag k="facebook" v="https://www.facebook.com/sparmagyarorszag"/>
    <tag k="import" v="osm_poi_matchmaker"/>
    <tag k="instagram" v="https://www.instagram.com/sparmagyarorszag"/>
    <tag k="name" v="Interspar"/>
    <tag k="operator" v="SPAR Magyarország Kereskedelmi Kft."/>
    <tag k="payment:cash" v="yes"/>
    <tag k="payment:debit_cards" v="yes"/>
    <tag k="phone" v="+36208237727"/>
    <tag k="shop" v="supermarket"/>
    <tag k="source" v="website"/>
    <tag k="source:date" v="2018-07-18"/>
    <tag k="toilets:wheelchair" v="yes"/>
    <tag k="website" v="https://www.spar.hu/content/aspiag_spar_hu/hu_HU/uzletek/40/interspar-hipermarket-debrecen.html"/>
    <tag k="wheelchair" v="yes"/>
    <tag k="youtube" v="https://www.youtube.com/channel/UC9tu8COHiy4WkeTIN1k_Y8A"/>
  </node>
  <!-- OSM link: https://osm.org/way/271770104 -->
  <!-- Original coordinates: POINT (47.955953 21.727577) -->
  <!-- OSM <-> POI distance: 20.5391193 m-->
  <!-- Checker good: {not_in_water}; bad {}-->
  <!-- Original tags: 'addr:city':'Nyíregyháza'; 'addr:country':'HU'; 'addr:housenumber':'8'; 'addr:postcode':'4400'; 'addr:street':'László utca'; 'building':'retail'; 'name':'Interspar'; 'opening_hours':'Mo-Sa 06:00-22:00; Su 08:00-19:00'; 'phone':'+36 20 823 8116'; 'ref':'5110'; 'shop':'supermarket'; 'source':'route4u'; 'website':'http://www.spar.hu'; 'wheelchair':'yes';  -->
  <way action="modify" changeset="1" id="271770104" timestamp="2018-05-31T16:41:50Z" uid="4579407" user="KAMI" version="16">
    <nd ref="3028365147"/>
    <nd ref="2767098614"/>
    <nd ref="2767098615"/>
    <nd ref="2767098616"/>
    <nd ref="2767098617"/>
    <nd ref="2767098618"/>
    <nd ref="2767098619"/>
    <nd ref="2767098620"/>
    <nd ref="2767098621"/>
    <nd ref="2767098622"/>
    <nd ref="2767098624"/>
    <nd ref="2767098625"/>
    <nd ref="3030088328"/>
    <nd ref="3028365147"/>
    <tag k="addr:city" v="Nyíregyháza"/>
    <tag k="addr:country" v="HU"/>
    <tag k="addr:housenumber" v="8"/>
    <tag k="addr:postcode" v="4400"/>
    <tag k="addr:street" v="László utca"/>
    <tag k="branch" v="Interspar hipermarket Nyíregyháza"/>
    <tag k="brand" v="Spar"/>
    <tag k="brand:wikidata" v="Q610492"/>
    <tag k="brand:wikipedia" v="hu:Spar "/>
    <tag k="building" v="retail"/>
    <tag k="email" v="vevoszolgalat@spar.hu"/>
    <tag k="facebook" v="https://www.facebook.com/sparmagyarorszag"/>
    <tag k="import" v="osm_poi_matchmaker"/>
    <tag k="instagram" v="https://www.instagram.com/sparmagyarorszag"/>
    <tag k="name" v="Interspar"/>
    <tag k="opening_hours" v="Mo-Sa 06:00-22:00; Su 08:00-19:00"/>
    <tag k="operator" v="SPAR Magyarország Kereskedelmi Kft."/>
    <tag k="payment:cash" v="yes"/>
    <tag k="payment:debit_cards" v="yes"/>
    <tag k="phone" v="+36208237727"/>
    <tag k="ref" v="5110"/>
    <tag k="shop" v="supermarket"/>
    <tag k="source" v="website"/>
    <tag k="source:date" v="2018-07-18"/>
    <tag k="website" v="https://www.spar.hu/content/aspiag_spar_hu/hu_HU/uzletek/44/interspar-hipermarket-nyiregyhaza.html"/>
    <tag k="wheelchair" v="yes"/>
    <tag k="youtube" v="https://www.youtube.com/channel/UC9tu8COHiy4WkeTIN1k_Y8A"/>
  </way>
  <!-- OSM link: https://osm.org/way/298872726 -->
  <!-- Original coordinates: POINT (47.97224 21.72651) -->
  <!-- OSM <-> POI distance: 49.34527329 m-->
  <!-- Checker good: {not_in_water}; bad {}-->
  <!-- Original tags: 'addr:city':'Nyíregyháza'; 'addr:housenumber':'5'; 'addr:postcode':'4400'; 'addr:street':'Korányi Frigyes út'; 'building':'retail'; 'name':'Interspar'; 'opening_hours':'Mo-Sa 06:00-22:00; Su 08:00-19:00'; 'phone':'+36 20 823 8286'; 'shop':'supermarket'; 'toilets:wheelchair':'yes'; 'website':'http://www.spar.hu'; 'wheelchair':'yes';  -->
  <way action="modify" changeset="1" id="298872726" timestamp="2018-01-19T19:26:01Z" uid="4579407" user="KAMI" version="12">
    <nd ref="3028391852"/>
    <nd ref="3028391853"/>
    <nd ref="3028391854"/>
    <nd ref="3028391855"/>
    <nd ref="3028391856"/>
    <nd ref="3281039297"/>
    <nd ref="3028391857"/>
    <nd ref="3281039296"/>
    <nd ref="3028391858"/>
    <nd ref="3028391852"/>
    <tag k="addr:city" v="Nyíregyháza"/>
    <tag k="addr:country" v="HU"/>
    <tag k="addr:housenumber" v="5"/>
    <tag k="addr:postcode" v="4400"/>
    <tag k="addr:street" v="Korányi Frigyes utca"/>
    <tag k="branch" v="Interspar hipermarket Nyíregyháza"/>
    <tag k="brand" v="Spar"/>
    <tag k="brand:wikidata" v="Q610492"/>
    <tag k="brand:wikipedia" v="hu:Spar "/>
    <tag k="building" v="retail"/>
    <tag k="email" v="vevoszolgalat@spar.hu"/>
    <tag k="facebook" v="https://www.facebook.com/sparmagyarorszag"/>
    <tag k="import" v="osm_poi_matchmaker"/>
    <tag k="instagram" v="https://www.instagram.com/sparmagyarorszag"/>
    <tag k="name" v="Interspar"/>
    <tag k="opening_hours" v="Mo-Sa 06:00-22:00; Su 08:00-19:00"/>
    <tag k="operator" v="SPAR Magyarország Kereskedelmi Kft."/>
    <tag k="payment:cash" v="yes"/>
    <tag k="payment:debit_cards" v="yes"/>
    <tag k="phone" v="+36208237727"/>
    <tag k="shop" v="supermarket"/>
    <tag k="source" v="website"/>
    <tag k="source:date" v="2018-07-18"/>
    <tag k="toilets:wheelchair" v="yes"/>
    <tag k="website" v="https://www.spar.hu/content/aspiag_spar_hu/hu_HU/uzletek/44/interspar-hipermarket-nyiregyhaza-ii-.html"/>
    <tag k="wheelchair" v="yes"/>
    <tag k="youtube" v="https://www.youtube.com/channel/UC9tu8COHiy4WkeTIN1k_Y8A"/>
  </way>
  <!-- OSM link: https://osm.org/way/168588596 -->
  <!-- Original coordinates: POINT (47.179982 20.182813) -->
  <!-- OSM <-> POI distance: 0.0 m-->
  <!-- Checker good: {not_in_water}; bad {}-->
  <!-- Original tags: 'addr:city':'Szolnok'; 'addr:housenumber':'29'; 'addr:postcode':'5000'; 'addr:street':'Mátyás Király út'; 'building':'retail'; 'name':'INTERSPAR'; 'opening_hours':'Mo-Fr 08:30-21:00'; 'shop':'supermarket'; 'toilets:wheelchair':'yes'; 'website':'http://www.spar.hu'; 'wheelchair':'yes';  -->
  <way action="modify" changeset="1" id="168588596" timestamp="2017-09-15T09:27:54Z" uid="4579407" user="KAMI" version="10">
    <nd ref="1798291160"/>
    <nd ref="1798291166"/>
    <nd ref="1798291168"/>
    <nd ref="1798291172"/>
    <nd ref="1798291170"/>
    <nd ref="1798291173"/>
    <nd ref="1798291165"/>
    <nd ref="1798291163"/>
    <nd ref="1798291158"/>
    <nd ref="3265308894"/>
    <nd ref="3265308895"/>
    <nd ref="1798291151"/>
    <nd ref="1798291150"/>
    <nd ref="1798291149"/>
    <nd ref="1798291156"/>
    <nd ref="1798291155"/>
    <nd ref="1798291160"/>
    <tag k="addr:city" v="Szolnok"/>
    <tag k="addr:country" v="HU"/>
    <tag k="addr:housenumber" v="29"/>
    <tag k="addr:postcode" v="5000"/>
    <tag k="addr:street" v="Mátyás király út"/>
    <tag k="branch" v="Interspar hipermarket Szolnok"/>
    <tag k="brand" v="Spar"/>
    <tag k="brand:wikidata" v="Q610492"/>
    <tag k="brand:wikipedia" v="hu:Spar "/>
    <tag k="building" v="retail"/>
    <tag k="email" v="vevoszolgalat@spar.hu"/>
    <tag k="facebook" v="https://www.facebook.com/sparmagyarorszag"/>
    <tag k="import" v="osm_poi_matchmaker"/>
    <tag k="instagram" v="https://www.instagram.com/sparmagyarorszag"/>
    <tag k="name" v="Interspar"/>
    <tag k="opening_hours" v="Mo-Fr 08:30-21:00"/>
    <tag k="operator" v="SPAR Magyarország Kereskedelmi Kft."/>
    <tag k="payment:cash" v="yes"/>
    <tag k="payment:debit_cards" v="yes"/>
    <tag k="phone" v="+36208237727"/>
    <tag k="shop" v="supermarket"/>
    <tag k="source" v="website"/>
    <tag k="source:date" v="2018-07-18"/>
    <tag k="toilets:wheelchair" v="yes"/>
    <tag k="website" v="https://www.spar.hu/content/aspiag_spar_hu/hu_HU/uzletek/50/interspar-hipermarket-szolnok.html"/>
    <tag k="wheelchair" v="yes"/>
    <tag k="youtube" v="https://www.youtube.com/channel/UC9tu8COHiy4WkeTIN1k_Y8A"/>
  </way>
  <!-- OSM link: https://osm.org/way/264961886 -->
  <!-- Original coordinates: POINT (46.639507 21.26215) -->
  <!-- OSM <-> POI distance: 0.0 m-->
  <!-- Checker good: {not_in_water}; bad {}-->
  <!-- Original tags: 'building':'retail'; 'name':'INTERSPAR'; 'shop':'supermarket'; 'website':'http://www.spar.hu'; 'wheelchair':'yes';  -->
  <way action="modify" changeset="1" id="264961886" timestamp="2017-12-25T16:17:21Z" uid="4579407" user="KAMI" version="5">
    <nd ref="2388594265"/>
    <nd ref="2706102022"/>
    <nd ref="2706102025"/>
    <nd ref="2706102027"/>
    <nd ref="2706102030"/>
    <nd ref="2706102032"/>
    <nd ref="2706102034"/>
    <nd ref="2706102036"/>
    <nd ref="2388594253"/>
    <nd ref="2388594265"/>
    <tag k="addr:city" v="Gyula"/>
    <tag k="addr:country" v="HU"/>
    <tag k="addr:housenumber" v="1"/>
    <tag k="addr:postcode" v="5700"/>
    <tag k="addr:street" v="Kétegyházi út"/>
    <tag k="branch" v="Interspar hipermarket Gyula"/>
    <tag k="brand" v="Spar"/>
    <tag k="brand:wikidata" v="Q610492"/>
    <tag k="brand:wikipedia" v="hu:Spar "/>
    <tag k="building" v="retail"/>
    <tag k="email" v="vevoszolgalat@spar.hu"/>
    <tag k="facebook" v="https://www.facebook.com/sparmagyarorszag"/>
    <tag k="import" v="osm_poi_matchmaker"/>
    <tag k="instagram" v="https://www.instagram.com/sparmagyarorszag"/>
    <tag k="name" v="Interspar"/>
    <tag k="operator" v="SPAR Magyarország Kereskedelmi Kft."/>
    <tag k="payment:cash" v="yes"/>
    <tag k="payment:debit_cards" v="yes"/>
    <tag k="phone" v="+36208237727"/>
    <tag k="shop" v="supermarket"/>
    <tag k="source" v="website"/>
    <tag k="source:date" v="2018-07-18"/>
    <tag k="website" v="https://www.spar.hu/content/aspiag_spar_hu/hu_HU/uzletek/57/interspar-hipermarket-gyula.html"/>
    <tag k="wheelchair" v="yes"/>
    <tag k="youtube" v="https://www.youtube.com/channel/UC9tu8COHiy4WkeTIN1k_Y8A"/>
  </way>
  <!-- OSM link: https://osm.org/node/1866096038 -->
  <!-- Original coordinates: POINT (46.409886 20.322447) -->
  <!-- OSM <-> POI distance: 74.24782546 m-->
  <!-- Checker good: {not_in_water}; bad {}-->
  <!-- Original tags: 'name':'INTERSPAR'; 'shop':'supermarket'; 'toilets:wheelchair':'yes'; 'website':'http://www.spar.hu'; 'wheelchair':'yes';  -->
  <node action="modify" changeset="1" id="1866096038" lat="46.4099621949594" lon="20.3214848971712" timestamp="2017-09-06T12:41:06Z" uid="4579407" user="KAMI" version="3">
    <tag k="addr:city" v="Hódmezővásárhely"/>
    <tag k="addr:country" v="HU"/>
    <tag k="addr:housenumber" v="20"/>
    <tag k="addr:postcode" v="6800"/>
    <tag k="addr:street" v="Kaszap utca"/>
    <tag k="branch" v="Interspar hipermarket Hódmezővásárhely"/>
    <tag k="brand" v="Spar"/>
    <tag k="brand:wikidata" v="Q610492"/>
    <tag k="brand:wikipedia" v="hu:Spar "/>
    <tag k="email" v="vevoszolgalat@spar.hu"/>
    <tag k="facebook" v="https://www.facebook.com/sparmagyarorszag"/>
    <tag k="import" v="osm_poi_matchmaker"/>
    <tag k="instagram" v="https://www.instagram.com/sparmagyarorszag"/>
    <tag k="name" v="Interspar"/>
    <tag k="operator" v="SPAR Magyarország Kereskedelmi Kft."/>
    <tag k="payment:cash" v="yes"/>
    <tag k="payment:debit_cards" v="yes"/>
    <tag k="phone" v="+36208237727"/>
    <tag k="shop" v="supermarket"/>
    <tag k="source" v="website"/>
    <tag k="source:date" v="2018-07-18"/>
    <tag k="toilets:wheelchair" v="yes"/>
    <tag k="website" v="https://www.spar.hu/content/aspiag_spar_hu/hu_HU/uzletek/68/interspar-hipermarket-hodmezvasarhely.html"/>
    <tag k="wheelchair" v="yes"/>
    <tag k="youtube" v="https://www.youtube.com/channel/UC9tu8COHiy4WkeTIN1k_Y8A"/>
  </node>
  <!-- OSM link: https://osm.org/way/294992838 -->
  <!-- Original coordinates: POINT (46.3434416 18.71086) -->
  <!-- OSM <-> POI distance: 192.00029406 m-->
  <!-- Checker good: {not_in_water}; bad {}-->
  <!-- Original tags: 'building':'retail'; 'name':'INTERSPAR'; 'shop':'supermarket'; 'website':'http://www.spar.hu'; 'wheelchair':'yes';  -->
  <way action="modify" changeset="1" id="294992838" timestamp="2017-12-25T16:17:41Z" uid="4579407" user="KAMI" version="5">
    <nd ref="2986373404"/>
    <nd ref="2986373405"/>
    <nd ref="2986373391"/>
    <nd ref="2986373392"/>
    <nd ref="2986373404"/>
    <tag k="addr:city" v="Szekszárd"/>
    <tag k="addr:country" v="HU"/>
    <tag k="addr:housenumber" v="9"/>
    <tag k="addr:postcode" v="7100"/>
    <tag k="addr:street" v="Tartsay utca"/>
    <tag k="branch" v="Interspar hipermarket Szekszárd"/>
    <tag k="brand" v="Spar"/>
    <tag k="brand:wikidata" v="Q610492"/>
    <tag k="brand:wikipedia" v="hu:Spar "/>
    <tag k="building" v="retail"/>
    <tag k="email" v="vevoszolgalat@spar.hu"/>
    <tag k="facebook" v="https://www.facebook.com/sparmagyarorszag"/>
    <tag k="import" v="osm_poi_matchmaker"/>
    <tag k="instagram" v="https://www.instagram.com/sparmagyarorszag"/>
    <tag k="name" v="Interspar"/>
    <tag k="operator" v="SPAR Magyarország Kereskedelmi Kft."/>
    <tag k="payment:cash" v="yes"/>
    <tag k="payment:debit_cards" v="yes"/>
    <tag k="phone" v="+36208237727"/>
    <tag k="shop" v="supermarket"/>
    <tag k="source" v="website"/>
    <tag k="source:date" v="2018-07-18"/>
    <tag k="website" v="https://www.spar.hu/content/aspiag_spar_hu/hu_HU/uzletek/71/interspar-hipermarket-szekszard.html"/>
    <tag k="wheelchair" v="yes"/>
    <tag k="youtube" v="https://www.youtube.com/channel/UC9tu8COHiy4WkeTIN1k_Y8A"/>
  </way>
  <!-- OSM link: https://osm.org/way/257634788 -->
  <!-- Original coordinates: POINT (46.0460506 18.2318198) -->
  <!-- OSM <-> POI distance: 429.22528574 m-->
  <!-- Checker good: {not_in_water}; bad {}-->
  <!-- Original tags: 'addr:city':'Pécs'; 'addr:housenumber':'5'; 'addr:postcode':'7632'; 'addr:street':'Málomi út'; 'building':'retail'; 'contact:website':'http://www.spar.hu'; 'name':'SPAR (volt)'; 'shop':'supermarket'; 'website':'http://www.spar.hu';  -->
  <way action="modify" changeset="1" id="257634788" timestamp="2017-12-25T16:17:15Z" uid="4579407" user="KAMI" version="8">
    <nd ref="2631237786"/>
    <nd ref="2631237790"/>
    <nd ref="2631237791"/>
    <nd ref="2631237793"/>
    <nd ref="2631237800"/>
    <nd ref="2631237806"/>
    <nd ref="2631237804"/>
    <nd ref="2631237813"/>
    <nd ref="2631237795"/>
    <nd ref="2631237802"/>
    <nd ref="2631237792"/>
    <nd ref="2631237786"/>
    <tag k="addr:city" v="Pécs"/>
    <tag k="addr:country" v="HU"/>
    <tag k="addr:housenumber" v="37"/>
    <tag k="addr:postcode" v="7632"/>
    <tag k="addr:street" v="Siklósi út"/>
    <tag k="branch" v="Interspar hipermarket Pécs"/>
    <tag k="brand" v="Spar"/>
    <tag k="brand:wikidata" v="Q610492"/>
    <tag k="brand:wikipedia" v="hu:Spar "/>
    <tag k="building" v="retail"/>
    <tag k="contact:website" v="http://www.spar.hu"/>
    <tag k="email" v="vevoszolgalat@spar.hu"/>
    <tag k="facebook" v="https://www.facebook.com/sparmagyarorszag"/>
    <tag k="import" v="osm_poi_matchmaker"/>
    <tag k="instagram" v="https://www.instagram.com/sparmagyarorszag"/>
    <tag k="name" v="Interspar"/>
    <tag k="operator" v="SPAR Magyarország Kereskedelmi Kft."/>
    <tag k="payment:cash" v="yes"/>
    <tag k="payment:debit_cards" v="yes"/>
    <tag k="phone" v="+36208237727"/>
    <tag k="shop" v="supermarket"/>
    <tag k="source" v="website"/>
    <tag k="source:date" v="2018-07-18"/>
    <tag k="website" v="https://www.spar.hu/content/aspiag_spar_hu/hu_HU/uzletek/76/interspar-hipermarket-pecs.html"/>
    <tag k="youtube" v="https://www.youtube.com/channel/UC9tu8COHiy4WkeTIN1k_Y8A"/>
  </way>
  <!-- OSM link: https://osm.org/node/3184261528 -->
  <!-- Original coordinates: POINT (46.0714004 18.2298371) -->
  <!-- OSM <-> POI distance: 209.66662673 m-->
  <!-- Checker good: {not_in_water}; bad {}-->
  <!-- Original tags: 'fixme':'Replace it to the correct place within the mall. Add details'; 'name':'INTERSPAR'; 'shop':'supermarket'; 'source':'sign'; 'website':'http://www.spar.hu'; 'wheelchair':'yes';  -->
  <node action="modify" changeset="1" id="3184261528" lat="46.0720084949754" lon="18.232409797462" timestamp="2015-10-25T11:50:39Z" uid="4579407" user="KAMI" version="5">
    <tag k="addr:city" v="Pécs"/>
    <tag k="addr:country" v="HU"/>
    <tag k="addr:housenumber" v="11"/>
    <tag k="addr:postcode" v="7622"/>
    <tag k="addr:street" v="Bajcsy-Zsilinszky utca"/>
    <tag k="branch" v="Interspar hipermarket Pécs"/>
    <tag k="brand" v="Spar"/>
    <tag k="brand:wikidata" v="Q610492"/>
    <tag k="brand:wikipedia" v="hu:Spar "/>
    <tag k="email" v="vevoszolgalat@spar.hu"/>
    <tag k="facebook" v="https://www.facebook.com/sparmagyarorszag"/>
    <tag k="fixme" v="Replace it to the correct place within the mall. Add details"/>
    <tag k="import" v="osm_poi_matchmaker"/>
    <tag k="instagram" v="https://www.instagram.com/sparmagyarorszag"/>
    <tag k="name" v="Interspar"/>
    <tag k="operator" v="SPAR Magyarország Kereskedelmi Kft."/>
    <tag k="payment:cash" v="yes"/>
    <tag k="payment:debit_cards" v="yes"/>
    <tag k="phone" v="+36208237727"/>
    <tag k="shop" v="supermarket"/>
    <tag k="source" v="website"/>
    <tag k="source:date" v="2018-07-18"/>
    <tag k="website" v="https://www.spar.hu/content/aspiag_spar_hu/hu_HU/uzletek/76/interspar-hipermarket-pecs0.html"/>
    <tag k="wheelchair" v="yes"/>
    <tag k="youtube" v="https://www.youtube.com/channel/UC9tu8COHiy4WkeTIN1k_Y8A"/>
  </node>
  <!-- OSM link: https://osm.org/way/211944203 -->
  <!-- Original coordinates: POINT (47.19118 18.42367) -->
  <!-- OSM <-> POI distance: 35.42698852 m-->
  <!-- Checker good: {not_in_water}; bad {}-->
  <!-- Original tags: 'building':'yes'; 'name':'Interspar'; 'shop':'supermarket';  -->
  <way action="modify" changeset="1" id="211944203" timestamp="2018-01-27T20:29:14Z" uid="4579407" user="KAMI" version="7">
    <nd ref="2218677354"/>
    <nd ref="2218677319"/>
    <nd ref="2218677334"/>
    <nd ref="2218677359"/>
    <nd ref="2218677403"/>
    <nd ref="2218677356"/>
    <nd ref="2218677373"/>
    <nd ref="2218677345"/>
    <nd ref="2218677384"/>
    <nd ref="2218677380"/>
    <nd ref="2218677388"/>
    <nd ref="2218677376"/>
    <nd ref="2218677342"/>
    <nd ref="2218677352"/>
    <nd ref="2218677350"/>
    <nd ref="2218677347"/>
    <nd ref="2218677360"/>
    <nd ref="2218677336"/>
    <nd ref="2218677355"/>
    <nd ref="2218677357"/>
    <nd ref="2218677358"/>
    <nd ref="2218677362"/>
    <nd ref="2218677399"/>
    <nd ref="2218677393"/>
    <nd ref="2218677369"/>
    <nd ref="2218677340"/>
    <nd ref="2218677396"/>
    <nd ref="2218677338"/>
    <nd ref="2218677344"/>
    <nd ref="2218677400"/>
    <nd ref="2218677361"/>
    <nd ref="2218677391"/>
    <nd ref="2218677366"/>
    <nd ref="2218677354"/>
    <tag k="addr:city" v="Székesfehérvár"/>
    <tag k="addr:country" v="HU"/>
    <tag k="addr:housenumber" v="41"/>
    <tag k="addr:postcode" v="8000"/>
    <tag k="addr:street" v="Budai út"/>
    <tag k="branch" v="Interspar hipermarket Székesfehérvár"/>
    <tag k="brand" v="Spar"/>
    <tag k="brand:wikidata" v="Q610492"/>
    <tag k="brand:wikipedia" v="hu:Spar "/>
    <tag k="building" v="yes"/>
    <tag k="email" v="vevoszolgalat@spar.hu"/>
    <tag k="facebook" v="https://www.facebook.com/sparmagyarorszag"/>
    <tag k="import" v="osm_poi_matchmaker"/>
    <tag k="instagram" v="https://www.instagram.com/sparmagyarorszag"/>
    <tag k="name" v="Interspar"/>
    <tag k="operator" v="SPAR Magyarország Kereskedelmi Kft."/>
    <tag k="payment:cash" v="yes"/>
    <tag k="payment:debit_cards" v="yes"/>
    <tag k="phone" v="+36208237727"/>
    <tag k="shop" v="supermarket"/>
    <tag k="source" v="website"/>
    <tag k="source:date" v="2018-07-18"/>
    <tag k="website" v="https://www.spar.hu/content/aspiag_spar_hu/hu_HU/uzletek/80/interspar-hipermarket-szekesfehervar.html"/>
    <tag k="youtube" v="https://www.youtube.com/channel/UC9tu8COHiy4WkeTIN1k_Y8A"/>
  </way>
  <!-- OSM link: https://osm.org/way/39165113 -->
  <!-- Original coordinates: POINT (47.16488 18.40374) -->
  <!-- OSM <-> POI distance: 62.63500705 m-->
  <!-- Checker good: {not_in_water}; bad {}-->
  <!-- Original tags: 'building':'retail'; 'name':'INTERSPAR'; 'shop':'supermarket'; 'toilets:wheelchair':'yes'; 'website':'http://www.spar.hu'; 'wheelchair':'yes';  -->
  <way action="modify" changeset="1" id="39165113" timestamp="2017-12-25T16:15:45Z" uid="4579407" user="KAMI" version="6">
    <nd ref="469128787"/>
    <nd ref="2268656840"/>
    <nd ref="2268656810"/>
    <nd ref="2268656920"/>
    <nd ref="2268656899"/>
    <nd ref="469128786"/>
    <nd ref="469128789"/>
    <nd ref="469128788"/>
    <nd ref="469128787"/>
    <tag k="addr:city" v="Székesfehérvár"/>
    <tag k="addr:country" v="HU"/>
    <tag k="addr:housenumber" v="44-46"/>
    <tag k="addr:postcode" v="8000"/>
    <tag k="addr:street" v="Balatoni út"/>
    <tag k="branch" v="Interspar hipermarket Székesfehérvár"/>
    <tag k="brand" v="Spar"/>
    <tag k="brand:wikidata" v="Q610492"/>
    <tag k="brand:wikipedia" v="hu:Spar "/>
    <tag k="building" v="retail"/>
    <tag k="email" v="vevoszolgalat@spar.hu"/>
    <tag k="facebook" v="https://www.facebook.com/sparmagyarorszag"/>
    <tag k="import" v="osm_poi_matchmaker"/>
    <tag k="instagram" v="https://www.instagram.com/sparmagyarorszag"/>
    <tag k="name" v="Interspar"/>
    <tag k="operator" v="SPAR Magyarország Kereskedelmi Kft."/>
    <tag k="payment:cash" v="yes"/>
    <tag k="payment:debit_cards" v="yes"/>
    <tag k="phone" v="+36208237727"/>
    <tag k="shop" v="supermarket"/>
    <tag k="source" v="website"/>
    <tag k="source:date" v="2018-07-18"/>
    <tag k="toilets:wheelchair" v="yes"/>
    <tag k="website" v="https://www.spar.hu/content/aspiag_spar_hu/hu_HU/uzletek/80/interspar-hipermarket-szekesfehervar0.html"/>
    <tag k="wheelchair" v="yes"/>
    <tag k="youtube" v="https://www.youtube.com/channel/UC9tu8COHiy4WkeTIN1k_Y8A"/>
  </way>
  <!-- OSM link: https://osm.org/way/278658218 -->
  <!-- Original coordinates: POINT (47.08457 17.9259) -->
  <!-- OSM <-> POI distance: 6.43745246 m-->
  <!-- Checker good: {not_in_water}; bad {}-->
  <!-- Original tags: 'building':'retail'; 'name':'INTERSPAR'; 'shop':'supermarket'; 'toilets:wheelchair':'yes'; 'website':'http://www.spar.hu'; 'wheelchair':'yes';  -->
  <way action="modify" changeset="1" id="278658218" timestamp="2017-12-25T16:17:30Z" uid="4579407" user="KAMI" version="4">
    <nd ref="2829870831"/>
    <nd ref="2829810189"/>
    <nd ref="299650854"/>
    <nd ref="2829810184"/>
    <nd ref="2829810196"/>
    <nd ref="2829870812"/>
    <nd ref="2829870816"/>
    <nd ref="2829870838"/>
    <nd ref="2829870836"/>
    <nd ref="2829870834"/>
    <nd ref="2829870829"/>
    <nd ref="2829870837"/>
    <nd ref="2829870831"/>
    <tag k="addr:city" v="Veszprém"/>
    <tag k="addr:country" v="HU"/>
    <tag k="addr:housenumber" v="4"/>
    <tag k="addr:postcode" v="8200"/>
    <tag k="addr:street" v="Dornyai Béla utca"/>
    <tag k="branch" v="Interspar hipermarket Veszprém"/>
    <tag k="brand" v="Spar"/>
    <tag k="brand:wikidata" v="Q610492"/>
    <tag k="brand:wikipedia" v="hu:Spar "/>
    <tag k="building" v="retail"/>
    <tag k="email" v="vevoszolgalat@spar.hu"/>
    <tag k="facebook" v="https://www.facebook.com/sparmagyarorszag"/>
    <tag k="import" v="osm_poi_matchmaker"/>
    <tag k="instagram" v="https://www.instagram.com/sparmagyarorszag"/>
    <tag k="name" v="Interspar"/>
    <tag k="operator" v="SPAR Magyarország Kereskedelmi Kft."/>
    <tag k="payment:cash" v="yes"/>
    <tag k="payment:debit_cards" v="yes"/>
    <tag k="phone" v="+36208237727"/>
    <tag k="shop" v="supermarket"/>
    <tag k="source" v="website"/>
    <tag k="source:date" v="2018-07-18"/>
    <tag k="toilets:wheelchair" v="yes"/>
    <tag k="website" v="https://www.spar.hu/content/aspiag_spar_hu/hu_HU/uzletek/82/interspar-hipermarket-veszprem.html"/>
    <tag k="wheelchair" v="yes"/>
    <tag k="youtube" v="https://www.youtube.com/channel/UC9tu8COHiy4WkeTIN1k_Y8A"/>
  </way>
  <!-- OSM link: https://osm.org/way/171936722 -->
  <!-- Original coordinates: POINT (46.77389 17.2674) -->
  <!-- OSM <-> POI distance: 30.15936375 m-->
  <!-- Checker good: {not_in_water}; bad {}-->
  <!-- Original tags: 'building':'retail'; 'name':'INTERSPAR'; 'opening_hours':'Mo-Sa 06:00-22:00; Su 08:00-19:00'; 'shop':'supermarket'; 'toilets:wheelchair':'yes'; 'website':'http://www.spar.hu'; 'wheelchair':'yes';  -->
  <way action="modify" changeset="1" id="171936722" timestamp="2017-09-19T12:31:04Z" uid="4579407" user="KAMI" version="8">
    <nd ref="1828948239"/>
    <nd ref="1828948234"/>
    <nd ref="1828952593"/>
    <nd ref="1828948258"/>
    <nd ref="1828948237"/>
    <nd ref="1828952592"/>
    <nd ref="1828948239"/>
    <tag k="addr:city" v="Keszthely"/>
    <tag k="addr:country" v="HU"/>
    <tag k="addr:housenumber" v="37"/>
    <tag k="addr:postcode" v="8360"/>
    <tag k="addr:street" v="Tapolcai út"/>
    <tag k="branch" v="Interspar hipermarket Keszthely"/>
    <tag k="brand" v="Spar"/>
    <tag k="brand:wikidata" v="Q610492"/>
    <tag k="brand:wikipedia" v="hu:Spar "/>
    <tag k="building" v="retail"/>
    <tag k="email" v="vevoszolgalat@spar.hu"/>
    <tag k="facebook" v="https://www.facebook.com/sparmagyarorszag"/>
    <tag k="import" v="osm_poi_matchmaker"/>
    <tag k="instagram" v="https://www.instagram.com/sparmagyarorszag"/>
    <tag k="name" v="Interspar"/>
    <tag k="opening_hours" v="Mo-Sa 06:00-22:00; Su 08:00-19:00"/>
    <tag k="operator" v="SPAR Magyarország Kereskedelmi Kft."/>
    <tag k="payment:cash" v="yes"/>
    <tag k="payment:debit_cards" v="yes"/>
    <tag k="phone" v="+36208237727"/>
    <tag k="shop" v="supermarket"/>
    <tag k="source" v="website"/>
    <tag k="source:date" v="2018-07-18"/>
    <tag k="toilets:wheelchair" v="yes"/>
    <tag k="website" v="https://www.spar.hu/content/aspiag_spar_hu/hu_HU/uzletek/83/interspar-hipermarket-keszthely.html"/>
    <tag k="wheelchair" v="yes"/>
    <tag k="youtube" v="https://www.youtube.com/channel/UC9tu8COHiy4WkeTIN1k_Y8A"/>
  </way>
  <!-- OSM link: https://osm.org/way/229063446 -->
  <!-- Original coordinates: POINT (47.329301 17.456956) -->
  <!-- OSM <-> POI distance: 30.82648624 m-->
  <!-- Checker good: {not_in_water}; bad {}-->
  <!-- Original tags: 'building':'retail'; 'name':'INTERSPAR'; 'note':'Large supermarket, has barbershop, bakery and other small shops inside.'; 'operator':'Interspar'; 'shop':'supermarket'; 'toilets:wheelchair':'limited'; 'website':'http://www.spar.hu'; 'wheelchair':'yes';  -->
  <way action="modify" changeset="1" id="229063446" timestamp="2017-12-25T16:16:53Z" uid="4579407" user="KAMI" version="5">
    <nd ref="2377001292"/>
    <nd ref="2377001222"/>
    <nd ref="2377001265"/>
    <nd ref="2377001267"/>
    <nd ref="2377001199"/>
    <nd ref="2377001273"/>
    <nd ref="2377001314"/>
    <nd ref="2377001236"/>
    <nd ref="2377001260"/>
    <nd ref="2377001219"/>
    <nd ref="2377001240"/>
    <nd ref="2377001202"/>
    <nd ref="2377001184"/>
    <nd ref="2377001318"/>
    <nd ref="2377001195"/>
    <nd ref="2377001185"/>
    <nd ref="2377001277"/>
    <nd ref="2377001216"/>
    <nd ref="2377001292"/>
    <tag k="addr:city" v="Pápa"/>
    <tag k="addr:country" v="HU"/>
    <tag k="addr:housenumber" v="21"/>
    <tag k="addr:postcode" v="8500"/>
    <tag k="addr:street" v="Celli út"/>
    <tag k="branch" v="Interspar hipermarket Pápa"/>
    <tag k="brand" v="Spar"/>
    <tag k="brand:wikidata" v="Q610492"/>
    <tag k="brand:wikipedia" v="hu:Spar "/>
    <tag k="building" v="retail"/>
    <tag k="email" v="vevoszolgalat@spar.hu"/>
    <tag k="facebook" v="https://www.facebook.com/sparmagyarorszag"/>
    <tag k="import" v="osm_poi_matchmaker"/>
    <tag k="instagram" v="https://www.instagram.com/sparmagyarorszag"/>
    <tag k="name" v="Interspar"/>
    <tag k="note" v="Large supermarket, has barbershop, bakery and other small shops inside."/>
    <tag k="operator" v="SPAR Magyarország Kereskedelmi Kft."/>
    <tag k="payment:cash" v="yes"/>
    <tag k="payment:debit_cards" v="yes"/>
    <tag k="phone" v="+36208237727"/>
    <tag k="shop" v="supermarket"/>
    <tag k="source" v="website"/>
    <tag k="source:date" v="2018-07-18"/>
    <tag k="toilets:wheelchair" v="limited"/>
    <tag k="website" v="https://www.spar.hu/content/aspiag_spar_hu/hu_HU/uzletek/85/interspar-hipermarket-papa.html"/>
    <tag k="wheelchair" v="yes"/>
    <tag k="youtube" v="https://www.youtube.com/channel/UC9tu8COHiy4WkeTIN1k_Y8A"/>
  </way>
  <!-- OSM link: https://osm.org/node/4939280641 -->
  <!-- Original coordinates: POINT (46.45345 17.0112) -->
  <!-- OSM <-> POI distance: 77.32871324 m-->
  <!-- Checker good: {not_in_water}; bad {}-->
  <!-- Original tags: 'fixme':'verify'; 'name':'8238 Interspar Nagykanizsa'; 'shop':'convenience'; 'source':'route4u';  -->
  <node action="modify" changeset="1" id="4939280641" lat="46.4540448949573" lon="17.011722797632" timestamp="2017-08-07T22:07:06Z" uid="4579407" user="KAMI" version="2">
    <tag k="addr:city" v="Nagykanizsa"/>
    <tag k="addr:country" v="HU"/>
    <tag k="addr:housenumber" v="4"/>
    <tag k="addr:postcode" v="8800"/>
    <tag k="addr:street" v="Táborhely utca"/>
    <tag k="branch" v="Interspar hipermarket Nagykanizsa"/>
    <tag k="brand" v="Spar"/>
    <tag k="brand:wikidata" v="Q610492"/>
    <tag k="brand:wikipedia" v="hu:Spar "/>
    <tag k="email" v="vevoszolgalat@spar.hu"/>
    <tag k="facebook" v="https://www.facebook.com/sparmagyarorszag"/>
    <tag k="fixme" v="verify"/>
    <tag k="import" v="osm_poi_matchmaker"/>
    <tag k="instagram" v="https://www.instagram.com/sparmagyarorszag"/>
    <tag k="name" v="Interspar"/>
    <tag k="operator" v="SPAR Magyarország Kereskedelmi Kft."/>
    <tag k="payment:cash" v="yes"/>
    <tag k="payment:debit_cards" v="yes"/>
    <tag k="phone" v="+36208237727"/>
    <tag k="shop" v="supermarket"/>
    <tag k="source" v="website"/>
    <tag k="source:date" v="2018-07-18"/>
    <tag k="website" v="https://www.spar.hu/content/aspiag_spar_hu/hu_HU/uzletek/88/interspar-hipermarket-nagykanizsa.html"/>
    <tag k="youtube" v="https://www.youtube.com/channel/UC9tu8COHiy4WkeTIN1k_Y8A"/>
  </node>
  <!-- OSM link: https://osm.org/way/109789426 -->
  <!-- Original coordinates: POINT (46.84764 16.8339) -->
  <!-- OSM <-> POI distance: 26.74632345 m-->
  <!-- Checker good: {not_in_water}; bad {}-->
  <!-- Original tags: 'building':'retail'; 'name':'InterSpar'; 'shop':'supermarket'; 'website':'http://www.spar.hu'; 'wheelchair':'yes'; 'wheelchair:description':'Nyitvatartás h-sz 06-22, bejárat szélessége 2x110 cm-es szárnyú, fotocellás ajtó, bejárat: padlószinti, küszöb nélküli kialakítás, kerekesszékkel megközelíthető, mozgássérült WC van, mozgássérült parkolók száma: 6 db, legkisebb járdaszélesség: 1,40 m.';  -->
  <way action="modify" changeset="1" id="109789426" timestamp="2017-12-25T16:15:59Z" uid="4579407" user="KAMI" version="9">
    <nd ref="1255834699"/>
    <nd ref="2183136016"/>
    <nd ref="2183136030"/>
    <nd ref="2183136018"/>
    <nd ref="2183136026"/>
    <nd ref="2183135971"/>
    <nd ref="2183135989"/>
    <nd ref="2183135964"/>
    <nd ref="2183136041"/>
    <nd ref="1255834575"/>
    <nd ref="1255834666"/>
    <nd ref="1255834735"/>
    <nd ref="2183136025"/>
    <nd ref="2183135959"/>
    <nd ref="2183135996"/>
    <nd ref="1255834766"/>
    <nd ref="2183136036"/>
    <nd ref="1255834803"/>
    <nd ref="1255834605"/>
    <nd ref="1255834699"/>
    <tag k="addr:city" v="Zalaegerszeg"/>
    <tag k="addr:country" v="HU"/>
    <tag k="addr:housenumber" v="1"/>
    <tag k="addr:postcode" v="8900"/>
    <tag k="addr:street" v="Ola utca"/>
    <tag k="branch" v="Interspar hipermarket Zalaegerszeg"/>
    <tag k="brand" v="Spar"/>
    <tag k="brand:wikidata" v="Q610492"/>
    <tag k="brand:wikipedia" v="hu:Spar "/>
    <tag k="building" v="retail"/>
    <tag k="email" v="vevoszolgalat@spar.hu"/>
    <tag k="facebook" v="https://www.facebook.com/sparmagyarorszag"/>
    <tag k="import" v="osm_poi_matchmaker"/>
    <tag k="instagram" v="https://www.instagram.com/sparmagyarorszag"/>
    <tag k="name" v="Interspar"/>
    <tag k="operator" v="SPAR Magyarország Kereskedelmi Kft."/>
    <tag k="payment:cash" v="yes"/>
    <tag k="payment:debit_cards" v="yes"/>
    <tag k="phone" v="+36208237727"/>
    <tag k="shop" v="supermarket"/>
    <tag k="source" v="website"/>
    <tag k="source:date" v="2018-07-18"/>
    <tag k="website" v="https://www.spar.hu/content/aspiag_spar_hu/hu_HU/uzletek/89/interspar-hipermarket-zalaegerszeg.html"/>
    <tag k="wheelchair" v="yes"/>
    <tag k="wheelchair:description" v="Nyitvatartás h-sz 06-22, bejárat szélessége 2x110 cm-es szárnyú, fotocellás ajtó, bejárat: padlószinti, küszöb nélküli kialakítás, kerekesszékkel megközelíthető, mozgássérült WC van, mozgássérült parkolók száma: 6 db, legkisebb járdaszélesség: 1,40 m."/>
    <tag k="youtube" v="https://www.youtube.com/channel/UC9tu8COHiy4WkeTIN1k_Y8A"/>
  </way>
  <!-- OSM link: https://osm.org/way/121040321 -->
  <!-- Original coordinates: POINT (47.68765 17.64882) -->
  <!-- OSM <-> POI distance: 0.87128369 m-->
  <!-- Checker good: {not_in_water}; bad {}-->
  <!-- Original tags: 'building':'retail'; 'name':'InterSpar Center'; 'shop':'supermarket'; 'toilets:wheelchair':'limited'; 'wheelchair':'yes';  -->
  <way action="modify" changeset="1" id="121040321" timestamp="2017-12-25T16:16:06Z" uid="4579407" user="KAMI" version="9">
    <nd ref="1355696707"/>
    <nd ref="1823918265"/>
    <nd ref="1355696674"/>
    <nd ref="1355696702"/>
    <nd ref="2766655864"/>
    <nd ref="1355696715"/>
    <nd ref="1355696707"/>
    <tag k="addr:city" v="Győr"/>
    <tag k="addr:country" v="HU"/>
    <tag k="addr:housenumber" v="3"/>
    <tag k="addr:postcode" v="9023"/>
    <tag k="addr:street" v="Fehérvári út"/>
    <tag k="branch" v="Interspar hipermarket Győr"/>
    <tag k="brand" v="Spar"/>
    <tag k="brand:wikidata" v="Q610492"/>
    <tag k="brand:wikipedia" v="hu:Spar "/>
    <tag k="building" v="retail"/>
    <tag k="email" v="vevoszolgalat@spar.hu"/>
    <tag k="facebook" v="https://www.facebook.com/sparmagyarorszag"/>
    <tag k="import" v="osm_poi_matchmaker"/>
    <tag k="instagram" v="https://www.instagram.com/sparmagyarorszag"/>
    <tag k="name" v="Interspar"/>
    <tag k="operator" v="SPAR Magyarország Kereskedelmi Kft."/>
    <tag k="payment:cash" v="yes"/>
    <tag k="payment:debit_cards" v="yes"/>
    <tag k="phone" v="+36208237727"/>
    <tag k="shop" v="supermarket"/>
    <tag k="source" v="website"/>
    <tag k="source:date" v="2018-07-18"/>
    <tag k="toilets:wheelchair" v="limited"/>
    <tag k="website" v="https://www.spar.hu/content/aspiag_spar_hu/hu_HU/uzletek/90/interspar-hipermarket-gyr.html"/>
    <tag k="wheelchair" v="yes"/>
    <tag k="youtube" v="https://www.youtube.com/channel/UC9tu8COHiy4WkeTIN1k_Y8A"/>
  </way>
  <!-- OSM link: https://osm.org/way/121040321 -->
  <!-- Original coordinates: POINT (47.69119 17.64552) -->
  <!-- OSM <-> POI distance: 407.8103654 m-->
  <!-- Checker good: {not_in_water}; bad {}-->
  <!-- Original tags: 'building':'retail'; 'name':'InterSpar Center'; 'shop':'supermarket'; 'toilets:wheelchair':'limited'; 'wheelchair':'yes';  -->
  <way action="modify" changeset="1" id="121040321" timestamp="2017-12-25T16:16:06Z" uid="4579407" user="KAMI" version="9">
    <nd ref="1355696707"/>
    <nd ref="1823918265"/>
    <nd ref="1355696674"/>
    <nd ref="1355696702"/>
    <nd ref="2766655864"/>
    <nd ref="1355696715"/>
    <nd ref="1355696707"/>
    <tag k="addr:city" v="Győr"/>
    <tag k="addr:country" v="HU"/>
    <tag k="addr:housenumber" v="1"/>
    <tag k="addr:postcode" v="9022"/>
    <tag k="addr:street" v="Budai út"/>
    <tag k="branch" v="Interspar hipermarket Győr"/>
    <tag k="brand" v="Spar"/>
    <tag k="brand:wikidata" v="Q610492"/>
    <tag k="brand:wikipedia" v="hu:Spar "/>
    <tag k="building" v="retail"/>
    <tag k="email" v="vevoszolgalat@spar.hu"/>
    <tag k="facebook" v="https://www.facebook.com/sparmagyarorszag"/>
    <tag k="import" v="osm_poi_matchmaker"/>
    <tag k="instagram" v="https://www.instagram.com/sparmagyarorszag"/>
    <tag k="name" v="Interspar"/>
    <tag k="operator" v="SPAR Magyarország Kereskedelmi Kft."/>
    <tag k="payment:cash" v="yes"/>
    <tag k="payment:debit_cards" v="yes"/>
    <tag k="phone" v="+36208237727"/>
    <tag k="shop" v="supermarket"/>
    <tag k="source" v="website"/>
    <tag k="source:date" v="2018-07-18"/>
    <tag k="toilets:wheelchair" v="limited"/>
    <tag k="website" v="https://www.spar.hu/content/aspiag_spar_hu/hu_HU/uzletek/90/interspar-hipermarket-gyr-ece.html"/>
    <tag k="wheelchair" v="yes"/>
    <tag k="youtube" v="https://www.youtube.com/channel/UC9tu8COHiy4WkeTIN1k_Y8A"/>
  </way>
  <!-- OSM link: https://osm.org/way/94504489 -->
  <!-- Original coordinates: POINT (47.689585 16.583954) -->
  <!-- OSM <-> POI distance: 0.91325011 m-->
  <!-- Checker good: {not_in_water}; bad {}-->
  <!-- Original tags: 'addr:city':'Sopron'; 'addr:housenumber':'15-17'; 'addr:postcode':'9400'; 'addr:street':'Selmeci utca'; 'building':'retail'; 'name':'INTERSPAR'; 'opening_hours':'Mo-Sa 06:00-22:00;Su 08:00-19:00'; 'phone':'+36 20 8238246'; 'ref':'5240'; 'shop':'supermarket'; 'toilets:wheelchair':'yes'; 'website':'http://www.spar.hu'; 'wheelchair':'yes';  -->
  <way action="modify" changeset="1" id="94504489" timestamp="2017-09-11T05:22:26Z" uid="4579407" user="KAMI" version="6">
    <nd ref="1097746732"/>
    <nd ref="3055241792"/>
    <nd ref="3055241791"/>
    <nd ref="1097746736"/>
    <nd ref="3055241796"/>
    <nd ref="3055241798"/>
    <nd ref="3055241799"/>
    <nd ref="3055241797"/>
    <nd ref="1097746717"/>
    <nd ref="3080816958"/>
    <nd ref="3055241795"/>
    <nd ref="3055241793"/>
    <nd ref="3055241794"/>
    <nd ref="3080816952"/>
    <nd ref="3080816951"/>
    <nd ref="1097746720"/>
    <nd ref="1097746732"/>
    <tag k="addr:city" v="Sopron"/>
    <tag k="addr:country" v="HU"/>
    <tag k="addr:housenumber" v="15-17"/>
    <tag k="addr:postcode" v="9400"/>
    <tag k="addr:street" v="Selmeci utca"/>
    <tag k="branch" v="Interspar hipermarket Sopron"/>
    <tag k="brand" v="Spar"/>
    <tag k="brand:wikidata" v="Q610492"/>
    <tag k="brand:wikipedia" v="hu:Spar "/>
    <tag k="building" v="retail"/>
    <tag k="email" v="vevoszolgalat@spar.hu"/>
    <tag k="facebook" v="https://www.facebook.com/sparmagyarorszag"/>
    <tag k="import" v="osm_poi_matchmaker"/>
    <tag k="instagram" v="https://www.instagram.com/sparmagyarorszag"/>
    <tag k="name" v="Interspar"/>
    <tag k="opening_hours" v="Mo-Sa 06:00-22:00;Su 08:00-19:00"/>
    <tag k="operator" v="SPAR Magyarország Kereskedelmi Kft."/>
    <tag k="payment:cash" v="yes"/>
    <tag k="payment:debit_cards" v="yes"/>
    <tag k="phone" v="+36208237727"/>
    <tag k="ref" v="5240"/>
    <tag k="shop" v="supermarket"/>
    <tag k="source" v="website"/>
    <tag k="source:date" v="2018-07-18"/>
    <tag k="toilets:wheelchair" v="yes"/>
    <tag k="website" v="https://www.spar.hu/content/aspiag_spar_hu/hu_HU/uzletek/94/interspar-hipermarket-sopron.html"/>
    <tag k="wheelchair" v="yes"/>
    <tag k="youtube" v="https://www.youtube.com/channel/UC9tu8COHiy4WkeTIN1k_Y8A"/>
  </way>
  <!-- OSM link: https://osm.org/node/3564106997 -->
  <!-- Original coordinates: POINT (47.214359 16.621832) -->
  <!-- OSM <-> POI distance: 89.95813638 m-->
  <!-- Checker good: {not_in_water}; bad {}-->
  <!-- Original tags: 'addr:city':'Szombathely'; 'addr:housenumber':'54'; 'addr:postcode':'9700'; 'addr:street':'Újvilág utca'; 'name':'INTERSPAR'; 'opening_hours':'Mo-Sa 06:00-22:00; Su 08:00-19:00'; 'operator':'Spar Magyarorszag'; 'shop':'supermarket'; 'toilets:wheelchair':'yes'; 'website':'http://www.spar.hu'; 'wheelchair':'yes';  -->
  <node action="modify" changeset="1" id="3564106997" lat="47.2140142949231" lon="16.6229094976861" timestamp="2017-09-11T08:43:04Z" uid="4579407" user="KAMI" version="6">
    <tag k="addr:city" v="Szombathely"/>
    <tag k="addr:country" v="HU"/>
    <tag k="addr:housenumber" v="54"/>
    <tag k="addr:postcode" v="9700"/>
    <tag k="addr:street" v="Újvilág utca"/>
    <tag k="branch" v="Interspar hipermarket Szombathely"/>
    <tag k="brand" v="Spar"/>
    <tag k="brand:wikidata" v="Q610492"/>
    <tag k="brand:wikipedia" v="hu:Spar "/>
    <tag k="email" v="vevoszolgalat@spar.hu"/>
    <tag k="facebook" v="https://www.facebook.com/sparmagyarorszag"/>
    <tag k="import" v="osm_poi_matchmaker"/>
    <tag k="instagram" v="https://www.instagram.com/sparmagyarorszag"/>
    <tag k="name" v="Interspar"/>
    <tag k="opening_hours" v="Mo-Sa 06:00-22:00; Su 08:00-19:00"/>
    <tag k="operator" v="SPAR Magyarország Kereskedelmi Kft."/>
    <tag k="payment:cash" v="yes"/>
    <tag k="payment:debit_cards" v="yes"/>
    <tag k="phone" v="+36208237727"/>
    <tag k="shop" v="supermarket"/>
    <tag k="source" v="website"/>
    <tag k="source:date" v="2018-07-18"/>
    <tag k="toilets:wheelchair" v="yes"/>
    <tag k="website" v="https://www.spar.hu/content/aspiag_spar_hu/hu_HU/uzletek/97/interspar-hipermarket-szombathely.html"/>
    <tag k="wheelchair" v="yes"/>
    <tag k="youtube" v="https://www.youtube.com/channel/UC9tu8COHiy4WkeTIN1k_Y8A"/>
  </node>
</osm>
