<?xml version='1.0' encoding='UTF-8'?>
<osm generator="JOSM" version="0.6">
  <!-- OSM link: https://osm.org/node/2960278456 -->
  <!-- Original coordinates: POINT (47.189134 20.004633) -->
  <!-- OSM <-> POI distance: 8.04388632 m-->
  <!-- Checker good: {not_in_water}; bad {}-->
  <!-- Original tags: 'brand':'Rossmann'; 'name':'Rossmann'; 'shop':'chemist'; 'wheelchair':'yes';  -->
  <node action="modify" changeset="1" id="2960278456" lat="47.1890934949242" lon="20.0047211972153" timestamp="2015-12-06T15:05:05Z" uid="4579407" user="KAMI" version="2">
    <tag k="addr:city" v="Abony"/>
    <tag k="addr:country" v="HU"/>
    <tag k="addr:housenumber" v="4"/>
    <tag k="addr:postcode" v="2740"/>
    <tag k="addr:street" v="Kossuth tér"/>
    <tag k="brand" v="Rossmann"/>
    <tag k="facebook" v="https://www.facebook.com/Rossmann.hu"/>
    <tag k="import" v="osm_poi_matchmaker"/>
    <tag k="instagram" v="https://www.instagram.com/rossmann_hu"/>
    <tag k="name" v="Rossmann"/>
    <tag k="opening_hours" v="Mo-Fr 08:00-18:00; Sa 08:00-14:00; PH off"/>
    <tag k="operator" v="Rossmann Magyarország Kft."/>
    <tag k="payment:cash" v="yes"/>
    <tag k="payment:debit_cards" v="yes"/>
    <tag k="shop" v="chemist"/>
    <tag k="source" v="website"/>
    <tag k="source:date" v="2018-07-30"/>
    <tag k="website" v="https://www.rossmann.hu"/>
    <tag k="wheelchair" v="yes"/>
    <tag k="youtube" v="https://www.youtube.com/channel/UCmUCPmvMLL3IaXRBtx7-J7Q"/>
  </node>
  <!-- Original coordinates: POINT (47.105645 17.564917) -->
  <!-- OSM <-> POI distance: None m-->
  <!-- Checker good: {not_in_water}; bad {}-->
  <!-- Original tags:  -->
  <node action="modify" changeset="99999" id="-2" lat="47.105645" lon="17.564917" timestamp="" uid="4579407" user="KAMI" version="99999">
    <tag k="addr:city" v="Ajka"/>
    <tag k="addr:country" v="HU"/>
    <tag k="addr:housenumber" v="14"/>
    <tag k="addr:postcode" v="8400"/>
    <tag k="addr:street" v="Szabadság tér"/>
    <tag k="brand" v="Rossmann"/>
    <tag k="facebook" v="https://www.facebook.com/Rossmann.hu"/>
    <tag k="import" v="osm_poi_matchmaker"/>
    <tag k="instagram" v="https://www.instagram.com/rossmann_hu"/>
    <tag k="name" v="Rossmann"/>
    <tag k="opening_hours" v="Mo-Fr 08:00-19:00; Sa 08:00-14:00; PH off"/>
    <tag k="operator" v="Rossmann Magyarország Kft."/>
    <tag k="payment:cash" v="yes"/>
    <tag k="payment:debit_cards" v="yes"/>
    <tag k="shop" v="chemist"/>
    <tag k="source" v="website"/>
    <tag k="source:date" v="2018-07-30"/>
    <tag k="website" v="https://www.rossmann.hu"/>
    <tag k="youtube" v="https://www.youtube.com/channel/UCmUCPmvMLL3IaXRBtx7-J7Q"/>
  </node>
  <!-- Original coordinates: POINT (47.651097 19.477105) -->
  <!-- OSM <-> POI distance: None m-->
  <!-- Checker good: {not_in_water}; bad {}-->
  <!-- Original tags:  -->
  <node action="modify" changeset="99999" id="-3" lat="47.651097" lon="19.477105" timestamp="" uid="4579407" user="KAMI" version="99999">
    <tag k="addr:city" v="Aszód"/>
    <tag k="addr:country" v="HU"/>
    <tag k="addr:housenumber" v="15"/>
    <tag k="addr:postcode" v="2170"/>
    <tag k="addr:street" v="Kossuth Lajos utca"/>
    <tag k="brand" v="Rossmann"/>
    <tag k="facebook" v="https://www.facebook.com/Rossmann.hu"/>
    <tag k="import" v="osm_poi_matchmaker"/>
    <tag k="instagram" v="https://www.instagram.com/rossmann_hu"/>
    <tag k="name" v="Rossmann"/>
    <tag k="opening_hours" v="Mo-Fr 08:00-18:00; Sa 08:00-15:00; PH off"/>
    <tag k="operator" v="Rossmann Magyarország Kft."/>
    <tag k="payment:cash" v="yes"/>
    <tag k="payment:debit_cards" v="yes"/>
    <tag k="shop" v="chemist"/>
    <tag k="source" v="website"/>
    <tag k="source:date" v="2018-07-30"/>
    <tag k="website" v="https://www.rossmann.hu"/>
    <tag k="youtube" v="https://www.youtube.com/channel/UCmUCPmvMLL3IaXRBtx7-J7Q"/>
  </node>
  <!-- Original coordinates: POINT (46.18318 18.955864) -->
  <!-- OSM <-> POI distance: None m-->
  <!-- Checker good: {not_in_water}; bad {}-->
  <!-- Original tags:  -->
  <node action="modify" changeset="99999" id="-4" lat="46.18318" lon="18.955864" timestamp="" uid="4579407" user="KAMI" version="99999">
    <tag k="addr:city" v="Baja"/>
    <tag k="addr:country" v="HU"/>
    <tag k="addr:housenumber" v="4"/>
    <tag k="addr:postcode" v="6500"/>
    <tag k="addr:street" v="Csermák Mihály tér"/>
    <tag k="brand" v="Rossmann"/>
    <tag k="facebook" v="https://www.facebook.com/Rossmann.hu"/>
    <tag k="import" v="osm_poi_matchmaker"/>
    <tag k="instagram" v="https://www.instagram.com/rossmann_hu"/>
    <tag k="name" v="Rossmann"/>
    <tag k="opening_hours" v="Mo-Fr 08:00-18:00; Sa 08:00-14:00; PH off"/>
    <tag k="operator" v="Rossmann Magyarország Kft."/>
    <tag k="payment:cash" v="yes"/>
    <tag k="payment:debit_cards" v="yes"/>
    <tag k="shop" v="chemist"/>
    <tag k="source" v="website"/>
    <tag k="source:date" v="2018-07-30"/>
    <tag k="website" v="https://www.rossmann.hu"/>
    <tag k="youtube" v="https://www.youtube.com/channel/UCmUCPmvMLL3IaXRBtx7-J7Q"/>
  </node>
  <!-- Original coordinates: POINT (48.079341 19.294558) -->
  <!-- OSM <-> POI distance: None m-->
  <!-- Checker good: {not_in_water}; bad {}-->
  <!-- Original tags:  -->
  <node action="modify" changeset="99999" id="-5" lat="48.079341" lon="19.294558" timestamp="" uid="4579407" user="KAMI" version="99999">
    <tag k="addr:city" v="Balassagyarmat"/>
    <tag k="addr:country" v="HU"/>
    <tag k="addr:housenumber" v="34-36"/>
    <tag k="addr:postcode" v="2660"/>
    <tag k="addr:street" v="Rákóczi út"/>
    <tag k="brand" v="Rossmann"/>
    <tag k="facebook" v="https://www.facebook.com/Rossmann.hu"/>
    <tag k="import" v="osm_poi_matchmaker"/>
    <tag k="instagram" v="https://www.instagram.com/rossmann_hu"/>
    <tag k="name" v="Rossmann"/>
    <tag k="opening_hours" v="Mo-Fr 08:00-18:00; Sa 08:00-13:00; PH off"/>
    <tag k="operator" v="Rossmann Magyarország Kft."/>
    <tag k="payment:cash" v="yes"/>
    <tag k="payment:debit_cards" v="yes"/>
    <tag k="shop" v="chemist"/>
    <tag k="source" v="website"/>
    <tag k="source:date" v="2018-07-30"/>
    <tag k="website" v="https://www.rossmann.hu"/>
    <tag k="youtube" v="https://www.youtube.com/channel/UCmUCPmvMLL3IaXRBtx7-J7Q"/>
  </node>
  <!-- OSM link: https://osm.org/node/5183344474 -->
  <!-- Original coordinates: POINT (47.040627 18.018888) -->
  <!-- OSM <-> POI distance: 52.91341625 m-->
  <!-- Checker good: {not_in_water}; bad {}-->
  <!-- Original tags: 'name':'Rossmann'; 'shop':'chemist'; 'source':'survey'; 'survey:date':'2017-10-21';  -->
  <node action="modify" changeset="1" id="5183344474" lat="47.0404964949307" lon="18.0182164974918" timestamp="2017-10-23T09:31:06Z" uid="4579407" user="KAMI" version="1">
    <tag k="addr:city" v="Balatonalmádi"/>
    <tag k="addr:country" v="HU"/>
    <tag k="addr:housenumber" v="2"/>
    <tag k="addr:postcode" v="8220"/>
    <tag k="addr:street" v="Szabolcs utca"/>
    <tag k="brand" v="Rossmann"/>
    <tag k="facebook" v="https://www.facebook.com/Rossmann.hu"/>
    <tag k="import" v="osm_poi_matchmaker"/>
    <tag k="instagram" v="https://www.instagram.com/rossmann_hu"/>
    <tag k="name" v="Rossmann"/>
    <tag k="opening_hours" v="Mo-Sa 08:00-20:00; Su 08:00-18:00; PH off"/>
    <tag k="operator" v="Rossmann Magyarország Kft."/>
    <tag k="payment:cash" v="yes"/>
    <tag k="payment:debit_cards" v="yes"/>
    <tag k="shop" v="chemist"/>
    <tag k="source" v="website"/>
    <tag k="source:date" v="2018-07-30"/>
    <tag k="survey:date" v="2017-10-21"/>
    <tag k="website" v="https://www.rossmann.hu"/>
    <tag k="youtube" v="https://www.youtube.com/channel/UCmUCPmvMLL3IaXRBtx7-J7Q"/>
  </node>
  <!-- OSM link: https://osm.org/node/2343416663 -->
  <!-- Original coordinates: POINT (46.956645 17.888113) -->
  <!-- OSM <-> POI distance: 29.80805776 m-->
  <!-- Checker good: {not_in_water}; bad {}-->
  <!-- Original tags: 'name':'Rossmann'; 'shop':'chemist'; 'wheelchair':'limited';  -->
  <node action="modify" changeset="1" id="2343416663" lat="46.9564684949344" lon="17.8884085975099" timestamp="2014-08-04T17:31:15Z" uid="4579407" user="KAMI" version="2">
    <tag k="addr:city" v="Balatonfüred"/>
    <tag k="addr:country" v="HU"/>
    <tag k="addr:housenumber" v="17"/>
    <tag k="addr:postcode" v="8230"/>
    <tag k="addr:street" v="Jókai Mór út"/>
    <tag k="brand" v="Rossmann"/>
    <tag k="facebook" v="https://www.facebook.com/Rossmann.hu"/>
    <tag k="import" v="osm_poi_matchmaker"/>
    <tag k="instagram" v="https://www.instagram.com/rossmann_hu"/>
    <tag k="name" v="Rossmann"/>
    <tag k="opening_hours" v="Mo-Fr 08:00-20:00; Sa 08:00-18:00; Su 09:00-16:00; PH off"/>
    <tag k="operator" v="Rossmann Magyarország Kft."/>
    <tag k="payment:cash" v="yes"/>
    <tag k="payment:debit_cards" v="yes"/>
    <tag k="shop" v="chemist"/>
    <tag k="source" v="website"/>
    <tag k="source:date" v="2018-07-30"/>
    <tag k="website" v="https://www.rossmann.hu"/>
    <tag k="wheelchair" v="limited"/>
    <tag k="youtube" v="https://www.youtube.com/channel/UCmUCPmvMLL3IaXRBtx7-J7Q"/>
  </node>
  <!-- Original coordinates: POINT (47.613235 21.343217) -->
  <!-- OSM <-> POI distance: None m-->
  <!-- Checker good: {not_in_water}; bad {}-->
  <!-- Original tags:  -->
  <node action="modify" changeset="99999" id="-8" lat="47.613235" lon="21.343217" timestamp="" uid="4579407" user="KAMI" version="99999">
    <tag k="addr:city" v="Balmazújváros"/>
    <tag k="addr:country" v="HU"/>
    <tag k="addr:housenumber" v="1"/>
    <tag k="addr:postcode" v="4060"/>
    <tag k="addr:street" v="Veres Péter út"/>
    <tag k="brand" v="Rossmann"/>
    <tag k="facebook" v="https://www.facebook.com/Rossmann.hu"/>
    <tag k="import" v="osm_poi_matchmaker"/>
    <tag k="instagram" v="https://www.instagram.com/rossmann_hu"/>
    <tag k="name" v="Rossmann"/>
    <tag k="opening_hours" v="Mo-Fr 08:00-18:00; Sa 08:00-14:00; PH off"/>
    <tag k="operator" v="Rossmann Magyarország Kft."/>
    <tag k="payment:cash" v="yes"/>
    <tag k="payment:debit_cards" v="yes"/>
    <tag k="shop" v="chemist"/>
    <tag k="source" v="website"/>
    <tag k="source:date" v="2018-07-30"/>
    <tag k="website" v="https://www.rossmann.hu"/>
    <tag k="youtube" v="https://www.youtube.com/channel/UCmUCPmvMLL3IaXRBtx7-J7Q"/>
  </node>
  <!-- OSM link: https://osm.org/way/287716066 -->
  <!-- Original coordinates: POINT (47.993751 19.830879) -->
  <!-- OSM <-> POI distance: 389.00758794 m-->
  <!-- Checker good: {not_in_water}; bad {}-->
  <!-- Original tags: 'building':'yes'; 'name':'Rossmann'; 'shop':'chemist';  -->
  <way action="modify" changeset="1" id="287716066" timestamp="2014-08-25T19:50:01Z" uid="4579407" user="KAMI" version="2">
    <nd ref="2912894329"/>
    <nd ref="2912894330"/>
    <nd ref="2912894331"/>
    <nd ref="2912894332"/>
    <nd ref="2912894329"/>
    <tag k="addr:city" v="Bátonyterenye"/>
    <tag k="addr:country" v="HU"/>
    <tag k="addr:housenumber" v="3"/>
    <tag k="addr:postcode" v="3070"/>
    <tag k="addr:street" v="Városház utca"/>
    <tag k="brand" v="Rossmann"/>
    <tag k="building" v="yes"/>
    <tag k="facebook" v="https://www.facebook.com/Rossmann.hu"/>
    <tag k="import" v="osm_poi_matchmaker"/>
    <tag k="instagram" v="https://www.instagram.com/rossmann_hu"/>
    <tag k="name" v="Rossmann"/>
    <tag k="opening_hours" v="Mo-Fr 08:00-18:00; Sa 08:00-14:00; PH off"/>
    <tag k="operator" v="Rossmann Magyarország Kft."/>
    <tag k="payment:cash" v="yes"/>
    <tag k="payment:debit_cards" v="yes"/>
    <tag k="shop" v="chemist"/>
    <tag k="source" v="website"/>
    <tag k="source:date" v="2018-07-30"/>
    <tag k="website" v="https://www.rossmann.hu"/>
    <tag k="youtube" v="https://www.youtube.com/channel/UCmUCPmvMLL3IaXRBtx7-J7Q"/>
  </way>
  <!-- Original coordinates: POINT (46.772018 21.130063) -->
  <!-- OSM <-> POI distance: None m-->
  <!-- Checker good: {not_in_water}; bad {}-->
  <!-- Original tags:  -->
  <node action="modify" changeset="99999" id="-10" lat="46.772018" lon="21.130063" timestamp="" uid="4579407" user="KAMI" version="99999">
    <tag k="addr:city" v="Békés"/>
    <tag k="addr:country" v="HU"/>
    <tag k="addr:housenumber" v="5"/>
    <tag k="addr:postcode" v="5630"/>
    <tag k="addr:street" v="Széchenyi tér"/>
    <tag k="brand" v="Rossmann"/>
    <tag k="facebook" v="https://www.facebook.com/Rossmann.hu"/>
    <tag k="import" v="osm_poi_matchmaker"/>
    <tag k="instagram" v="https://www.instagram.com/rossmann_hu"/>
    <tag k="name" v="Rossmann"/>
    <tag k="opening_hours" v="Mo-Fr 08:00-18:00; Sa 08:00-15:00; PH off"/>
    <tag k="operator" v="Rossmann Magyarország Kft."/>
    <tag k="payment:cash" v="yes"/>
    <tag k="payment:debit_cards" v="yes"/>
    <tag k="shop" v="chemist"/>
    <tag k="source" v="website"/>
    <tag k="source:date" v="2018-07-30"/>
    <tag k="website" v="https://www.rossmann.hu"/>
    <tag k="youtube" v="https://www.youtube.com/channel/UCmUCPmvMLL3IaXRBtx7-J7Q"/>
  </node>
  <!-- OSM link: https://osm.org/node/1279327243 -->
  <!-- Original coordinates: POINT (46.679255 21.096341) -->
  <!-- OSM <-> POI distance: 8.8133222 m-->
  <!-- Checker good: {not_in_water}; bad {}-->
  <!-- Original tags: 'name':'Rossmann'; 'shop':'chemist'; 'wheelchair':'yes';  -->
  <node action="modify" changeset="1" id="1279327243" lat="46.6792257949469" lon="21.0964483970634" timestamp="2015-11-22T09:49:57Z" uid="4579407" user="KAMI" version="7">
    <tag k="addr:city" v="Békéscsaba"/>
    <tag k="addr:country" v="HU"/>
    <tag k="addr:housenumber" v="3-5"/>
    <tag k="addr:postcode" v="5600"/>
    <tag k="addr:street" v="Andrássy út"/>
    <tag k="brand" v="Rossmann"/>
    <tag k="facebook" v="https://www.facebook.com/Rossmann.hu"/>
    <tag k="import" v="osm_poi_matchmaker"/>
    <tag k="instagram" v="https://www.instagram.com/rossmann_hu"/>
    <tag k="name" v="Rossmann"/>
    <tag k="opening_hours" v="Mo-Fr 08:00-20:00; Sa 08:00-16:00; PH off"/>
    <tag k="operator" v="Rossmann Magyarország Kft."/>
    <tag k="payment:cash" v="yes"/>
    <tag k="payment:debit_cards" v="yes"/>
    <tag k="shop" v="chemist"/>
    <tag k="source" v="website"/>
    <tag k="source:date" v="2018-07-30"/>
    <tag k="website" v="https://www.rossmann.hu"/>
    <tag k="wheelchair" v="yes"/>
    <tag k="youtube" v="https://www.youtube.com/channel/UCmUCPmvMLL3IaXRBtx7-J7Q"/>
  </node>
  <!-- OSM link: https://osm.org/node/3000594594 -->
  <!-- Original coordinates: POINT (47.2224 21.535857) -->
  <!-- OSM <-> POI distance: 20.71046745 m-->
  <!-- Checker good: {not_in_water}; bad {}-->
  <!-- Original tags: 'name':'Rossmann'; 'shop':'chemist'; 'wheelchair':'yes';  -->
  <node action="modify" changeset="1" id="3000594594" lat="47.2222223949227" lon="21.5359395970022" timestamp="2015-12-06T20:58:05Z" uid="4579407" user="KAMI" version="3">
    <tag k="addr:city" v="Berettyóújfalu"/>
    <tag k="addr:country" v="HU"/>
    <tag k="addr:housenumber" v="2"/>
    <tag k="addr:postcode" v="4100"/>
    <tag k="addr:street" v="Dózsa György utca"/>
    <tag k="brand" v="Rossmann"/>
    <tag k="facebook" v="https://www.facebook.com/Rossmann.hu"/>
    <tag k="import" v="osm_poi_matchmaker"/>
    <tag k="instagram" v="https://www.instagram.com/rossmann_hu"/>
    <tag k="name" v="Rossmann"/>
    <tag k="opening_hours" v="Mo-Fr 08:00-18:00; Sa 08:00-13:00; PH off"/>
    <tag k="operator" v="Rossmann Magyarország Kft."/>
    <tag k="payment:cash" v="yes"/>
    <tag k="payment:debit_cards" v="yes"/>
    <tag k="shop" v="chemist"/>
    <tag k="source" v="website"/>
    <tag k="source:date" v="2018-07-30"/>
    <tag k="website" v="https://www.rossmann.hu"/>
    <tag k="wheelchair" v="yes"/>
    <tag k="youtube" v="https://www.youtube.com/channel/UCmUCPmvMLL3IaXRBtx7-J7Q"/>
  </node>
  <!-- OSM link: https://osm.org/node/4142995389 -->
  <!-- Original coordinates: POINT (47.491473 18.632075) -->
  <!-- OSM <-> POI distance: 148.29397996 m-->
  <!-- Checker good: {not_in_water}; bad {}-->
  <!-- Original tags: 'addr:city':'Bicske'; 'addr:housenumber':'13'; 'addr:postcode':'2060'; 'addr:street':'Bocskai utca'; 'name':'Rossmann'; 'opening_hours':'Mo-Fr 08:00-19:00; Sa 08:00-14:00'; 'shop':'chemist'; 'website':'http://www.rossmann.hu/'; 'wheelchair':'yes';  -->
  <node action="modify" changeset="1" id="4142995389" lat="47.4904534949112" lon="18.6333473974062" timestamp="2016-07-23T09:31:47Z" uid="4579407" user="KAMI" version="2">
    <tag k="addr:city" v="Bicske"/>
    <tag k="addr:country" v="HU"/>
    <tag k="addr:housenumber" v="13"/>
    <tag k="addr:postcode" v="2060"/>
    <tag k="addr:street" v="Bocskay út"/>
    <tag k="brand" v="Rossmann"/>
    <tag k="facebook" v="https://www.facebook.com/Rossmann.hu"/>
    <tag k="import" v="osm_poi_matchmaker"/>
    <tag k="instagram" v="https://www.instagram.com/rossmann_hu"/>
    <tag k="name" v="Rossmann"/>
    <tag k="opening_hours" v="Mo-Fr 08:00-19:00; Sa 08:00-14:00; PH off"/>
    <tag k="operator" v="Rossmann Magyarország Kft."/>
    <tag k="payment:cash" v="yes"/>
    <tag k="payment:debit_cards" v="yes"/>
    <tag k="shop" v="chemist"/>
    <tag k="source" v="website"/>
    <tag k="source:date" v="2018-07-30"/>
    <tag k="website" v="https://www.rossmann.hu"/>
    <tag k="wheelchair" v="yes"/>
    <tag k="youtube" v="https://www.youtube.com/channel/UCmUCPmvMLL3IaXRBtx7-J7Q"/>
  </node>
  <!-- Original coordinates: POINT (46.299709 18.53007) -->
  <!-- OSM <-> POI distance: None m-->
  <!-- Checker good: {not_in_water}; bad {}-->
  <!-- Original tags:  -->
  <node action="modify" changeset="99999" id="-14" lat="46.299709" lon="18.53007" timestamp="" uid="4579407" user="KAMI" version="99999">
    <tag k="addr:city" v="Bonyhád"/>
    <tag k="addr:country" v="HU"/>
    <tag k="addr:housenumber" v="4"/>
    <tag k="addr:postcode" v="7150"/>
    <tag k="addr:street" v="Szabadság tér"/>
    <tag k="brand" v="Rossmann"/>
    <tag k="facebook" v="https://www.facebook.com/Rossmann.hu"/>
    <tag k="import" v="osm_poi_matchmaker"/>
    <tag k="instagram" v="https://www.instagram.com/rossmann_hu"/>
    <tag k="name" v="Rossmann"/>
    <tag k="opening_hours" v="Mo-Fr 08:00-19:00; Sa 08:00-14:00; PH off"/>
    <tag k="operator" v="Rossmann Magyarország Kft."/>
    <tag k="payment:cash" v="yes"/>
    <tag k="payment:debit_cards" v="yes"/>
    <tag k="shop" v="chemist"/>
    <tag k="source" v="website"/>
    <tag k="source:date" v="2018-07-30"/>
    <tag k="website" v="https://www.rossmann.hu"/>
    <tag k="youtube" v="https://www.youtube.com/channel/UCmUCPmvMLL3IaXRBtx7-J7Q"/>
  </node>
  <!-- Original coordinates: POINT (47.508771 19.026389) -->
  <!-- OSM <-> POI distance: None m-->
  <!-- Checker good: {not_in_water}; bad {}-->
  <!-- Original tags:  -->
  <node action="modify" changeset="99999" id="-15" lat="47.508771" lon="19.026389" timestamp="" uid="4579407" user="KAMI" version="99999">
    <tag k="addr:city" v="Budapest"/>
    <tag k="addr:country" v="HU"/>
    <tag k="addr:housenumber" v="2-6"/>
    <tag k="addr:postcode" v="1024"/>
    <tag k="addr:street" v="Lövőház utca"/>
    <tag k="brand" v="Rossmann"/>
    <tag k="facebook" v="https://www.facebook.com/Rossmann.hu"/>
    <tag k="import" v="osm_poi_matchmaker"/>
    <tag k="instagram" v="https://www.instagram.com/rossmann_hu"/>
    <tag k="name" v="Rossmann"/>
    <tag k="opening_hours" v="Mo-Sa 09:00-21:00; Su 09:00-19:00; PH off"/>
    <tag k="operator" v="Rossmann Magyarország Kft."/>
    <tag k="payment:cash" v="yes"/>
    <tag k="payment:debit_cards" v="yes"/>
    <tag k="shop" v="chemist"/>
    <tag k="source" v="website"/>
    <tag k="source:date" v="2018-07-30"/>
    <tag k="website" v="https://www.rossmann.hu"/>
    <tag k="youtube" v="https://www.youtube.com/channel/UCmUCPmvMLL3IaXRBtx7-J7Q"/>
  </node>
  <!-- OSM link: https://osm.org/node/5047896413 -->
  <!-- Original coordinates: POINT (47.17191 19.796486) -->
  <!-- OSM <-> POI distance: 10.58388425 m-->
  <!-- Checker good: {not_in_water}; bad {}-->
  <!-- Original tags: 'addr:city':'Cegléd'; 'addr:housenumber':'4'; 'addr:postcode':'2700'; 'addr:street':'Kossuth Ferenc utca'; 'brand':'Rossmann'; 'name':'Rossmann'; 'opening_hours':'Mo-Fr 08:00-19:00; Sa 08:00-14:00'; 'shop':'chemist'; 'website':'http://www.rossmann.hu';  -->
  <node action="modify" changeset="1" id="5047896413" lat="47.1719594949249" lon="19.7966055972443" timestamp="2017-08-21T10:34:48Z" uid="4579407" user="KAMI" version="1">
    <tag k="addr:city" v="Cegléd"/>
    <tag k="addr:country" v="HU"/>
    <tag k="addr:housenumber" v="4"/>
    <tag k="addr:postcode" v="2700"/>
    <tag k="addr:street" v="Kossuth Ferenc utca"/>
    <tag k="brand" v="Rossmann"/>
    <tag k="facebook" v="https://www.facebook.com/Rossmann.hu"/>
    <tag k="import" v="osm_poi_matchmaker"/>
    <tag k="instagram" v="https://www.instagram.com/rossmann_hu"/>
    <tag k="name" v="Rossmann"/>
    <tag k="opening_hours" v="Mo-Fr 08:00-19:00; Sa 08:00-14:00; PH off"/>
    <tag k="operator" v="Rossmann Magyarország Kft."/>
    <tag k="payment:cash" v="yes"/>
    <tag k="payment:debit_cards" v="yes"/>
    <tag k="shop" v="chemist"/>
    <tag k="source" v="website"/>
    <tag k="source:date" v="2018-07-30"/>
    <tag k="website" v="https://www.rossmann.hu"/>
    <tag k="youtube" v="https://www.youtube.com/channel/UCmUCPmvMLL3IaXRBtx7-J7Q"/>
  </node>
  <!-- OSM link: https://osm.org/node/4337634498 -->
  <!-- Original coordinates: POINT (47.257558 17.152294) -->
  <!-- OSM <-> POI distance: 41.83625069 m-->
  <!-- Checker good: {not_in_water}; bad {}-->
  <!-- Original tags: 'name':'Rossmann'; 'shop':'chemist';  -->
  <node action="modify" changeset="1" id="4337634498" lat="47.2577512949212" lon="17.1518183976124" timestamp="2016-08-05T21:37:39Z" uid="4579407" user="KAMI" version="1">
    <tag k="addr:city" v="Celldömölk"/>
    <tag k="addr:country" v="HU"/>
    <tag k="addr:housenumber" v="2"/>
    <tag k="addr:postcode" v="9500"/>
    <tag k="addr:street" v="Széchenyi utca"/>
    <tag k="brand" v="Rossmann"/>
    <tag k="facebook" v="https://www.facebook.com/Rossmann.hu"/>
    <tag k="import" v="osm_poi_matchmaker"/>
    <tag k="instagram" v="https://www.instagram.com/rossmann_hu"/>
    <tag k="name" v="Rossmann"/>
    <tag k="opening_hours" v="Mo-Fr 08:00-18:00; Sa 08:00-14:00; PH off"/>
    <tag k="operator" v="Rossmann Magyarország Kft."/>
    <tag k="payment:cash" v="yes"/>
    <tag k="payment:debit_cards" v="yes"/>
    <tag k="shop" v="chemist"/>
    <tag k="source" v="website"/>
    <tag k="source:date" v="2018-07-30"/>
    <tag k="website" v="https://www.rossmann.hu"/>
    <tag k="youtube" v="https://www.youtube.com/channel/UCmUCPmvMLL3IaXRBtx7-J7Q"/>
  </node>
  <!-- OSM link: https://osm.org/node/5759307614 -->
  <!-- Original coordinates: POINT (47.540543 19.248752) -->
  <!-- OSM <-> POI distance: 62.38788957 m-->
  <!-- Checker good: {not_in_water}; bad {}-->
  <!-- Original tags: 'name':'Rossmann'; 'opening_hours':'Mo-Sa 09:00-20:00; Su 09:00-17:00'; 'shop':'chemist';  -->
  <node action="modify" changeset="1" id="5759307614" lat="47.5408791949091" lon="19.2494173973205" timestamp="2018-07-13T19:58:17Z" uid="4579407" user="KAMI" version="1">
    <tag k="addr:city" v="Csömör"/>
    <tag k="addr:country" v="HU"/>
    <tag k="addr:housenumber" v="8"/>
    <tag k="addr:postcode" v="2143"/>
    <tag k="addr:street" v="Határ út"/>
    <tag k="brand" v="Rossmann"/>
    <tag k="facebook" v="https://www.facebook.com/Rossmann.hu"/>
    <tag k="import" v="osm_poi_matchmaker"/>
    <tag k="instagram" v="https://www.instagram.com/rossmann_hu"/>
    <tag k="name" v="Rossmann"/>
    <tag k="opening_hours" v="Mo-Sa 09:00-20:00; Su 09:00-17:00; PH off"/>
    <tag k="operator" v="Rossmann Magyarország Kft."/>
    <tag k="payment:cash" v="yes"/>
    <tag k="payment:debit_cards" v="yes"/>
    <tag k="shop" v="chemist"/>
    <tag k="source" v="website"/>
    <tag k="source:date" v="2018-07-30"/>
    <tag k="website" v="https://www.rossmann.hu"/>
    <tag k="youtube" v="https://www.youtube.com/channel/UCmUCPmvMLL3IaXRBtx7-J7Q"/>
  </node>
  <!-- OSM link: https://osm.org/node/2828589170 -->
  <!-- Original coordinates: POINT (47.611318 17.250154) -->
  <!-- OSM <-> POI distance: 36.60717369 m-->
  <!-- Checker good: {not_in_water}; bad {}-->
  <!-- Original tags: 'name':'Rossmann'; 'shop':'chemist'; 'wheelchair':'yes';  -->
  <node action="modify" changeset="1" id="2828589170" lat="47.6114417949062" lon="17.2506064975987" timestamp="2017-02-17T20:39:15Z" uid="4579407" user="KAMI" version="3">
    <tag k="addr:city" v="Csorna"/>
    <tag k="addr:country" v="HU"/>
    <tag k="addr:housenumber" v="1"/>
    <tag k="addr:postcode" v="9300"/>
    <tag k="addr:street" v="Mártírok tere"/>
    <tag k="brand" v="Rossmann"/>
    <tag k="facebook" v="https://www.facebook.com/Rossmann.hu"/>
    <tag k="import" v="osm_poi_matchmaker"/>
    <tag k="instagram" v="https://www.instagram.com/rossmann_hu"/>
    <tag k="name" v="Rossmann"/>
    <tag k="opening_hours" v="Mo-Fr 08:00-19:00; Sa 08:00-14:00; PH off"/>
    <tag k="operator" v="Rossmann Magyarország Kft."/>
    <tag k="payment:cash" v="yes"/>
    <tag k="payment:debit_cards" v="yes"/>
    <tag k="shop" v="chemist"/>
    <tag k="source" v="website"/>
    <tag k="source:date" v="2018-07-30"/>
    <tag k="website" v="https://www.rossmann.hu"/>
    <tag k="wheelchair" v="yes"/>
    <tag k="youtube" v="https://www.youtube.com/channel/UCmUCPmvMLL3IaXRBtx7-J7Q"/>
  </node>
  <!-- OSM link: https://osm.org/node/3471930769 -->
  <!-- Original coordinates: POINT (47.18726 19.319935) -->
  <!-- OSM <-> POI distance: 17.93453753 m-->
  <!-- Checker good: {not_in_water}; bad {}-->
  <!-- Original tags: 'name':'Rossmann'; 'shop':'chemist'; 'source':'turistautak.hu'; 'source:date':'2011-06-24'; 'url':'http://turistautak.hu/poi.php?id=119991';  -->
  <node action="modify" changeset="1" id="3471930769" lat="47.1874199949243" lon="19.3199049973106" timestamp="2015-04-22T19:40:28Z" uid="4579407" user="KAMI" version="1">
    <tag k="addr:city" v="Dabas"/>
    <tag k="addr:country" v="HU"/>
    <tag k="addr:housenumber" v="46/B"/>
    <tag k="addr:postcode" v="2370"/>
    <tag k="addr:street" v="Bartók Béla út"/>
    <tag k="brand" v="Rossmann"/>
    <tag k="facebook" v="https://www.facebook.com/Rossmann.hu"/>
    <tag k="import" v="osm_poi_matchmaker"/>
    <tag k="instagram" v="https://www.instagram.com/rossmann_hu"/>
    <tag k="name" v="Rossmann"/>
    <tag k="opening_hours" v="Mo-Fr 08:00-19:00; Sa 08:00-16:00; PH off"/>
    <tag k="operator" v="Rossmann Magyarország Kft."/>
    <tag k="payment:cash" v="yes"/>
    <tag k="payment:debit_cards" v="yes"/>
    <tag k="shop" v="chemist"/>
    <tag k="source" v="website"/>
    <tag k="source:date" v="2018-07-30"/>
    <tag k="url" v="http://turistautak.hu/poi.php?id=119991"/>
    <tag k="website" v="https://www.rossmann.hu"/>
    <tag k="youtube" v="https://www.youtube.com/channel/UCmUCPmvMLL3IaXRBtx7-J7Q"/>
  </node>
  <!-- OSM link: https://osm.org/node/3184444983 -->
  <!-- Original coordinates: POINT (47.528819 21.625651) -->
  <!-- OSM <-> POI distance: 12.76569417 m-->
  <!-- Checker good: {not_in_water}; bad {}-->
  <!-- Original tags: 'addr:city':'Debrecen'; 'addr:street':'Piac utca'; 'name':'Rossmann'; 'shop':'chemist'; 'wheelchair':'yes';  -->
  <node action="modify" changeset="1" id="3184444983" lat="47.5288057949096" lon="21.6258198969897" timestamp="2014-12-22T09:40:38Z" uid="4579407" user="KAMI" version="2">
    <tag k="addr:city" v="Debrecen"/>
    <tag k="addr:country" v="HU"/>
    <tag k="addr:housenumber" v="1"/>
    <tag k="addr:postcode" v="4024"/>
    <tag k="addr:street" v="Kossuth Lajos utca"/>
    <tag k="brand" v="Rossmann"/>
    <tag k="facebook" v="https://www.facebook.com/Rossmann.hu"/>
    <tag k="import" v="osm_poi_matchmaker"/>
    <tag k="instagram" v="https://www.instagram.com/rossmann_hu"/>
    <tag k="name" v="Rossmann"/>
    <tag k="opening_hours" v="Mo-Fr 08:00-19:00; Sa 08:00-16:00; PH off"/>
    <tag k="operator" v="Rossmann Magyarország Kft."/>
    <tag k="payment:cash" v="yes"/>
    <tag k="payment:debit_cards" v="yes"/>
    <tag k="shop" v="chemist"/>
    <tag k="source" v="website"/>
    <tag k="source:date" v="2018-07-30"/>
    <tag k="website" v="https://www.rossmann.hu"/>
    <tag k="wheelchair" v="yes"/>
    <tag k="youtube" v="https://www.youtube.com/channel/UCmUCPmvMLL3IaXRBtx7-J7Q"/>
  </node>
  <!-- Original coordinates: POINT (46.375626 18.131159) -->
  <!-- OSM <-> POI distance: None m-->
  <!-- Checker good: {not_in_water}; bad {}-->
  <!-- Original tags:  -->
  <node action="modify" changeset="99999" id="-22" lat="46.375626" lon="18.131159" timestamp="" uid="4579407" user="KAMI" version="99999">
    <tag k="addr:city" v="Dombóvár"/>
    <tag k="addr:country" v="HU"/>
    <tag k="addr:housenumber" v="17"/>
    <tag k="addr:postcode" v="7200"/>
    <tag k="addr:street" v="Hunyadi tér"/>
    <tag k="brand" v="Rossmann"/>
    <tag k="facebook" v="https://www.facebook.com/Rossmann.hu"/>
    <tag k="import" v="osm_poi_matchmaker"/>
    <tag k="instagram" v="https://www.instagram.com/rossmann_hu"/>
    <tag k="name" v="Rossmann"/>
    <tag k="opening_hours" v="Mo-Fr 08:00-18:00; Sa 08:00-13:00; PH off"/>
    <tag k="operator" v="Rossmann Magyarország Kft."/>
    <tag k="payment:cash" v="yes"/>
    <tag k="payment:debit_cards" v="yes"/>
    <tag k="shop" v="chemist"/>
    <tag k="source" v="website"/>
    <tag k="source:date" v="2018-07-30"/>
    <tag k="website" v="https://www.rossmann.hu"/>
    <tag k="youtube" v="https://www.youtube.com/channel/UCmUCPmvMLL3IaXRBtx7-J7Q"/>
  </node>
  <!-- Original coordinates: POINT (47.719184 18.73034) -->
  <!-- OSM <-> POI distance: None m-->
  <!-- Checker good: {not_in_water}; bad {}-->
  <!-- Original tags:  -->
  <node action="modify" changeset="99999" id="-23" lat="47.719184" lon="18.73034" timestamp="" uid="4579407" user="KAMI" version="99999">
    <tag k="addr:city" v="Dorog"/>
    <tag k="addr:country" v="HU"/>
    <tag k="addr:housenumber" v="57"/>
    <tag k="addr:postcode" v="2510"/>
    <tag k="addr:street" v="Bécsi út"/>
    <tag k="brand" v="Rossmann"/>
    <tag k="facebook" v="https://www.facebook.com/Rossmann.hu"/>
    <tag k="import" v="osm_poi_matchmaker"/>
    <tag k="instagram" v="https://www.instagram.com/rossmann_hu"/>
    <tag k="name" v="Rossmann"/>
    <tag k="opening_hours" v="Mo-Fr 08:00-19:00; Sa 08:00-13:00; PH off"/>
    <tag k="operator" v="Rossmann Magyarország Kft."/>
    <tag k="payment:cash" v="yes"/>
    <tag k="payment:debit_cards" v="yes"/>
    <tag k="shop" v="chemist"/>
    <tag k="source" v="website"/>
    <tag k="source:date" v="2018-07-30"/>
    <tag k="website" v="https://www.rossmann.hu"/>
    <tag k="youtube" v="https://www.youtube.com/channel/UCmUCPmvMLL3IaXRBtx7-J7Q"/>
  </node>
  <!-- OSM link: https://osm.org/node/4549562351 -->
  <!-- Original coordinates: POINT (47.642308 19.127012) -->
  <!-- OSM <-> POI distance: 33.19657564 m-->
  <!-- Checker good: {not_in_water}; bad {}-->
  <!-- Original tags: 'name':'Rossmann'; 'shop':'chemist';  -->
  <node action="modify" changeset="1" id="4549562351" lat="47.6420823949049" lon="19.1267217973375" timestamp="2016-12-11T17:28:21Z" uid="4579407" user="KAMI" version="1">
    <tag k="addr:city" v="Dunakeszi"/>
    <tag k="addr:country" v="HU"/>
    <tag k="addr:housenumber" v="4"/>
    <tag k="addr:postcode" v="2120"/>
    <tag k="addr:street" v="Casalgrande tér"/>
    <tag k="brand" v="Rossmann"/>
    <tag k="facebook" v="https://www.facebook.com/Rossmann.hu"/>
    <tag k="import" v="osm_poi_matchmaker"/>
    <tag k="instagram" v="https://www.instagram.com/rossmann_hu"/>
    <tag k="name" v="Rossmann"/>
    <tag k="opening_hours" v="Mo-Fr 08:00-19:00; Sa 08:00-16:00; PH off"/>
    <tag k="operator" v="Rossmann Magyarország Kft."/>
    <tag k="payment:cash" v="yes"/>
    <tag k="payment:debit_cards" v="yes"/>
    <tag k="shop" v="chemist"/>
    <tag k="source" v="website"/>
    <tag k="source:date" v="2018-07-30"/>
    <tag k="website" v="https://www.rossmann.hu"/>
    <tag k="youtube" v="https://www.youtube.com/channel/UCmUCPmvMLL3IaXRBtx7-J7Q"/>
  </node>
  <!-- OSM link: https://osm.org/node/3976014578 -->
  <!-- Original coordinates: POINT (46.964845 18.938528) -->
  <!-- OSM <-> POI distance: 130.70099137 m-->
  <!-- Checker good: {not_in_water}; bad {}-->
  <!-- Original tags: 'name':'ROSSMANN'; 'shop':'chemist';  -->
  <node action="modify" changeset="1" id="3976014578" lat="46.9638877949341" lon="18.9375283973639" timestamp="2016-01-29T14:16:27Z" uid="4579407" user="KAMI" version="1">
    <tag k="addr:city" v="Dunaújváros"/>
    <tag k="addr:country" v="HU"/>
    <tag k="addr:housenumber" v="4/D"/>
    <tag k="addr:postcode" v="2400"/>
    <tag k="addr:street" v="Dózsa György út"/>
    <tag k="brand" v="Rossmann"/>
    <tag k="facebook" v="https://www.facebook.com/Rossmann.hu"/>
    <tag k="import" v="osm_poi_matchmaker"/>
    <tag k="instagram" v="https://www.instagram.com/rossmann_hu"/>
    <tag k="name" v="Rossmann"/>
    <tag k="opening_hours" v="Mo-Fr 08:00-19:00; Sa 08:00-16:00; PH off"/>
    <tag k="operator" v="Rossmann Magyarország Kft."/>
    <tag k="payment:cash" v="yes"/>
    <tag k="payment:debit_cards" v="yes"/>
    <tag k="shop" v="chemist"/>
    <tag k="source" v="website"/>
    <tag k="source:date" v="2018-07-30"/>
    <tag k="website" v="https://www.rossmann.hu"/>
    <tag k="youtube" v="https://www.youtube.com/channel/UCmUCPmvMLL3IaXRBtx7-J7Q"/>
  </node>
  <!-- OSM link: https://osm.org/node/4840065122 -->
  <!-- Original coordinates: POINT (47.903277 20.374493) -->
  <!-- OSM <-> POI distance: 27.65113318 m-->
  <!-- Checker good: {not_in_water}; bad {}-->
  <!-- Original tags: 'name':'Rossmann'; 'name:hu':'Rossmann'; 'shop':'chemist';  -->
  <node action="modify" changeset="1" id="4840065122" lat="47.9030294948942" lon="20.3745288971638" timestamp="2017-08-05T11:25:04Z" uid="4579407" user="KAMI" version="2">
    <tag k="addr:city" v="Eger"/>
    <tag k="addr:country" v="HU"/>
    <tag k="addr:housenumber" v="1-3"/>
    <tag k="addr:postcode" v="3300"/>
    <tag k="addr:street" v="Katona tér"/>
    <tag k="brand" v="Rossmann"/>
    <tag k="facebook" v="https://www.facebook.com/Rossmann.hu"/>
    <tag k="import" v="osm_poi_matchmaker"/>
    <tag k="instagram" v="https://www.instagram.com/rossmann_hu"/>
    <tag k="name" v="Rossmann"/>
    <tag k="name:hu" v="Rossmann"/>
    <tag k="opening_hours" v="Mo-Fr 08:00-19:00; Sa 08:00-16:00; PH off"/>
    <tag k="operator" v="Rossmann Magyarország Kft."/>
    <tag k="payment:cash" v="yes"/>
    <tag k="payment:debit_cards" v="yes"/>
    <tag k="shop" v="chemist"/>
    <tag k="source" v="website"/>
    <tag k="source:date" v="2018-07-30"/>
    <tag k="website" v="https://www.rossmann.hu"/>
    <tag k="youtube" v="https://www.youtube.com/channel/UCmUCPmvMLL3IaXRBtx7-J7Q"/>
  </node>
  <!-- OSM link: https://osm.org/node/3991743462 -->
  <!-- Original coordinates: POINT (47.378433 18.925316) -->
  <!-- OSM <-> POI distance: 29.48988362 m-->
  <!-- Checker good: {not_in_water}; bad {}-->
  <!-- Original tags: 'name':'Rossmann'; 'shop':'chemist'; 'source':'survey';  -->
  <node action="modify" changeset="1" id="3991743462" lat="47.378412694916" lon="18.9249254973656" timestamp="2016-04-09T12:28:54Z" uid="4579407" user="KAMI" version="2">
    <tag k="addr:city" v="Érd"/>
    <tag k="addr:country" v="HU"/>
    <tag k="addr:housenumber" v="28"/>
    <tag k="addr:postcode" v="2030"/>
    <tag k="addr:street" v="Budai út"/>
    <tag k="brand" v="Rossmann"/>
    <tag k="facebook" v="https://www.facebook.com/Rossmann.hu"/>
    <tag k="import" v="osm_poi_matchmaker"/>
    <tag k="instagram" v="https://www.instagram.com/rossmann_hu"/>
    <tag k="name" v="Rossmann"/>
    <tag k="opening_hours" v="Mo-Fr 08:00-19:00; Sa 08:00-16:00; PH off"/>
    <tag k="operator" v="Rossmann Magyarország Kft."/>
    <tag k="payment:cash" v="yes"/>
    <tag k="payment:debit_cards" v="yes"/>
    <tag k="shop" v="chemist"/>
    <tag k="source" v="website"/>
    <tag k="source:date" v="2018-07-30"/>
    <tag k="website" v="https://www.rossmann.hu"/>
    <tag k="youtube" v="https://www.youtube.com/channel/UCmUCPmvMLL3IaXRBtx7-J7Q"/>
  </node>
  <!-- OSM link: https://osm.org/node/5111696617 -->
  <!-- Original coordinates: POINT (47.793681 18.742683) -->
  <!-- OSM <-> POI distance: 8.58985662 m-->
  <!-- Checker good: {not_in_water}; bad {}-->
  <!-- Original tags: 'name':'Rossmann'; 'shop':'chemist';  -->
  <node action="modify" changeset="1" id="5111696617" lat="47.7936615948986" lon="18.742571697391" timestamp="2017-09-17T20:09:07Z" uid="4579407" user="KAMI" version="1">
    <tag k="addr:city" v="Esztergom"/>
    <tag k="addr:country" v="HU"/>
    <tag k="addr:housenumber" v="2"/>
    <tag k="addr:postcode" v="2500"/>
    <tag k="addr:street" v="Petőfi Sándor utca"/>
    <tag k="brand" v="Rossmann"/>
    <tag k="facebook" v="https://www.facebook.com/Rossmann.hu"/>
    <tag k="import" v="osm_poi_matchmaker"/>
    <tag k="instagram" v="https://www.instagram.com/rossmann_hu"/>
    <tag k="name" v="Rossmann"/>
    <tag k="opening_hours" v="Mo-Fr 08:00-19:00; Sa 08:00-14:00; PH off"/>
    <tag k="operator" v="Rossmann Magyarország Kft."/>
    <tag k="payment:cash" v="yes"/>
    <tag k="payment:debit_cards" v="yes"/>
    <tag k="shop" v="chemist"/>
    <tag k="source" v="website"/>
    <tag k="source:date" v="2018-07-30"/>
    <tag k="website" v="https://www.rossmann.hu"/>
    <tag k="youtube" v="https://www.youtube.com/channel/UCmUCPmvMLL3IaXRBtx7-J7Q"/>
  </node>
  <!-- Original coordinates: POINT (47.989838 22.512797) -->
  <!-- OSM <-> POI distance: None m-->
  <!-- Checker good: {not_in_water}; bad {}-->
  <!-- Original tags:  -->
  <node action="modify" changeset="99999" id="-29" lat="47.989838" lon="22.512797" timestamp="" uid="4579407" user="KAMI" version="99999">
    <tag k="addr:city" v="Fehérgyarmat"/>
    <tag k="addr:country" v="HU"/>
    <tag k="addr:housenumber" v="14"/>
    <tag k="addr:postcode" v="4900"/>
    <tag k="addr:street" v="Kossuth Lajos utca"/>
    <tag k="brand" v="Rossmann"/>
    <tag k="facebook" v="https://www.facebook.com/Rossmann.hu"/>
    <tag k="import" v="osm_poi_matchmaker"/>
    <tag k="instagram" v="https://www.instagram.com/rossmann_hu"/>
    <tag k="name" v="Rossmann"/>
    <tag k="opening_hours" v="Mo-Fr 08:00-18:00; Sa 08:00-15:00; PH off"/>
    <tag k="operator" v="Rossmann Magyarország Kft."/>
    <tag k="payment:cash" v="yes"/>
    <tag k="payment:debit_cards" v="yes"/>
    <tag k="shop" v="chemist"/>
    <tag k="source" v="website"/>
    <tag k="source:date" v="2018-07-30"/>
    <tag k="website" v="https://www.rossmann.hu"/>
    <tag k="youtube" v="https://www.youtube.com/channel/UCmUCPmvMLL3IaXRBtx7-J7Q"/>
  </node>
  <!-- Original coordinates: POINT (46.7493 17.557463) -->
  <!-- OSM <-> POI distance: None m-->
  <!-- Checker good: {not_in_water}; bad {}-->
  <!-- Original tags:  -->
  <node action="modify" changeset="99999" id="-30" lat="46.7493" lon="17.557463" timestamp="" uid="4579407" user="KAMI" version="99999">
    <tag k="addr:city" v="Fonyód"/>
    <tag k="addr:country" v="HU"/>
    <tag k="addr:housenumber" v="7"/>
    <tag k="addr:postcode" v="8640"/>
    <tag k="addr:street" v="Ady Endre utca"/>
    <tag k="brand" v="Rossmann"/>
    <tag k="facebook" v="https://www.facebook.com/Rossmann.hu"/>
    <tag k="import" v="osm_poi_matchmaker"/>
    <tag k="instagram" v="https://www.instagram.com/rossmann_hu"/>
    <tag k="name" v="Rossmann"/>
    <tag k="opening_hours" v="Mo-Fr 08:00-20:00; Sa-Su 08:00-18:00; PH off"/>
    <tag k="operator" v="Rossmann Magyarország Kft."/>
    <tag k="payment:cash" v="yes"/>
    <tag k="payment:debit_cards" v="yes"/>
    <tag k="shop" v="chemist"/>
    <tag k="source" v="website"/>
    <tag k="source:date" v="2018-07-30"/>
    <tag k="website" v="https://www.rossmann.hu"/>
    <tag k="youtube" v="https://www.youtube.com/channel/UCmUCPmvMLL3IaXRBtx7-J7Q"/>
  </node>
  <!-- Original coordinates: POINT (47.5810859 19.1649915) -->
  <!-- OSM <-> POI distance: None m-->
  <!-- Checker good: {not_in_water}; bad {}-->
  <!-- Original tags:  -->
  <node action="modify" changeset="99999" id="-31" lat="47.5810859" lon="19.1649915" timestamp="" uid="4579407" user="KAMI" version="99999">
    <tag k="addr:city" v="Fót"/>
    <tag k="addr:country" v="HU"/>
    <tag k="addr:housenumber" v="1"/>
    <tag k="addr:postcode" v="2151"/>
    <tag k="addr:street" v="Fehérkő utca"/>
    <tag k="brand" v="Rossmann"/>
    <tag k="facebook" v="https://www.facebook.com/Rossmann.hu"/>
    <tag k="import" v="osm_poi_matchmaker"/>
    <tag k="instagram" v="https://www.instagram.com/rossmann_hu"/>
    <tag k="name" v="Rossmann"/>
    <tag k="opening_hours" v="Mo-Sa 09:00-20:00; Su 10:00-18:00; PH off"/>
    <tag k="operator" v="Rossmann Magyarország Kft."/>
    <tag k="payment:cash" v="yes"/>
    <tag k="payment:debit_cards" v="yes"/>
    <tag k="shop" v="chemist"/>
    <tag k="source" v="website"/>
    <tag k="source:date" v="2018-07-30"/>
    <tag k="website" v="https://www.rossmann.hu"/>
    <tag k="youtube" v="https://www.youtube.com/channel/UCmUCPmvMLL3IaXRBtx7-J7Q"/>
  </node>
  <!-- OSM link: https://osm.org/node/2865703557 -->
  <!-- Original coordinates: POINT (47.749186 20.417367) -->
  <!-- OSM <-> POI distance: 22.13005919 m-->
  <!-- Checker good: {not_in_water}; bad {}-->
  <!-- Original tags: 'name':'Rossmann'; 'shop':'chemist';  -->
  <node action="modify" changeset="1" id="2865703557" lat="47.7493499949004" lon="20.4171992971579" timestamp="2014-05-18T04:28:51Z" uid="4579407" user="KAMI" version="1">
    <tag k="addr:city" v="Füzesabony"/>
    <tag k="addr:country" v="HU"/>
    <tag k="addr:housenumber" v="52"/>
    <tag k="addr:postcode" v="3390"/>
    <tag k="addr:street" v="Rákóczi út"/>
    <tag k="brand" v="Rossmann"/>
    <tag k="facebook" v="https://www.facebook.com/Rossmann.hu"/>
    <tag k="import" v="osm_poi_matchmaker"/>
    <tag k="instagram" v="https://www.instagram.com/rossmann_hu"/>
    <tag k="name" v="Rossmann"/>
    <tag k="opening_hours" v="Mo-Fr 08:00-18:00; Sa 08:00-13:00; PH off"/>
    <tag k="operator" v="Rossmann Magyarország Kft."/>
    <tag k="payment:cash" v="yes"/>
    <tag k="payment:debit_cards" v="yes"/>
    <tag k="shop" v="chemist"/>
    <tag k="source" v="website"/>
    <tag k="source:date" v="2018-07-30"/>
    <tag k="website" v="https://www.rossmann.hu"/>
    <tag k="youtube" v="https://www.youtube.com/channel/UCmUCPmvMLL3IaXRBtx7-J7Q"/>
  </node>
  <!-- OSM link: https://osm.org/node/2776893536 -->
  <!-- Original coordinates: POINT (47.599399 19.348498) -->
  <!-- OSM <-> POI distance: 43.50000622 m-->
  <!-- Checker good: {not_in_water}; bad {}-->
  <!-- Original tags: 'addr:city':'Gödöllő'; 'addr:housenumber':'4'; 'addr:postcode':'2100'; 'addr:street':'Szabadság tér'; 'name':'Rossmann'; 'shop':'chemist';  -->
  <node action="modify" changeset="1" id="2776893536" lat="47.5990082949067" lon="19.3484686973067" timestamp="2014-04-08T10:19:41Z" uid="4579407" user="KAMI" version="1">
    <tag k="addr:city" v="Gödöllő"/>
    <tag k="addr:country" v="HU"/>
    <tag k="addr:housenumber" v="4"/>
    <tag k="addr:postcode" v="2100"/>
    <tag k="addr:street" v="Szabadság tér"/>
    <tag k="brand" v="Rossmann"/>
    <tag k="facebook" v="https://www.facebook.com/Rossmann.hu"/>
    <tag k="import" v="osm_poi_matchmaker"/>
    <tag k="instagram" v="https://www.instagram.com/rossmann_hu"/>
    <tag k="name" v="Rossmann"/>
    <tag k="opening_hours" v="Mo-Fr 08:00-19:00; Sa 08:00-14:00; PH off"/>
    <tag k="operator" v="Rossmann Magyarország Kft."/>
    <tag k="payment:cash" v="yes"/>
    <tag k="payment:debit_cards" v="yes"/>
    <tag k="shop" v="chemist"/>
    <tag k="source" v="website"/>
    <tag k="source:date" v="2018-07-30"/>
    <tag k="website" v="https://www.rossmann.hu"/>
    <tag k="youtube" v="https://www.youtube.com/channel/UCmUCPmvMLL3IaXRBtx7-J7Q"/>
  </node>
  <!-- OSM link: https://osm.org/node/3459957926 -->
  <!-- Original coordinates: POINT (46.937907 20.827451) -->
  <!-- OSM <-> POI distance: 11.96026436 m-->
  <!-- Checker good: {not_in_water}; bad {}-->
  <!-- Original tags: 'name':'Rossmann'; 'shop':'chemist'; 'source':'turistautak.hu'; 'source:date':'2013-11-10'; 'url':'http://turistautak.hu/poi.php?id=162532';  -->
  <node action="modify" changeset="1" id="3459957926" lat="46.9377999949353" lon="20.8274669971008" timestamp="2015-04-16T18:24:00Z" uid="4579407" user="KAMI" version="1">
    <tag k="addr:city" v="Gyomaendrőd"/>
    <tag k="addr:country" v="HU"/>
    <tag k="addr:housenumber" v="212"/>
    <tag k="addr:postcode" v="5500"/>
    <tag k="addr:street" v="Fő út"/>
    <tag k="brand" v="Rossmann"/>
    <tag k="facebook" v="https://www.facebook.com/Rossmann.hu"/>
    <tag k="import" v="osm_poi_matchmaker"/>
    <tag k="instagram" v="https://www.instagram.com/rossmann_hu"/>
    <tag k="name" v="Rossmann"/>
    <tag k="opening_hours" v="Mo-Fr 08:00-19:00; Sa 08:30-14:00; PH off"/>
    <tag k="operator" v="Rossmann Magyarország Kft."/>
    <tag k="payment:cash" v="yes"/>
    <tag k="payment:debit_cards" v="yes"/>
    <tag k="shop" v="chemist"/>
    <tag k="source" v="website"/>
    <tag k="source:date" v="2018-07-30"/>
    <tag k="url" v="http://turistautak.hu/poi.php?id=162532"/>
    <tag k="website" v="https://www.rossmann.hu"/>
    <tag k="youtube" v="https://www.youtube.com/channel/UCmUCPmvMLL3IaXRBtx7-J7Q"/>
  </node>
  <!-- Original coordinates: POINT (47.425629 19.386308) -->
  <!-- OSM <-> POI distance: None m-->
  <!-- Checker good: {not_in_water}; bad {}-->
  <!-- Original tags:  -->
  <node action="modify" changeset="99999" id="-35" lat="47.425629" lon="19.386308" timestamp="" uid="4579407" user="KAMI" version="99999">
    <tag k="addr:city" v="Gyömrő"/>
    <tag k="addr:country" v="HU"/>
    <tag k="addr:postcode" v="2230"/>
    <tag k="addr:street" v="Simon Mihály tér"/>
    <tag k="brand" v="Rossmann"/>
    <tag k="facebook" v="https://www.facebook.com/Rossmann.hu"/>
    <tag k="import" v="osm_poi_matchmaker"/>
    <tag k="instagram" v="https://www.instagram.com/rossmann_hu"/>
    <tag k="name" v="Rossmann"/>
    <tag k="opening_hours" v="Mo-Fr 08:00-18:00; Sa 08:00-14:00; PH off"/>
    <tag k="operator" v="Rossmann Magyarország Kft."/>
    <tag k="payment:cash" v="yes"/>
    <tag k="payment:debit_cards" v="yes"/>
    <tag k="shop" v="chemist"/>
    <tag k="source" v="website"/>
    <tag k="source:date" v="2018-07-30"/>
    <tag k="website" v="https://www.rossmann.hu"/>
    <tag k="youtube" v="https://www.youtube.com/channel/UCmUCPmvMLL3IaXRBtx7-J7Q"/>
  </node>
  <!-- Original coordinates: POINT (47.784748 19.930381) -->
  <!-- OSM <-> POI distance: None m-->
  <!-- Checker good: {not_in_water}; bad {}-->
  <!-- Original tags:  -->
  <node action="modify" changeset="99999" id="-36" lat="47.784748" lon="19.930381" timestamp="" uid="4579407" user="KAMI" version="99999">
    <tag k="addr:city" v="Gyöngyös"/>
    <tag k="addr:country" v="HU"/>
    <tag k="addr:housenumber" v="27"/>
    <tag k="addr:postcode" v="3200"/>
    <tag k="addr:street" v="Kossuth Lajos utca"/>
    <tag k="brand" v="Rossmann"/>
    <tag k="facebook" v="https://www.facebook.com/Rossmann.hu"/>
    <tag k="import" v="osm_poi_matchmaker"/>
    <tag k="instagram" v="https://www.instagram.com/rossmann_hu"/>
    <tag k="name" v="Rossmann"/>
    <tag k="opening_hours" v="Mo-Fr 08:00-19:00; Sa 08:00-14:00; PH off"/>
    <tag k="operator" v="Rossmann Magyarország Kft."/>
    <tag k="payment:cash" v="yes"/>
    <tag k="payment:debit_cards" v="yes"/>
    <tag k="shop" v="chemist"/>
    <tag k="source" v="website"/>
    <tag k="source:date" v="2018-07-30"/>
    <tag k="website" v="https://www.rossmann.hu"/>
    <tag k="youtube" v="https://www.youtube.com/channel/UCmUCPmvMLL3IaXRBtx7-J7Q"/>
  </node>
  <!-- OSM link: https://osm.org/node/2509606594 -->
  <!-- Original coordinates: POINT (47.685838 17.634363) -->
  <!-- OSM <-> POI distance: 6.17947804 m-->
  <!-- Checker good: {not_in_water}; bad {}-->
  <!-- Original tags: 'addr:city':'Győr'; 'addr:housenumber':'25'; 'addr:postcode':'9021'; 'addr:street':'Baross Gábor út'; 'name':'Rossmann'; 'shop':'chemist'; 'wheelchair':'yes';  -->
  <node action="modify" changeset="1" id="2509606594" lat="47.6858256949031" lon="17.6342824975453" timestamp="2015-09-01T08:58:01Z" uid="4579407" user="KAMI" version="5">
    <tag k="addr:city" v="Győr"/>
    <tag k="addr:country" v="HU"/>
    <tag k="addr:housenumber" v="25"/>
    <tag k="addr:postcode" v="9021"/>
    <tag k="addr:street" v="Baross Gábor utca"/>
    <tag k="brand" v="Rossmann"/>
    <tag k="facebook" v="https://www.facebook.com/Rossmann.hu"/>
    <tag k="import" v="osm_poi_matchmaker"/>
    <tag k="instagram" v="https://www.instagram.com/rossmann_hu"/>
    <tag k="name" v="Rossmann"/>
    <tag k="opening_hours" v="Mo-Fr 08:00-19:00; Sa 08:00-16:00; PH off"/>
    <tag k="operator" v="Rossmann Magyarország Kft."/>
    <tag k="payment:cash" v="yes"/>
    <tag k="payment:debit_cards" v="yes"/>
    <tag k="shop" v="chemist"/>
    <tag k="source" v="website"/>
    <tag k="source:date" v="2018-07-30"/>
    <tag k="website" v="https://www.rossmann.hu"/>
    <tag k="wheelchair" v="yes"/>
    <tag k="youtube" v="https://www.youtube.com/channel/UCmUCPmvMLL3IaXRBtx7-J7Q"/>
  </node>
  <!-- Original coordinates: POINT (46.643186 21.272461) -->
  <!-- OSM <-> POI distance: None m-->
  <!-- Checker good: {not_in_water}; bad {}-->
  <!-- Original tags:  -->
  <node action="modify" changeset="99999" id="-38" lat="46.643186" lon="21.272461" timestamp="" uid="4579407" user="KAMI" version="99999">
    <tag k="addr:city" v="Gyula"/>
    <tag k="addr:country" v="HU"/>
    <tag k="addr:housenumber" v="27"/>
    <tag k="addr:postcode" v="5700"/>
    <tag k="addr:street" v="Kossuth Lajos tér"/>
    <tag k="brand" v="Rossmann"/>
    <tag k="facebook" v="https://www.facebook.com/Rossmann.hu"/>
    <tag k="import" v="osm_poi_matchmaker"/>
    <tag k="instagram" v="https://www.instagram.com/rossmann_hu"/>
    <tag k="name" v="Rossmann"/>
    <tag k="opening_hours" v="Mo-Fr 08:00-19:00; Sa 08:00-15:00; PH off"/>
    <tag k="operator" v="Rossmann Magyarország Kft."/>
    <tag k="payment:cash" v="yes"/>
    <tag k="payment:debit_cards" v="yes"/>
    <tag k="shop" v="chemist"/>
    <tag k="source" v="website"/>
    <tag k="source:date" v="2018-07-30"/>
    <tag k="website" v="https://www.rossmann.hu"/>
    <tag k="youtube" v="https://www.youtube.com/channel/UCmUCPmvMLL3IaXRBtx7-J7Q"/>
  </node>
  <!-- Original coordinates: POINT (47.672115 21.507765) -->
  <!-- OSM <-> POI distance: None m-->
  <!-- Checker good: {not_in_water}; bad {}-->
  <!-- Original tags:  -->
  <node action="modify" changeset="99999" id="-39" lat="47.672115" lon="21.507765" timestamp="" uid="4579407" user="KAMI" version="99999">
    <tag k="addr:city" v="Hajdúböszörmény"/>
    <tag k="addr:country" v="HU"/>
    <tag k="addr:housenumber" v="3"/>
    <tag k="addr:postcode" v="4220"/>
    <tag k="addr:street" v="Kossuth Lajos utca"/>
    <tag k="brand" v="Rossmann"/>
    <tag k="facebook" v="https://www.facebook.com/Rossmann.hu"/>
    <tag k="import" v="osm_poi_matchmaker"/>
    <tag k="instagram" v="https://www.instagram.com/rossmann_hu"/>
    <tag k="name" v="Rossmann"/>
    <tag k="opening_hours" v="Mo-Fr 08:00-19:00; Sa 08:00-15:00; PH off"/>
    <tag k="operator" v="Rossmann Magyarország Kft."/>
    <tag k="payment:cash" v="yes"/>
    <tag k="payment:debit_cards" v="yes"/>
    <tag k="shop" v="chemist"/>
    <tag k="source" v="website"/>
    <tag k="source:date" v="2018-07-30"/>
    <tag k="website" v="https://www.rossmann.hu"/>
    <tag k="youtube" v="https://www.youtube.com/channel/UCmUCPmvMLL3IaXRBtx7-J7Q"/>
  </node>
  <!-- Original coordinates: POINT (47.845904 21.429397) -->
  <!-- OSM <-> POI distance: None m-->
  <!-- Checker good: {not_in_water}; bad {}-->
  <!-- Original tags:  -->
  <node action="modify" changeset="99999" id="-40" lat="47.845904" lon="21.429397" timestamp="" uid="4579407" user="KAMI" version="99999">
    <tag k="addr:city" v="Hajdúnánás"/>
    <tag k="addr:country" v="HU"/>
    <tag k="addr:housenumber" v="12-15"/>
    <tag k="addr:postcode" v="4080"/>
    <tag k="addr:street" v="Kossuth utca"/>
    <tag k="brand" v="Rossmann"/>
    <tag k="facebook" v="https://www.facebook.com/Rossmann.hu"/>
    <tag k="import" v="osm_poi_matchmaker"/>
    <tag k="instagram" v="https://www.instagram.com/rossmann_hu"/>
    <tag k="name" v="Rossmann"/>
    <tag k="opening_hours" v="Mo-Fr 08:00-18:00; Sa 08:00-16:00; PH off"/>
    <tag k="operator" v="Rossmann Magyarország Kft."/>
    <tag k="payment:cash" v="yes"/>
    <tag k="payment:debit_cards" v="yes"/>
    <tag k="shop" v="chemist"/>
    <tag k="source" v="website"/>
    <tag k="source:date" v="2018-07-30"/>
    <tag k="website" v="https://www.rossmann.hu"/>
    <tag k="youtube" v="https://www.youtube.com/channel/UCmUCPmvMLL3IaXRBtx7-J7Q"/>
  </node>
  <!-- Original coordinates: POINT (47.445003 21.391382) -->
  <!-- OSM <-> POI distance: None m-->
  <!-- Checker good: {not_in_water}; bad {}-->
  <!-- Original tags:  -->
  <node action="modify" changeset="99999" id="-41" lat="47.445003" lon="21.391382" timestamp="" uid="4579407" user="KAMI" version="99999">
    <tag k="addr:city" v="Hajdúszoboszló"/>
    <tag k="addr:country" v="HU"/>
    <tag k="addr:housenumber" v="9-11"/>
    <tag k="addr:postcode" v="4200"/>
    <tag k="addr:street" v="Hősök tere"/>
    <tag k="brand" v="Rossmann"/>
    <tag k="facebook" v="https://www.facebook.com/Rossmann.hu"/>
    <tag k="import" v="osm_poi_matchmaker"/>
    <tag k="instagram" v="https://www.instagram.com/rossmann_hu"/>
    <tag k="name" v="Rossmann"/>
    <tag k="opening_hours" v="Mo-Fr 08:00-18:00; Sa 08:00-15:00; PH off"/>
    <tag k="operator" v="Rossmann Magyarország Kft."/>
    <tag k="payment:cash" v="yes"/>
    <tag k="payment:debit_cards" v="yes"/>
    <tag k="shop" v="chemist"/>
    <tag k="source" v="website"/>
    <tag k="source:date" v="2018-07-30"/>
    <tag k="website" v="https://www.rossmann.hu"/>
    <tag k="youtube" v="https://www.youtube.com/channel/UCmUCPmvMLL3IaXRBtx7-J7Q"/>
  </node>
  <!-- Original coordinates: POINT (47.668187 19.681445) -->
  <!-- OSM <-> POI distance: None m-->
  <!-- Checker good: {not_in_water}; bad {}-->
  <!-- Original tags:  -->
  <node action="modify" changeset="99999" id="-42" lat="47.668187" lon="19.681445" timestamp="" uid="4579407" user="KAMI" version="99999">
    <tag k="addr:city" v="Hatvan"/>
    <tag k="addr:country" v="HU"/>
    <tag k="addr:housenumber" v="3-5"/>
    <tag k="addr:postcode" v="3000"/>
    <tag k="addr:street" v="Grassalkovich út"/>
    <tag k="brand" v="Rossmann"/>
    <tag k="facebook" v="https://www.facebook.com/Rossmann.hu"/>
    <tag k="import" v="osm_poi_matchmaker"/>
    <tag k="instagram" v="https://www.instagram.com/rossmann_hu"/>
    <tag k="name" v="Rossmann"/>
    <tag k="opening_hours" v="Mo-Fr 08:00-18:00; Sa 08:00-13:00; PH off"/>
    <tag k="operator" v="Rossmann Magyarország Kft."/>
    <tag k="payment:cash" v="yes"/>
    <tag k="payment:debit_cards" v="yes"/>
    <tag k="shop" v="chemist"/>
    <tag k="source" v="website"/>
    <tag k="source:date" v="2018-07-30"/>
    <tag k="website" v="https://www.rossmann.hu"/>
    <tag k="youtube" v="https://www.youtube.com/channel/UCmUCPmvMLL3IaXRBtx7-J7Q"/>
  </node>
  <!-- OSM link: https://osm.org/node/3195712471 -->
  <!-- Original coordinates: POINT (47.594698 20.289131) -->
  <!-- OSM <-> POI distance: 31.65479138 m-->
  <!-- Checker good: {not_in_water}; bad {}-->
  <!-- Original tags: 'addr:city':'Heves'; 'addr:housenumber':'15'; 'addr:postcode':'3360'; 'addr:street':'Hősök tere'; 'name':'Rossmann drogéria'; 'shop':'chemist'; 'wheelchair':'no';  -->
  <node action="modify" changeset="1" id="3195712471" lat="47.5949638949069" lon="20.2892817971757" timestamp="2016-04-26T14:27:23Z" uid="4579407" user="KAMI" version="6">
    <tag k="addr:city" v="Heves"/>
    <tag k="addr:country" v="HU"/>
    <tag k="addr:housenumber" v="15"/>
    <tag k="addr:postcode" v="3360"/>
    <tag k="addr:street" v="Hősök tere"/>
    <tag k="brand" v="Rossmann"/>
    <tag k="facebook" v="https://www.facebook.com/Rossmann.hu"/>
    <tag k="import" v="osm_poi_matchmaker"/>
    <tag k="instagram" v="https://www.instagram.com/rossmann_hu"/>
    <tag k="name" v="Rossmann"/>
    <tag k="opening_hours" v="Mo-Fr 08:00-18:00; Sa 08:00-14:00; PH off"/>
    <tag k="operator" v="Rossmann Magyarország Kft."/>
    <tag k="payment:cash" v="yes"/>
    <tag k="payment:debit_cards" v="yes"/>
    <tag k="shop" v="chemist"/>
    <tag k="source" v="website"/>
    <tag k="source:date" v="2018-07-30"/>
    <tag k="website" v="https://www.rossmann.hu"/>
    <tag k="wheelchair" v="no"/>
    <tag k="youtube" v="https://www.youtube.com/channel/UCmUCPmvMLL3IaXRBtx7-J7Q"/>
  </node>
  <!-- OSM link: https://osm.org/node/1896525297 -->
  <!-- Original coordinates: POINT (46.414593 20.318441) -->
  <!-- OSM <-> POI distance: 90.3017831 m-->
  <!-- Checker good: {not_in_water}; bad {}-->
  <!-- Original tags: 'name':'Rossmann'; 'shop':'chemist'; 'wheelchair':'yes';  -->
  <node action="modify" changeset="1" id="1896525297" lat="46.4145874949592" lon="20.3196188971715" timestamp="2018-01-12T20:48:30Z" uid="4579407" user="KAMI" version="2">
    <tag k="addr:city" v="Hódmezővásárhely"/>
    <tag k="addr:country" v="HU"/>
    <tag k="addr:housenumber" v="4"/>
    <tag k="addr:postcode" v="6800"/>
    <tag k="addr:street" v="Andrássy út"/>
    <tag k="brand" v="Rossmann"/>
    <tag k="facebook" v="https://www.facebook.com/Rossmann.hu"/>
    <tag k="import" v="osm_poi_matchmaker"/>
    <tag k="instagram" v="https://www.instagram.com/rossmann_hu"/>
    <tag k="name" v="Rossmann"/>
    <tag k="opening_hours" v="Mo-Fr 08:00-18:00; Sa 08:00-14:00; PH off"/>
    <tag k="operator" v="Rossmann Magyarország Kft."/>
    <tag k="payment:cash" v="yes"/>
    <tag k="payment:debit_cards" v="yes"/>
    <tag k="shop" v="chemist"/>
    <tag k="source" v="website"/>
    <tag k="source:date" v="2018-07-30"/>
    <tag k="website" v="https://www.rossmann.hu"/>
    <tag k="wheelchair" v="yes"/>
    <tag k="youtube" v="https://www.youtube.com/channel/UCmUCPmvMLL3IaXRBtx7-J7Q"/>
  </node>
  <!-- Original coordinates: POINT (47.501687 19.914114) -->
  <!-- OSM <-> POI distance: None m-->
  <!-- Checker good: {not_in_water}; bad {}-->
  <!-- Original tags:  -->
  <node action="modify" changeset="99999" id="-45" lat="47.501687" lon="19.914114" timestamp="" uid="4579407" user="KAMI" version="99999">
    <tag k="addr:city" v="Jászberény"/>
    <tag k="addr:country" v="HU"/>
    <tag k="addr:housenumber" v="19"/>
    <tag k="addr:postcode" v="5100"/>
    <tag k="addr:street" v="Lehel Vezér tér"/>
    <tag k="brand" v="Rossmann"/>
    <tag k="facebook" v="https://www.facebook.com/Rossmann.hu"/>
    <tag k="import" v="osm_poi_matchmaker"/>
    <tag k="instagram" v="https://www.instagram.com/rossmann_hu"/>
    <tag k="name" v="Rossmann"/>
    <tag k="opening_hours" v="Mo-Fr 08:00-19:00; Sa 08:00-13:00; PH off"/>
    <tag k="operator" v="Rossmann Magyarország Kft."/>
    <tag k="payment:cash" v="yes"/>
    <tag k="payment:debit_cards" v="yes"/>
    <tag k="shop" v="chemist"/>
    <tag k="source" v="website"/>
    <tag k="source:date" v="2018-07-30"/>
    <tag k="website" v="https://www.rossmann.hu"/>
    <tag k="youtube" v="https://www.youtube.com/channel/UCmUCPmvMLL3IaXRBtx7-J7Q"/>
  </node>
  <!-- Original coordinates: POINT (46.524958 18.979737) -->
  <!-- OSM <-> POI distance: None m-->
  <!-- Checker good: {not_in_water}; bad {}-->
  <!-- Original tags:  -->
  <node action="modify" changeset="99999" id="-46" lat="46.524958" lon="18.979737" timestamp="" uid="4579407" user="KAMI" version="99999">
    <tag k="addr:city" v="Kalocsa"/>
    <tag k="addr:country" v="HU"/>
    <tag k="addr:housenumber" v="59"/>
    <tag k="addr:postcode" v="6300"/>
    <tag k="addr:street" v="Szent István király utca"/>
    <tag k="brand" v="Rossmann"/>
    <tag k="facebook" v="https://www.facebook.com/Rossmann.hu"/>
    <tag k="import" v="osm_poi_matchmaker"/>
    <tag k="instagram" v="https://www.instagram.com/rossmann_hu"/>
    <tag k="name" v="Rossmann"/>
    <tag k="opening_hours" v="Mo-Fr 08:00-18:00; Sa 08:00-13:00; PH off"/>
    <tag k="operator" v="Rossmann Magyarország Kft."/>
    <tag k="payment:cash" v="yes"/>
    <tag k="payment:debit_cards" v="yes"/>
    <tag k="shop" v="chemist"/>
    <tag k="source" v="website"/>
    <tag k="source:date" v="2018-07-30"/>
    <tag k="website" v="https://www.rossmann.hu"/>
    <tag k="youtube" v="https://www.youtube.com/channel/UCmUCPmvMLL3IaXRBtx7-J7Q"/>
  </node>
  <!-- OSM link: https://osm.org/node/2734072719 -->
  <!-- Original coordinates: POINT (46.356716 17.792134) -->
  <!-- OSM <-> POI distance: 586.51644735 m-->
  <!-- Checker good: {not_in_water}; bad {}-->
  <!-- Original tags: 'name':'Rossmann'; 'shop':'chemist';  -->
  <node action="modify" changeset="1" id="2734072719" lat="46.3567420949619" lon="17.7844914975244" timestamp="2017-06-11T20:14:29Z" uid="4579407" user="KAMI" version="3">
    <tag k="addr:city" v="Kaposvár"/>
    <tag k="addr:country" v="HU"/>
    <tag k="addr:housenumber" v="2"/>
    <tag k="addr:postcode" v="7400"/>
    <tag k="addr:street" v="Irányi Dániel utca"/>
    <tag k="brand" v="Rossmann"/>
    <tag k="facebook" v="https://www.facebook.com/Rossmann.hu"/>
    <tag k="import" v="osm_poi_matchmaker"/>
    <tag k="instagram" v="https://www.instagram.com/rossmann_hu"/>
    <tag k="name" v="Rossmann"/>
    <tag k="opening_hours" v="Mo-Fr 08:00-19:00; Sa 08:00-13:00; PH off"/>
    <tag k="operator" v="Rossmann Magyarország Kft."/>
    <tag k="payment:cash" v="yes"/>
    <tag k="payment:debit_cards" v="yes"/>
    <tag k="shop" v="chemist"/>
    <tag k="source" v="website"/>
    <tag k="source:date" v="2018-07-30"/>
    <tag k="website" v="https://www.rossmann.hu"/>
    <tag k="youtube" v="https://www.youtube.com/channel/UCmUCPmvMLL3IaXRBtx7-J7Q"/>
  </node>
  <!-- Original coordinates: POINT (47.593351 17.025969) -->
  <!-- OSM <-> POI distance: None m-->
  <!-- Checker good: {not_in_water}; bad {}-->
  <!-- Original tags:  -->
  <node action="modify" changeset="99999" id="-48" lat="47.593351" lon="17.025969" timestamp="" uid="4579407" user="KAMI" version="99999">
    <tag k="addr:city" v="Kapuvár"/>
    <tag k="addr:country" v="HU"/>
    <tag k="addr:housenumber" v="27"/>
    <tag k="addr:postcode" v="9330"/>
    <tag k="addr:street" v="Fő tér"/>
    <tag k="brand" v="Rossmann"/>
    <tag k="facebook" v="https://www.facebook.com/Rossmann.hu"/>
    <tag k="import" v="osm_poi_matchmaker"/>
    <tag k="instagram" v="https://www.instagram.com/rossmann_hu"/>
    <tag k="name" v="Rossmann"/>
    <tag k="opening_hours" v="Mo-Fr 08:00-18:00; Sa 08:00-13:00; PH off"/>
    <tag k="operator" v="Rossmann Magyarország Kft."/>
    <tag k="payment:cash" v="yes"/>
    <tag k="payment:debit_cards" v="yes"/>
    <tag k="shop" v="chemist"/>
    <tag k="source" v="website"/>
    <tag k="source:date" v="2018-07-30"/>
    <tag k="website" v="https://www.rossmann.hu"/>
    <tag k="youtube" v="https://www.youtube.com/channel/UCmUCPmvMLL3IaXRBtx7-J7Q"/>
  </node>
  <!-- OSM link: https://osm.org/node/3216632000 -->
  <!-- Original coordinates: POINT (47.320483 20.928531) -->
  <!-- OSM <-> POI distance: 331.84555307 m-->
  <!-- Checker good: {not_in_water}; bad {}-->
  <!-- Original tags: 'addr:city':'Karcag'; 'addr:postcode':'5300'; 'addr:street':'Kossuth tér'; 'name':'Rossmann'; 'shop':'chemist'; 'wheelchair':'yes';  -->
  <node action="modify" changeset="1" id="3216632000" lat="47.3176943949186" lon="20.9269628970869" timestamp="2018-04-03T18:58:30Z" uid="4579407" user="KAMI" version="3">
    <tag k="addr:city" v="Karcag"/>
    <tag k="addr:country" v="HU"/>
    <tag k="addr:housenumber" v="10"/>
    <tag k="addr:postcode" v="5300"/>
    <tag k="addr:street" v="Kossuth Lajos tér"/>
    <tag k="brand" v="Rossmann"/>
    <tag k="facebook" v="https://www.facebook.com/Rossmann.hu"/>
    <tag k="import" v="osm_poi_matchmaker"/>
    <tag k="instagram" v="https://www.instagram.com/rossmann_hu"/>
    <tag k="name" v="Rossmann"/>
    <tag k="opening_hours" v="Mo-Fr 08:00-18:00; Sa 08:00-15:00; PH off"/>
    <tag k="operator" v="Rossmann Magyarország Kft."/>
    <tag k="payment:cash" v="yes"/>
    <tag k="payment:debit_cards" v="yes"/>
    <tag k="shop" v="chemist"/>
    <tag k="source" v="website"/>
    <tag k="source:date" v="2018-07-30"/>
    <tag k="website" v="https://www.rossmann.hu"/>
    <tag k="wheelchair" v="yes"/>
    <tag k="youtube" v="https://www.youtube.com/channel/UCmUCPmvMLL3IaXRBtx7-J7Q"/>
  </node>
  <!-- Original coordinates: POINT (48.254463 20.624072) -->
  <!-- OSM <-> POI distance: None m-->
  <!-- Checker good: {not_in_water}; bad {}-->
  <!-- Original tags:  -->
  <node action="modify" changeset="99999" id="-50" lat="48.254463" lon="20.624072" timestamp="" uid="4579407" user="KAMI" version="99999">
    <tag k="addr:city" v="Kazincbarcika"/>
    <tag k="addr:country" v="HU"/>
    <tag k="addr:housenumber" v="2"/>
    <tag k="addr:postcode" v="3700"/>
    <tag k="addr:street" v="Fő tér"/>
    <tag k="brand" v="Rossmann"/>
    <tag k="facebook" v="https://www.facebook.com/Rossmann.hu"/>
    <tag k="import" v="osm_poi_matchmaker"/>
    <tag k="instagram" v="https://www.instagram.com/rossmann_hu"/>
    <tag k="name" v="Rossmann"/>
    <tag k="opening_hours" v="Mo-Fr 08:00-18:00; Sa 08:00-15:00; PH off"/>
    <tag k="operator" v="Rossmann Magyarország Kft."/>
    <tag k="payment:cash" v="yes"/>
    <tag k="payment:debit_cards" v="yes"/>
    <tag k="shop" v="chemist"/>
    <tag k="source" v="website"/>
    <tag k="source:date" v="2018-07-30"/>
    <tag k="website" v="https://www.rossmann.hu"/>
    <tag k="youtube" v="https://www.youtube.com/channel/UCmUCPmvMLL3IaXRBtx7-J7Q"/>
  </node>
  <!-- OSM link: https://osm.org/node/3272865461 -->
  <!-- Original coordinates: POINT (46.906208 19.689436) -->
  <!-- OSM <-> POI distance: 12.96985653 m-->
  <!-- Checker good: {not_in_water}; bad {}-->
  <!-- Original tags: 'addr:city':'Kecskemét'; 'addr:housenumber':'6'; 'addr:postcode':'6000'; 'addr:street':'Deák Ferenc tér'; 'name':'Rossmann'; 'opening_hours':'Mo-Fr 08:00-19:00;Sa 08:00-14:00'; 'shop':'chemist'; 'source':'http://www.rossmann.hu/uzletkereso?q=Kecskem%C3%A9t%20De%C3%A1k%20Ferenc%20t%C3%A9r%206.'; 'website':'http://www.rossmann.hu/'; 'wheelchair':'yes';  -->
  <node action="modify" changeset="1" id="3272865461" lat="46.9060927949367" lon="19.6894092972592" timestamp="2015-11-19T21:03:42Z" uid="4579407" user="KAMI" version="2">
    <tag k="addr:city" v="Kecskemét"/>
    <tag k="addr:country" v="HU"/>
    <tag k="addr:housenumber" v="6"/>
    <tag k="addr:postcode" v="6000"/>
    <tag k="addr:street" v="Deák Ferenc tér"/>
    <tag k="brand" v="Rossmann"/>
    <tag k="facebook" v="https://www.facebook.com/Rossmann.hu"/>
    <tag k="import" v="osm_poi_matchmaker"/>
    <tag k="instagram" v="https://www.instagram.com/rossmann_hu"/>
    <tag k="name" v="Rossmann"/>
    <tag k="opening_hours" v="Mo-Fr 08:00-19:00; Sa 08:00-17:00; PH off"/>
    <tag k="operator" v="Rossmann Magyarország Kft."/>
    <tag k="payment:cash" v="yes"/>
    <tag k="payment:debit_cards" v="yes"/>
    <tag k="shop" v="chemist"/>
    <tag k="source" v="website"/>
    <tag k="source:date" v="2018-07-30"/>
    <tag k="website" v="https://www.rossmann.hu"/>
    <tag k="wheelchair" v="yes"/>
    <tag k="youtube" v="https://www.youtube.com/channel/UCmUCPmvMLL3IaXRBtx7-J7Q"/>
  </node>
  <!-- OSM link: https://osm.org/node/4618386989 -->
  <!-- Original coordinates: POINT (46.765714 17.242837) -->
  <!-- OSM <-> POI distance: 13.69188488 m-->
  <!-- Checker good: {not_in_water}; bad {}-->
  <!-- Original tags: 'name':'Rossmann'; 'name:hu':'Rossmann'; 'shop':'chemist';  -->
  <node action="modify" changeset="1" id="4618386989" lat="46.765680794943" lon="17.2426638975998" timestamp="2017-08-05T11:25:03Z" uid="4579407" user="KAMI" version="2">
    <tag k="addr:city" v="Keszthely"/>
    <tag k="addr:country" v="HU"/>
    <tag k="addr:housenumber" v="35"/>
    <tag k="addr:postcode" v="8360"/>
    <tag k="addr:street" v="Kossuth Lajos utca"/>
    <tag k="brand" v="Rossmann"/>
    <tag k="facebook" v="https://www.facebook.com/Rossmann.hu"/>
    <tag k="import" v="osm_poi_matchmaker"/>
    <tag k="instagram" v="https://www.instagram.com/rossmann_hu"/>
    <tag k="name" v="Rossmann"/>
    <tag k="name:hu" v="Rossmann"/>
    <tag k="opening_hours" v="Mo-Fr 08:00-20:00; Sa-Su 08:00-18:00; PH off"/>
    <tag k="operator" v="Rossmann Magyarország Kft."/>
    <tag k="payment:cash" v="yes"/>
    <tag k="payment:debit_cards" v="yes"/>
    <tag k="shop" v="chemist"/>
    <tag k="source" v="website"/>
    <tag k="source:date" v="2018-07-30"/>
    <tag k="website" v="https://www.rossmann.hu"/>
    <tag k="youtube" v="https://www.youtube.com/channel/UCmUCPmvMLL3IaXRBtx7-J7Q"/>
  </node>
  <!-- OSM link: https://osm.org/node/1344605338 -->
  <!-- Original coordinates: POINT (47.501322 18.025425) -->
  <!-- OSM <-> POI distance: 69.08709116 m-->
  <!-- Checker good: {not_in_water}; bad {}-->
  <!-- Original tags: 'name':'Rossmann'; 'shop':'chemist'; 'wheelchair':'yes';  -->
  <node action="modify" changeset="1" id="1344605338" lat="47.5007707949108" lon="18.0258493974908" timestamp="2015-10-25T18:48:58Z" uid="4579407" user="KAMI" version="2">
    <tag k="addr:city" v="Kisbér"/>
    <tag k="addr:country" v="HU"/>
    <tag k="addr:housenumber" v="1"/>
    <tag k="addr:postcode" v="2870"/>
    <tag k="addr:street" v="Városház tér"/>
    <tag k="brand" v="Rossmann"/>
    <tag k="facebook" v="https://www.facebook.com/Rossmann.hu"/>
    <tag k="import" v="osm_poi_matchmaker"/>
    <tag k="instagram" v="https://www.instagram.com/rossmann_hu"/>
    <tag k="name" v="Rossmann"/>
    <tag k="opening_hours" v="Mo-Fr 08:00-18:00; Sa 08:00-14:00; PH off"/>
    <tag k="operator" v="Rossmann Magyarország Kft."/>
    <tag k="payment:cash" v="yes"/>
    <tag k="payment:debit_cards" v="yes"/>
    <tag k="shop" v="chemist"/>
    <tag k="source" v="website"/>
    <tag k="source:date" v="2018-07-30"/>
    <tag k="website" v="https://www.rossmann.hu"/>
    <tag k="wheelchair" v="yes"/>
    <tag k="youtube" v="https://www.youtube.com/channel/UCmUCPmvMLL3IaXRBtx7-J7Q"/>
  </node>
  <!-- Original coordinates: POINT (46.620691 19.284715) -->
  <!-- OSM <-> POI distance: None m-->
  <!-- Checker good: {not_in_water}; bad {}-->
  <!-- Original tags:  -->
  <node action="modify" changeset="99999" id="-54" lat="46.620691" lon="19.284715" timestamp="" uid="4579407" user="KAMI" version="99999">
    <tag k="addr:city" v="Kiskőrös"/>
    <tag k="addr:country" v="HU"/>
    <tag k="addr:housenumber" v="8"/>
    <tag k="addr:postcode" v="6200"/>
    <tag k="addr:street" v="Petőfi tér"/>
    <tag k="brand" v="Rossmann"/>
    <tag k="facebook" v="https://www.facebook.com/Rossmann.hu"/>
    <tag k="import" v="osm_poi_matchmaker"/>
    <tag k="instagram" v="https://www.instagram.com/rossmann_hu"/>
    <tag k="name" v="Rossmann"/>
    <tag k="opening_hours" v="Mo-Fr 08:00-19:00; Sa 08:00-14:00; PH off"/>
    <tag k="operator" v="Rossmann Magyarország Kft."/>
    <tag k="payment:cash" v="yes"/>
    <tag k="payment:debit_cards" v="yes"/>
    <tag k="shop" v="chemist"/>
    <tag k="source" v="website"/>
    <tag k="source:date" v="2018-07-30"/>
    <tag k="website" v="https://www.rossmann.hu"/>
    <tag k="youtube" v="https://www.youtube.com/channel/UCmUCPmvMLL3IaXRBtx7-J7Q"/>
  </node>
  <!-- Original coordinates: POINT (46.712101 19.849686) -->
  <!-- OSM <-> POI distance: None m-->
  <!-- Checker good: {not_in_water}; bad {}-->
  <!-- Original tags:  -->
  <node action="modify" changeset="99999" id="-55" lat="46.712101" lon="19.849686" timestamp="" uid="4579407" user="KAMI" version="99999">
    <tag k="addr:city" v="Kiskunfélegyháza"/>
    <tag k="addr:country" v="HU"/>
    <tag k="addr:housenumber" v="1"/>
    <tag k="addr:postcode" v="6100"/>
    <tag k="addr:street" v="Kossuth Lajos utca"/>
    <tag k="brand" v="Rossmann"/>
    <tag k="facebook" v="https://www.facebook.com/Rossmann.hu"/>
    <tag k="import" v="osm_poi_matchmaker"/>
    <tag k="instagram" v="https://www.instagram.com/rossmann_hu"/>
    <tag k="name" v="Rossmann"/>
    <tag k="opening_hours" v="Mo-Fr 08:00-18:00; Sa 08:00-14:00; PH off"/>
    <tag k="operator" v="Rossmann Magyarország Kft."/>
    <tag k="payment:cash" v="yes"/>
    <tag k="payment:debit_cards" v="yes"/>
    <tag k="shop" v="chemist"/>
    <tag k="source" v="website"/>
    <tag k="source:date" v="2018-07-30"/>
    <tag k="website" v="https://www.rossmann.hu"/>
    <tag k="youtube" v="https://www.youtube.com/channel/UCmUCPmvMLL3IaXRBtx7-J7Q"/>
  </node>
  <!-- OSM link: https://osm.org/node/4108448873 -->
  <!-- Original coordinates: POINT (46.430816 19.480696) -->
  <!-- OSM <-> POI distance: 6.99380713 m-->
  <!-- Checker good: {not_in_water}; bad {}-->
  <!-- Original tags: 'name':'Rossmann'; 'shop':'chemist';  -->
  <node action="modify" changeset="1" id="4108448873" lat="46.4307735949584" lon="19.4807633972883" timestamp="2016-04-08T21:11:42Z" uid="4579407" user="KAMI" version="1">
    <tag k="addr:city" v="Kiskunhalas"/>
    <tag k="addr:country" v="HU"/>
    <tag k="addr:housenumber" v="5"/>
    <tag k="addr:postcode" v="6400"/>
    <tag k="addr:street" v="Bethlen Gábor tér"/>
    <tag k="brand" v="Rossmann"/>
    <tag k="facebook" v="https://www.facebook.com/Rossmann.hu"/>
    <tag k="import" v="osm_poi_matchmaker"/>
    <tag k="instagram" v="https://www.instagram.com/rossmann_hu"/>
    <tag k="name" v="Rossmann"/>
    <tag k="opening_hours" v="Mo-Fr 08:00-18:00; Sa 08:00-13:00; PH off"/>
    <tag k="operator" v="Rossmann Magyarország Kft."/>
    <tag k="payment:cash" v="yes"/>
    <tag k="payment:debit_cards" v="yes"/>
    <tag k="shop" v="chemist"/>
    <tag k="source" v="website"/>
    <tag k="source:date" v="2018-07-30"/>
    <tag k="website" v="https://www.rossmann.hu"/>
    <tag k="youtube" v="https://www.youtube.com/channel/UCmUCPmvMLL3IaXRBtx7-J7Q"/>
  </node>
  <!-- OSM link: https://osm.org/node/1134418954 -->
  <!-- Original coordinates: POINT (46.492409 19.736465) -->
  <!-- OSM <-> POI distance: 5.37698881 m-->
  <!-- Checker good: {not_in_water}; bad {}-->
  <!-- Original tags: 'name':'Rossmann'; 'shop':'chemist'; 'wheelchair':'yes';  -->
  <node action="modify" changeset="1" id="1134418954" lat="46.4924346949555" lon="19.7364054972527" timestamp="2015-11-16T14:06:01Z" uid="4579407" user="KAMI" version="2">
    <tag k="addr:city" v="Kiskunmajsa"/>
    <tag k="addr:country" v="HU"/>
    <tag k="addr:housenumber" v="67"/>
    <tag k="addr:postcode" v="6120"/>
    <tag k="addr:street" v="Fő utca"/>
    <tag k="brand" v="Rossmann"/>
    <tag k="facebook" v="https://www.facebook.com/Rossmann.hu"/>
    <tag k="import" v="osm_poi_matchmaker"/>
    <tag k="instagram" v="https://www.instagram.com/rossmann_hu"/>
    <tag k="name" v="Rossmann"/>
    <tag k="opening_hours" v="Mo-Fr 08:00-18:00; Sa 08:00-13:00; PH off"/>
    <tag k="operator" v="Rossmann Magyarország Kft."/>
    <tag k="payment:cash" v="yes"/>
    <tag k="payment:debit_cards" v="yes"/>
    <tag k="shop" v="chemist"/>
    <tag k="source" v="website"/>
    <tag k="source:date" v="2018-07-30"/>
    <tag k="website" v="https://www.rossmann.hu"/>
    <tag k="wheelchair" v="yes"/>
    <tag k="youtube" v="https://www.youtube.com/channel/UCmUCPmvMLL3IaXRBtx7-J7Q"/>
  </node>
  <!-- Original coordinates: POINT (47.218058 20.75717) -->
  <!-- OSM <-> POI distance: None m-->
  <!-- Checker good: {not_in_water}; bad {}-->
  <!-- Original tags:  -->
  <node action="modify" changeset="99999" id="-58" lat="47.218058" lon="20.75717" timestamp="" uid="4579407" user="KAMI" version="99999">
    <tag k="addr:city" v="Kisújszállás"/>
    <tag k="addr:country" v="HU"/>
    <tag k="addr:housenumber" v="2"/>
    <tag k="addr:postcode" v="5310"/>
    <tag k="addr:street" v="Szabadság tér"/>
    <tag k="brand" v="Rossmann"/>
    <tag k="facebook" v="https://www.facebook.com/Rossmann.hu"/>
    <tag k="import" v="osm_poi_matchmaker"/>
    <tag k="instagram" v="https://www.instagram.com/rossmann_hu"/>
    <tag k="name" v="Rossmann"/>
    <tag k="opening_hours" v="Mo-Fr 08:00-18:00; Sa 08:00-14:00; PH off"/>
    <tag k="operator" v="Rossmann Magyarország Kft."/>
    <tag k="payment:cash" v="yes"/>
    <tag k="payment:debit_cards" v="yes"/>
    <tag k="shop" v="chemist"/>
    <tag k="source" v="website"/>
    <tag k="source:date" v="2018-07-30"/>
    <tag k="website" v="https://www.rossmann.hu"/>
    <tag k="youtube" v="https://www.youtube.com/channel/UCmUCPmvMLL3IaXRBtx7-J7Q"/>
  </node>
  <!-- Original coordinates: POINT (48.224528 22.078706) -->
  <!-- OSM <-> POI distance: None m-->
  <!-- Checker good: {not_in_water}; bad {}-->
  <!-- Original tags:  -->
  <node action="modify" changeset="99999" id="-59" lat="48.224528" lon="22.078706" timestamp="" uid="4579407" user="KAMI" version="99999">
    <tag k="addr:city" v="Kisvárda"/>
    <tag k="addr:country" v="HU"/>
    <tag k="addr:housenumber" v="26"/>
    <tag k="addr:postcode" v="4600"/>
    <tag k="addr:street" v="Szent László út"/>
    <tag k="brand" v="Rossmann"/>
    <tag k="facebook" v="https://www.facebook.com/Rossmann.hu"/>
    <tag k="import" v="osm_poi_matchmaker"/>
    <tag k="instagram" v="https://www.instagram.com/rossmann_hu"/>
    <tag k="name" v="Rossmann"/>
    <tag k="opening_hours" v="Mo-Fr 08:00-18:00; Sa 08:00-14:00; PH off"/>
    <tag k="operator" v="Rossmann Magyarország Kft."/>
    <tag k="payment:cash" v="yes"/>
    <tag k="payment:debit_cards" v="yes"/>
    <tag k="shop" v="chemist"/>
    <tag k="source" v="website"/>
    <tag k="source:date" v="2018-07-30"/>
    <tag k="website" v="https://www.rossmann.hu"/>
    <tag k="youtube" v="https://www.youtube.com/channel/UCmUCPmvMLL3IaXRBtx7-J7Q"/>
  </node>
  <!-- Original coordinates: POINT (47.744335 18.119454) -->
  <!-- OSM <-> POI distance: None m-->
  <!-- Checker good: {not_in_water}; bad {}-->
  <!-- Original tags:  -->
  <node action="modify" changeset="99999" id="-60" lat="47.744335" lon="18.119454" timestamp="" uid="4579407" user="KAMI" version="99999">
    <tag k="addr:city" v="Komárom"/>
    <tag k="addr:country" v="HU"/>
    <tag k="addr:housenumber" v="14/A"/>
    <tag k="addr:postcode" v="2900"/>
    <tag k="addr:street" v="Igmándi út"/>
    <tag k="brand" v="Rossmann"/>
    <tag k="facebook" v="https://www.facebook.com/Rossmann.hu"/>
    <tag k="import" v="osm_poi_matchmaker"/>
    <tag k="instagram" v="https://www.instagram.com/rossmann_hu"/>
    <tag k="name" v="Rossmann"/>
    <tag k="opening_hours" v="Mo-Fr 08:00-19:00; Sa 08:00-14:00; PH off"/>
    <tag k="operator" v="Rossmann Magyarország Kft."/>
    <tag k="payment:cash" v="yes"/>
    <tag k="payment:debit_cards" v="yes"/>
    <tag k="shop" v="chemist"/>
    <tag k="source" v="website"/>
    <tag k="source:date" v="2018-07-30"/>
    <tag k="website" v="https://www.rossmann.hu"/>
    <tag k="youtube" v="https://www.youtube.com/channel/UCmUCPmvMLL3IaXRBtx7-J7Q"/>
  </node>
  <!-- Original coordinates: POINT (46.18985 18.266099) -->
  <!-- OSM <-> POI distance: None m-->
  <!-- Checker good: {not_in_water}; bad {}-->
  <!-- Original tags:  -->
  <node action="modify" changeset="99999" id="-61" lat="46.18985" lon="18.266099" timestamp="" uid="4579407" user="KAMI" version="99999">
    <tag k="addr:city" v="Komló"/>
    <tag k="addr:country" v="HU"/>
    <tag k="addr:housenumber" v="87"/>
    <tag k="addr:postcode" v="7300"/>
    <tag k="addr:street" v="Kossuth Lajos utca"/>
    <tag k="brand" v="Rossmann"/>
    <tag k="facebook" v="https://www.facebook.com/Rossmann.hu"/>
    <tag k="import" v="osm_poi_matchmaker"/>
    <tag k="instagram" v="https://www.instagram.com/rossmann_hu"/>
    <tag k="name" v="Rossmann"/>
    <tag k="opening_hours" v="Mo-Fr 08:00-18:00; Sa 08:00-13:00; PH off"/>
    <tag k="operator" v="Rossmann Magyarország Kft."/>
    <tag k="payment:cash" v="yes"/>
    <tag k="payment:debit_cards" v="yes"/>
    <tag k="shop" v="chemist"/>
    <tag k="source" v="website"/>
    <tag k="source:date" v="2018-07-30"/>
    <tag k="website" v="https://www.rossmann.hu"/>
    <tag k="youtube" v="https://www.youtube.com/channel/UCmUCPmvMLL3IaXRBtx7-J7Q"/>
  </node>
  <!-- Original coordinates: POINT (47.385977 16.543532) -->
  <!-- OSM <-> POI distance: None m-->
  <!-- Checker good: {not_in_water}; bad {}-->
  <!-- Original tags:  -->
  <node action="modify" changeset="99999" id="-62" lat="47.385977" lon="16.543532" timestamp="" uid="4579407" user="KAMI" version="99999">
    <tag k="addr:city" v="Kőszeg"/>
    <tag k="addr:country" v="HU"/>
    <tag k="addr:housenumber" v="23"/>
    <tag k="addr:postcode" v="9730"/>
    <tag k="addr:street" v="Rákóczi Ferenc utca"/>
    <tag k="brand" v="Rossmann"/>
    <tag k="facebook" v="https://www.facebook.com/Rossmann.hu"/>
    <tag k="import" v="osm_poi_matchmaker"/>
    <tag k="instagram" v="https://www.instagram.com/rossmann_hu"/>
    <tag k="name" v="Rossmann"/>
    <tag k="opening_hours" v="Mo-Fr 08:00-18:00; Sa 08:00-13:00; PH off"/>
    <tag k="operator" v="Rossmann Magyarország Kft."/>
    <tag k="payment:cash" v="yes"/>
    <tag k="payment:debit_cards" v="yes"/>
    <tag k="shop" v="chemist"/>
    <tag k="source" v="website"/>
    <tag k="source:date" v="2018-07-30"/>
    <tag k="website" v="https://www.rossmann.hu"/>
    <tag k="youtube" v="https://www.youtube.com/channel/UCmUCPmvMLL3IaXRBtx7-J7Q"/>
  </node>
  <!-- Original coordinates: POINT (46.839614 20.283384) -->
  <!-- OSM <-> POI distance: None m-->
  <!-- Checker good: {not_in_water}; bad {}-->
  <!-- Original tags:  -->
  <node action="modify" changeset="99999" id="-63" lat="46.839614" lon="20.283384" timestamp="" uid="4579407" user="KAMI" version="99999">
    <tag k="addr:city" v="Kunszentmárton"/>
    <tag k="addr:country" v="HU"/>
    <tag k="addr:housenumber" v="11"/>
    <tag k="addr:postcode" v="5440"/>
    <tag k="addr:street" v="Köztársaság tér"/>
    <tag k="brand" v="Rossmann"/>
    <tag k="facebook" v="https://www.facebook.com/Rossmann.hu"/>
    <tag k="import" v="osm_poi_matchmaker"/>
    <tag k="instagram" v="https://www.instagram.com/rossmann_hu"/>
    <tag k="name" v="Rossmann"/>
    <tag k="opening_hours" v="Mo-Fr 08:00-19:00; Sa 08:00-14:00; PH off"/>
    <tag k="operator" v="Rossmann Magyarország Kft."/>
    <tag k="payment:cash" v="yes"/>
    <tag k="payment:debit_cards" v="yes"/>
    <tag k="shop" v="chemist"/>
    <tag k="source" v="website"/>
    <tag k="source:date" v="2018-07-30"/>
    <tag k="website" v="https://www.rossmann.hu"/>
    <tag k="youtube" v="https://www.youtube.com/channel/UCmUCPmvMLL3IaXRBtx7-J7Q"/>
  </node>
  <!-- Original coordinates: POINT (47.025501 19.559553) -->
  <!-- OSM <-> POI distance: None m-->
  <!-- Checker good: {not_in_water}; bad {}-->
  <!-- Original tags:  -->
  <node action="modify" changeset="99999" id="-64" lat="47.025501" lon="19.559553" timestamp="" uid="4579407" user="KAMI" version="99999">
    <tag k="addr:city" v="Lajosmizse"/>
    <tag k="addr:country" v="HU"/>
    <tag k="addr:housenumber" v="98"/>
    <tag k="addr:postcode" v="6050"/>
    <tag k="addr:street" v="Dózsa György út"/>
    <tag k="brand" v="Rossmann"/>
    <tag k="facebook" v="https://www.facebook.com/Rossmann.hu"/>
    <tag k="import" v="osm_poi_matchmaker"/>
    <tag k="instagram" v="https://www.instagram.com/rossmann_hu"/>
    <tag k="name" v="Rossmann"/>
    <tag k="opening_hours" v="Mo-Fr 08:00-18:00; Sa 08:00-13:00; PH off"/>
    <tag k="operator" v="Rossmann Magyarország Kft."/>
    <tag k="payment:cash" v="yes"/>
    <tag k="payment:debit_cards" v="yes"/>
    <tag k="shop" v="chemist"/>
    <tag k="source" v="website"/>
    <tag k="source:date" v="2018-07-30"/>
    <tag k="website" v="https://www.rossmann.hu"/>
    <tag k="youtube" v="https://www.youtube.com/channel/UCmUCPmvMLL3IaXRBtx7-J7Q"/>
  </node>
  <!-- OSM link: https://osm.org/way/282238688 -->
  <!-- Original coordinates: POINT (46.623725 16.542147) -->
  <!-- OSM <-> POI distance: 40.20869036 m-->
  <!-- Checker good: {not_in_water}; bad {}-->
  <!-- Original tags: 'building':'yes'; 'name':'Rossmann'; 'shop':'chemist';  -->
  <way action="modify" changeset="1" id="282238688" timestamp="2014-08-25T19:50:01Z" uid="4579407" user="KAMI" version="2">
    <nd ref="2861806179"/>
    <nd ref="2861806180"/>
    <nd ref="2861806181"/>
    <nd ref="2861806182"/>
    <nd ref="2861806183"/>
    <nd ref="2861806178"/>
    <nd ref="2861806179"/>
    <tag k="addr:city" v="Lenti"/>
    <tag k="addr:country" v="HU"/>
    <tag k="addr:housenumber" v="2"/>
    <tag k="addr:postcode" v="8960"/>
    <tag k="addr:street" v="Zrínyi Miklós utca"/>
    <tag k="brand" v="Rossmann"/>
    <tag k="building" v="yes"/>
    <tag k="facebook" v="https://www.facebook.com/Rossmann.hu"/>
    <tag k="import" v="osm_poi_matchmaker"/>
    <tag k="instagram" v="https://www.instagram.com/rossmann_hu"/>
    <tag k="name" v="Rossmann"/>
    <tag k="opening_hours" v="Mo-Fr 08:00-18:00; Sa 08:00-14:00; PH off"/>
    <tag k="operator" v="Rossmann Magyarország Kft."/>
    <tag k="payment:cash" v="yes"/>
    <tag k="payment:debit_cards" v="yes"/>
    <tag k="shop" v="chemist"/>
    <tag k="source" v="website"/>
    <tag k="source:date" v="2018-07-30"/>
    <tag k="website" v="https://www.rossmann.hu"/>
    <tag k="youtube" v="https://www.youtube.com/channel/UCmUCPmvMLL3IaXRBtx7-J7Q"/>
  </way>
  <!-- Original coordinates: POINT (47.46007176731528 19.33318555355072) -->
  <!-- OSM <-> POI distance: None m-->
  <!-- Checker good: {not_in_water}; bad {}-->
  <!-- Original tags:  -->
  <node action="modify" changeset="99999" id="-66" lat="47.46007176731528" lon="19.33318555355072" timestamp="" uid="4579407" user="KAMI" version="99999">
    <tag k="addr:city" v="Maglód"/>
    <tag k="addr:country" v="HU"/>
    <tag k="addr:housenumber" v="1"/>
    <tag k="addr:postcode" v="2234"/>
    <tag k="addr:street" v="Eszterházy János utca"/>
    <tag k="brand" v="Rossmann"/>
    <tag k="facebook" v="https://www.facebook.com/Rossmann.hu"/>
    <tag k="import" v="osm_poi_matchmaker"/>
    <tag k="instagram" v="https://www.instagram.com/rossmann_hu"/>
    <tag k="name" v="Rossmann"/>
    <tag k="opening_hours" v="Mo-Sa 09:00-20:00; Su 10:00-18:00; PH off"/>
    <tag k="operator" v="Rossmann Magyarország Kft."/>
    <tag k="payment:cash" v="yes"/>
    <tag k="payment:debit_cards" v="yes"/>
    <tag k="shop" v="chemist"/>
    <tag k="source" v="website"/>
    <tag k="source:date" v="2018-07-30"/>
    <tag k="website" v="https://www.rossmann.hu"/>
    <tag k="youtube" v="https://www.youtube.com/channel/UCmUCPmvMLL3IaXRBtx7-J7Q"/>
  </node>
  <!-- Original coordinates: POINT (46.215599 20.476327) -->
  <!-- OSM <-> POI distance: None m-->
  <!-- Checker good: {not_in_water}; bad {}-->
  <!-- Original tags:  -->
  <node action="modify" changeset="99999" id="-67" lat="46.215599" lon="20.476327" timestamp="" uid="4579407" user="KAMI" version="99999">
    <tag k="addr:city" v="Makó"/>
    <tag k="addr:country" v="HU"/>
    <tag k="addr:housenumber" v="14-16"/>
    <tag k="addr:postcode" v="6900"/>
    <tag k="addr:street" v="Széchenyi tér"/>
    <tag k="brand" v="Rossmann"/>
    <tag k="facebook" v="https://www.facebook.com/Rossmann.hu"/>
    <tag k="import" v="osm_poi_matchmaker"/>
    <tag k="instagram" v="https://www.instagram.com/rossmann_hu"/>
    <tag k="name" v="Rossmann"/>
    <tag k="opening_hours" v="Mo-Fr 08:00-19:00; Sa 08:00-16:00; PH off"/>
    <tag k="operator" v="Rossmann Magyarország Kft."/>
    <tag k="payment:cash" v="yes"/>
    <tag k="payment:debit_cards" v="yes"/>
    <tag k="shop" v="chemist"/>
    <tag k="source" v="website"/>
    <tag k="source:date" v="2018-07-30"/>
    <tag k="website" v="https://www.rossmann.hu"/>
    <tag k="youtube" v="https://www.youtube.com/channel/UCmUCPmvMLL3IaXRBtx7-J7Q"/>
  </node>
  <!-- OSM link: https://osm.org/node/3821450641 -->
  <!-- Original coordinates: POINT (47.954649 22.324161) -->
  <!-- OSM <-> POI distance: 47.06740433 m-->
  <!-- Checker good: {not_in_water}; bad {}-->
  <!-- Original tags: 'name':'Rossmann'; 'shop':'chemist'; 'wheelchair':'yes';  -->
  <node action="modify" changeset="1" id="3821450641" lat="47.9543527948921" lon="22.3237094968925" timestamp="2015-11-20T18:15:16Z" uid="4579407" user="KAMI" version="2">
    <tag k="addr:city" v="Mátészalka"/>
    <tag k="addr:country" v="HU"/>
    <tag k="addr:housenumber" v="25"/>
    <tag k="addr:postcode" v="4700"/>
    <tag k="addr:street" v="Bajcsy-Zs. utca"/>
    <tag k="brand" v="Rossmann"/>
    <tag k="facebook" v="https://www.facebook.com/Rossmann.hu"/>
    <tag k="import" v="osm_poi_matchmaker"/>
    <tag k="instagram" v="https://www.instagram.com/rossmann_hu"/>
    <tag k="name" v="Rossmann"/>
    <tag k="opening_hours" v="Mo-Fr 08:00-18:00; Sa 08:00-13:00; PH off"/>
    <tag k="operator" v="Rossmann Magyarország Kft."/>
    <tag k="payment:cash" v="yes"/>
    <tag k="payment:debit_cards" v="yes"/>
    <tag k="shop" v="chemist"/>
    <tag k="source" v="website"/>
    <tag k="source:date" v="2018-07-30"/>
    <tag k="website" v="https://www.rossmann.hu"/>
    <tag k="wheelchair" v="yes"/>
    <tag k="youtube" v="https://www.youtube.com/channel/UCmUCPmvMLL3IaXRBtx7-J7Q"/>
  </node>
  <!-- OSM link: https://osm.org/node/3532740000 -->
  <!-- Original coordinates: POINT (47.809114 20.569259) -->
  <!-- OSM <-> POI distance: 25.11391742 m-->
  <!-- Checker good: {not_in_water}; bad {}-->
  <!-- Original tags: 'name':'Rossmann'; 'shop':'chemist'; 'wheelchair':'yes';  -->
  <node action="modify" changeset="1" id="3532740000" lat="47.809301894898" lon="20.5690723971368" timestamp="2015-11-27T11:53:34Z" uid="4579407" user="KAMI" version="3">
    <tag k="addr:city" v="Mezőkövesd"/>
    <tag k="addr:country" v="HU"/>
    <tag k="addr:housenumber" v="100"/>
    <tag k="addr:postcode" v="3400"/>
    <tag k="addr:street" v="Mátyás király utca"/>
    <tag k="brand" v="Rossmann"/>
    <tag k="facebook" v="https://www.facebook.com/Rossmann.hu"/>
    <tag k="import" v="osm_poi_matchmaker"/>
    <tag k="instagram" v="https://www.instagram.com/rossmann_hu"/>
    <tag k="name" v="Rossmann"/>
    <tag k="opening_hours" v="Mo-Fr 08:00-18:00; Sa 08:00-13:00; PH off"/>
    <tag k="operator" v="Rossmann Magyarország Kft."/>
    <tag k="payment:cash" v="yes"/>
    <tag k="payment:debit_cards" v="yes"/>
    <tag k="shop" v="chemist"/>
    <tag k="source" v="website"/>
    <tag k="source:date" v="2018-07-30"/>
    <tag k="website" v="https://www.rossmann.hu"/>
    <tag k="wheelchair" v="yes"/>
    <tag k="youtube" v="https://www.youtube.com/channel/UCmUCPmvMLL3IaXRBtx7-J7Q"/>
  </node>
  <!-- Original coordinates: POINT (47 20.630566) -->
  <!-- OSM <-> POI distance: None m-->
  <!-- Checker good: {not_in_water}; bad {}-->
  <!-- Original tags:  -->
  <node action="modify" changeset="99999" id="-70" lat="47.0" lon="20.630566" timestamp="" uid="4579407" user="KAMI" version="99999">
    <tag k="addr:city" v="Mezőtúr"/>
    <tag k="addr:country" v="HU"/>
    <tag k="addr:housenumber" v="7-9"/>
    <tag k="addr:postcode" v="5400"/>
    <tag k="addr:street" v="Kossuth Lajos tér"/>
    <tag k="brand" v="Rossmann"/>
    <tag k="facebook" v="https://www.facebook.com/Rossmann.hu"/>
    <tag k="import" v="osm_poi_matchmaker"/>
    <tag k="instagram" v="https://www.instagram.com/rossmann_hu"/>
    <tag k="name" v="Rossmann"/>
    <tag k="opening_hours" v="Mo-Fr 08:00-19:00; Sa 08:00-15:00; PH off"/>
    <tag k="operator" v="Rossmann Magyarország Kft."/>
    <tag k="payment:cash" v="yes"/>
    <tag k="payment:debit_cards" v="yes"/>
    <tag k="shop" v="chemist"/>
    <tag k="source" v="website"/>
    <tag k="source:date" v="2018-07-30"/>
    <tag k="website" v="https://www.rossmann.hu"/>
    <tag k="youtube" v="https://www.youtube.com/channel/UCmUCPmvMLL3IaXRBtx7-J7Q"/>
  </node>
  <!-- Original coordinates: POINT (48.102947 20.781797) -->
  <!-- OSM <-> POI distance: None m-->
  <!-- Checker good: {not_in_water}; bad {}-->
  <!-- Original tags:  -->
  <node action="modify" changeset="99999" id="-71" lat="48.102947" lon="20.781797" timestamp="" uid="4579407" user="KAMI" version="99999">
    <tag k="addr:city" v="Miskolc"/>
    <tag k="addr:country" v="HU"/>
    <tag k="addr:housenumber" v="11-13"/>
    <tag k="addr:postcode" v="3525"/>
    <tag k="addr:street" v="Széchenyi út"/>
    <tag k="brand" v="Rossmann"/>
    <tag k="facebook" v="https://www.facebook.com/Rossmann.hu"/>
    <tag k="import" v="osm_poi_matchmaker"/>
    <tag k="instagram" v="https://www.instagram.com/rossmann_hu"/>
    <tag k="name" v="Rossmann"/>
    <tag k="opening_hours" v="Mo-Fr 08:00-19:00; Sa 08:00-14:00; PH off"/>
    <tag k="operator" v="Rossmann Magyarország Kft."/>
    <tag k="payment:cash" v="yes"/>
    <tag k="payment:debit_cards" v="yes"/>
    <tag k="shop" v="chemist"/>
    <tag k="source" v="website"/>
    <tag k="source:date" v="2018-07-30"/>
    <tag k="website" v="https://www.rossmann.hu"/>
    <tag k="youtube" v="https://www.youtube.com/channel/UCmUCPmvMLL3IaXRBtx7-J7Q"/>
  </node>
  <!-- OSM link: https://osm.org/node/3912807160 -->
  <!-- Original coordinates: POINT (45.990468 18.685089) -->
  <!-- OSM <-> POI distance: 2.79283243 m-->
  <!-- Checker good: {not_in_water}; bad {}-->
  <!-- Original tags: 'name':'Rossmann'; 'shop':'chemist';  -->
  <node action="modify" changeset="1" id="3912807160" lat="45.9904516949794" lon="18.685116497399" timestamp="2015-12-28T19:50:24Z" uid="4579407" user="KAMI" version="2">
    <tag k="addr:city" v="Mohács"/>
    <tag k="addr:country" v="HU"/>
    <tag k="addr:housenumber" v="8"/>
    <tag k="addr:postcode" v="7700"/>
    <tag k="addr:street" v="Dózsa György utca"/>
    <tag k="brand" v="Rossmann"/>
    <tag k="facebook" v="https://www.facebook.com/Rossmann.hu"/>
    <tag k="import" v="osm_poi_matchmaker"/>
    <tag k="instagram" v="https://www.instagram.com/rossmann_hu"/>
    <tag k="name" v="Rossmann"/>
    <tag k="opening_hours" v="Mo-Fr 08:00-18:00; Sa 08:00-13:00; PH off"/>
    <tag k="operator" v="Rossmann Magyarország Kft."/>
    <tag k="payment:cash" v="yes"/>
    <tag k="payment:debit_cards" v="yes"/>
    <tag k="shop" v="chemist"/>
    <tag k="source" v="website"/>
    <tag k="source:date" v="2018-07-30"/>
    <tag k="website" v="https://www.rossmann.hu"/>
    <tag k="youtube" v="https://www.youtube.com/channel/UCmUCPmvMLL3IaXRBtx7-J7Q"/>
  </node>
  <!-- Original coordinates: POINT (47.350412 19.446224) -->
  <!-- OSM <-> POI distance: None m-->
  <!-- Checker good: {not_in_water}; bad {}-->
  <!-- Original tags:  -->
  <node action="modify" changeset="99999" id="-73" lat="47.350412" lon="19.446224" timestamp="" uid="4579407" user="KAMI" version="99999">
    <tag k="addr:city" v="Monor"/>
    <tag k="addr:country" v="HU"/>
    <tag k="addr:housenumber" v="77"/>
    <tag k="addr:postcode" v="2200"/>
    <tag k="addr:street" v="Kossuth Lajos utca"/>
    <tag k="brand" v="Rossmann"/>
    <tag k="facebook" v="https://www.facebook.com/Rossmann.hu"/>
    <tag k="import" v="osm_poi_matchmaker"/>
    <tag k="instagram" v="https://www.instagram.com/rossmann_hu"/>
    <tag k="name" v="Rossmann"/>
    <tag k="opening_hours" v="Mo-Fr 08:00-18:00; Sa 08:00-13:00; PH off"/>
    <tag k="operator" v="Rossmann Magyarország Kft."/>
    <tag k="payment:cash" v="yes"/>
    <tag k="payment:debit_cards" v="yes"/>
    <tag k="shop" v="chemist"/>
    <tag k="source" v="website"/>
    <tag k="source:date" v="2018-07-30"/>
    <tag k="website" v="https://www.rossmann.hu"/>
    <tag k="youtube" v="https://www.youtube.com/channel/UCmUCPmvMLL3IaXRBtx7-J7Q"/>
  </node>
  <!-- Original coordinates: POINT (47.867107 17.273279) -->
  <!-- OSM <-> POI distance: None m-->
  <!-- Checker good: {not_in_water}; bad {}-->
  <!-- Original tags:  -->
  <node action="modify" changeset="99999" id="-74" lat="47.867107" lon="17.273279" timestamp="" uid="4579407" user="KAMI" version="99999">
    <tag k="addr:city" v="Mosonmagyaróvár"/>
    <tag k="addr:country" v="HU"/>
    <tag k="addr:housenumber" v="5"/>
    <tag k="addr:postcode" v="9200"/>
    <tag k="addr:street" v="Erkel Ferenc utca"/>
    <tag k="brand" v="Rossmann"/>
    <tag k="facebook" v="https://www.facebook.com/Rossmann.hu"/>
    <tag k="import" v="osm_poi_matchmaker"/>
    <tag k="instagram" v="https://www.instagram.com/rossmann_hu"/>
    <tag k="name" v="Rossmann"/>
    <tag k="opening_hours" v="Mo-Fr 08:00-19:00; Sa 08:00-16:00; PH off"/>
    <tag k="operator" v="Rossmann Magyarország Kft."/>
    <tag k="payment:cash" v="yes"/>
    <tag k="payment:debit_cards" v="yes"/>
    <tag k="shop" v="chemist"/>
    <tag k="source" v="website"/>
    <tag k="source:date" v="2018-07-30"/>
    <tag k="website" v="https://www.rossmann.hu"/>
    <tag k="youtube" v="https://www.youtube.com/channel/UCmUCPmvMLL3IaXRBtx7-J7Q"/>
  </node>
  <!-- OSM link: https://osm.org/node/5273134553 -->
  <!-- Original coordinates: POINT (46.22946 17.360787) -->
  <!-- OSM <-> POI distance: 181.36560545 m-->
  <!-- Checker good: {not_in_water}; bad {}-->
  <!-- Original tags: 'name':'Rossmann'; 'shop':'chemist';  -->
  <node action="modify" changeset="1" id="5273134553" lat="46.228125194968" lon="17.3621419975832" timestamp="2017-12-09T07:55:30Z" uid="4579407" user="KAMI" version="1">
    <tag k="addr:city" v="Nagyatád"/>
    <tag k="addr:country" v="HU"/>
    <tag k="addr:housenumber" v="2"/>
    <tag k="addr:postcode" v="7500"/>
    <tag k="addr:street" v="Aradi út"/>
    <tag k="brand" v="Rossmann"/>
    <tag k="facebook" v="https://www.facebook.com/Rossmann.hu"/>
    <tag k="import" v="osm_poi_matchmaker"/>
    <tag k="instagram" v="https://www.instagram.com/rossmann_hu"/>
    <tag k="name" v="Rossmann"/>
    <tag k="opening_hours" v="Mo-Fr 08:00-18:00; Sa 08:00-14:00; PH off"/>
    <tag k="operator" v="Rossmann Magyarország Kft."/>
    <tag k="payment:cash" v="yes"/>
    <tag k="payment:debit_cards" v="yes"/>
    <tag k="shop" v="chemist"/>
    <tag k="source" v="website"/>
    <tag k="source:date" v="2018-07-30"/>
    <tag k="website" v="https://www.rossmann.hu"/>
    <tag k="youtube" v="https://www.youtube.com/channel/UCmUCPmvMLL3IaXRBtx7-J7Q"/>
  </node>
  <!-- OSM link: https://osm.org/node/3999812826 -->
  <!-- Original coordinates: POINT (47.874963 21.848238) -->
  <!-- OSM <-> POI distance: 34.37265897 m-->
  <!-- Checker good: {not_in_water}; bad {}-->
  <!-- Original tags: 'name':'Rossmann'; 'shop':'chemist';  -->
  <node action="modify" changeset="1" id="3999812826" lat="47.8746778948953" lon="21.8484160969587" timestamp="2016-02-10T21:21:19Z" uid="4579407" user="KAMI" version="1">
    <tag k="addr:city" v="Nagykálló"/>
    <tag k="addr:country" v="HU"/>
    <tag k="addr:housenumber" v="10"/>
    <tag k="addr:postcode" v="4320"/>
    <tag k="addr:street" v="Árpád utca"/>
    <tag k="brand" v="Rossmann"/>
    <tag k="facebook" v="https://www.facebook.com/Rossmann.hu"/>
    <tag k="import" v="osm_poi_matchmaker"/>
    <tag k="instagram" v="https://www.instagram.com/rossmann_hu"/>
    <tag k="name" v="Rossmann"/>
    <tag k="opening_hours" v="Mo-Fr 08:00-18:00; Sa 08:00-16:00; PH off"/>
    <tag k="operator" v="Rossmann Magyarország Kft."/>
    <tag k="payment:cash" v="yes"/>
    <tag k="payment:debit_cards" v="yes"/>
    <tag k="shop" v="chemist"/>
    <tag k="source" v="website"/>
    <tag k="source:date" v="2018-07-30"/>
    <tag k="website" v="https://www.rossmann.hu"/>
    <tag k="youtube" v="https://www.youtube.com/channel/UCmUCPmvMLL3IaXRBtx7-J7Q"/>
  </node>
  <!-- OSM link: https://osm.org/node/2366239698 -->
  <!-- Original coordinates: POINT (46.45526 16.988531) -->
  <!-- OSM <-> POI distance: 69.31183351 m-->
  <!-- Checker good: {not_in_water}; bad {}-->
  <!-- Original tags: 'name':'Rossmann'; 'opening_hours':'Mo-Fr 08:00-19:00; Sa 08:00-14:00'; 'shop':'chemist'; 'website':'http://www.rossmann.hu';  -->
  <node action="modify" changeset="1" id="2366239698" lat="46.4547788949573" lon="16.9879556976353" timestamp="2017-08-13T16:36:54Z" uid="4579407" user="KAMI" version="3">
    <tag k="addr:city" v="Nagykanizsa"/>
    <tag k="addr:country" v="HU"/>
    <tag k="addr:housenumber" v="2"/>
    <tag k="addr:postcode" v="8800"/>
    <tag k="addr:street" v="Erzsébet tér"/>
    <tag k="brand" v="Rossmann"/>
    <tag k="facebook" v="https://www.facebook.com/Rossmann.hu"/>
    <tag k="import" v="osm_poi_matchmaker"/>
    <tag k="instagram" v="https://www.instagram.com/rossmann_hu"/>
    <tag k="name" v="Rossmann"/>
    <tag k="opening_hours" v="Mo-Fr 08:00-18:00; Sa 08:00-14:00; PH off"/>
    <tag k="operator" v="Rossmann Magyarország Kft."/>
    <tag k="payment:cash" v="yes"/>
    <tag k="payment:debit_cards" v="yes"/>
    <tag k="shop" v="chemist"/>
    <tag k="source" v="website"/>
    <tag k="source:date" v="2018-07-30"/>
    <tag k="website" v="https://www.rossmann.hu"/>
    <tag k="youtube" v="https://www.youtube.com/channel/UCmUCPmvMLL3IaXRBtx7-J7Q"/>
  </node>
  <!-- Original coordinates: POINT (47.417635 19.740791) -->
  <!-- OSM <-> POI distance: None m-->
  <!-- Checker good: {not_in_water}; bad {}-->
  <!-- Original tags:  -->
  <node action="modify" changeset="99999" id="-78" lat="47.417635" lon="19.740791" timestamp="" uid="4579407" user="KAMI" version="99999">
    <tag k="addr:city" v="Nagykáta"/>
    <tag k="addr:country" v="HU"/>
    <tag k="addr:housenumber" v="1"/>
    <tag k="addr:postcode" v="2760"/>
    <tag k="addr:street" v="István Király utca"/>
    <tag k="brand" v="Rossmann"/>
    <tag k="facebook" v="https://www.facebook.com/Rossmann.hu"/>
    <tag k="import" v="osm_poi_matchmaker"/>
    <tag k="instagram" v="https://www.instagram.com/rossmann_hu"/>
    <tag k="name" v="Rossmann"/>
    <tag k="opening_hours" v="Mo-Fr 08:00-18:00; Sa 08:00-16:00; PH off"/>
    <tag k="operator" v="Rossmann Magyarország Kft."/>
    <tag k="payment:cash" v="yes"/>
    <tag k="payment:debit_cards" v="yes"/>
    <tag k="shop" v="chemist"/>
    <tag k="source" v="website"/>
    <tag k="source:date" v="2018-07-30"/>
    <tag k="website" v="https://www.rossmann.hu"/>
    <tag k="youtube" v="https://www.youtube.com/channel/UCmUCPmvMLL3IaXRBtx7-J7Q"/>
  </node>
  <!-- OSM link: https://osm.org/node/3273474521 -->
  <!-- Original coordinates: POINT (47.836405 22.132393) -->
  <!-- OSM <-> POI distance: 2.1032384 m-->
  <!-- Checker good: {not_in_water}; bad {}-->
  <!-- Original tags: 'addr:city':'Nyírbátor'; 'addr:housenumber':'11'; 'addr:postcode':'4300'; 'addr:street':'Kossuth Lajos utca'; 'name':'Rossmann'; 'shop':'chemist'; 'wheelchair':'yes';  -->
  <node action="modify" changeset="1" id="3273474521" lat="47.8363930948969" lon="22.1324148969191" timestamp="2015-12-06T15:20:56Z" uid="4579407" user="KAMI" version="2">
    <tag k="addr:city" v="Nyírbátor"/>
    <tag k="addr:country" v="HU"/>
    <tag k="addr:housenumber" v="11"/>
    <tag k="addr:postcode" v="4300"/>
    <tag k="addr:street" v="Kossuth Lajos utca"/>
    <tag k="brand" v="Rossmann"/>
    <tag k="facebook" v="https://www.facebook.com/Rossmann.hu"/>
    <tag k="import" v="osm_poi_matchmaker"/>
    <tag k="instagram" v="https://www.instagram.com/rossmann_hu"/>
    <tag k="name" v="Rossmann"/>
    <tag k="opening_hours" v="Mo-Fr 08:00-18:00; Sa 08:00-13:00; PH off"/>
    <tag k="operator" v="Rossmann Magyarország Kft."/>
    <tag k="payment:cash" v="yes"/>
    <tag k="payment:debit_cards" v="yes"/>
    <tag k="shop" v="chemist"/>
    <tag k="source" v="website"/>
    <tag k="source:date" v="2018-07-30"/>
    <tag k="website" v="https://www.rossmann.hu"/>
    <tag k="wheelchair" v="yes"/>
    <tag k="youtube" v="https://www.youtube.com/channel/UCmUCPmvMLL3IaXRBtx7-J7Q"/>
  </node>
  <!-- OSM link: https://osm.org/node/3982569056 -->
  <!-- Original coordinates: POINT (47.955033 21.715784) -->
  <!-- OSM <-> POI distance: 26.16242957 m-->
  <!-- Checker good: {not_in_water}; bad {}-->
  <!-- Original tags: 'name':'Rossmann'; 'shop':'chemist';  -->
  <node action="modify" changeset="1" id="3982569056" lat="47.9548019948921" lon="21.7158506969771" timestamp="2016-02-01T18:12:10Z" uid="4579407" user="KAMI" version="1">
    <tag k="addr:city" v="Nyíregyháza"/>
    <tag k="addr:country" v="HU"/>
    <tag k="addr:housenumber" v="3-5"/>
    <tag k="addr:postcode" v="4400"/>
    <tag k="addr:street" v="Zrínyi Ilona utca"/>
    <tag k="brand" v="Rossmann"/>
    <tag k="facebook" v="https://www.facebook.com/Rossmann.hu"/>
    <tag k="import" v="osm_poi_matchmaker"/>
    <tag k="instagram" v="https://www.instagram.com/rossmann_hu"/>
    <tag k="name" v="Rossmann"/>
    <tag k="opening_hours" v="Mo-Fr 08:00-19:00; Sa 08:00-16:00; PH off"/>
    <tag k="operator" v="Rossmann Magyarország Kft."/>
    <tag k="payment:cash" v="yes"/>
    <tag k="payment:debit_cards" v="yes"/>
    <tag k="shop" v="chemist"/>
    <tag k="source" v="website"/>
    <tag k="source:date" v="2018-07-30"/>
    <tag k="website" v="https://www.rossmann.hu"/>
    <tag k="youtube" v="https://www.youtube.com/channel/UCmUCPmvMLL3IaXRBtx7-J7Q"/>
  </node>
  <!-- OSM link: https://osm.org/node/5346384771 -->
  <!-- Original coordinates: POINT (46.559179 20.670499) -->
  <!-- OSM <-> POI distance: 34.12949531 m-->
  <!-- Checker good: {not_in_water}; bad {}-->
  <!-- Original tags: 'name':'Rossmann'; 'shop':'chemist';  -->
  <node action="modify" changeset="1" id="5346384771" lat="46.5588732949525" lon="20.6705388971226" timestamp="2018-01-18T07:20:09Z" uid="4579407" user="KAMI" version="1">
    <tag k="addr:city" v="Orosháza"/>
    <tag k="addr:country" v="HU"/>
    <tag k="addr:housenumber" v="2"/>
    <tag k="addr:postcode" v="5900"/>
    <tag k="addr:street" v="Győry Vilmos tér"/>
    <tag k="brand" v="Rossmann"/>
    <tag k="facebook" v="https://www.facebook.com/Rossmann.hu"/>
    <tag k="import" v="osm_poi_matchmaker"/>
    <tag k="instagram" v="https://www.instagram.com/rossmann_hu"/>
    <tag k="name" v="Rossmann"/>
    <tag k="opening_hours" v="Mo-Fr 08:00-19:00; Sa 08:00-14:00; PH off"/>
    <tag k="operator" v="Rossmann Magyarország Kft."/>
    <tag k="payment:cash" v="yes"/>
    <tag k="payment:debit_cards" v="yes"/>
    <tag k="shop" v="chemist"/>
    <tag k="source" v="website"/>
    <tag k="source:date" v="2018-07-30"/>
    <tag k="website" v="https://www.rossmann.hu"/>
    <tag k="youtube" v="https://www.youtube.com/channel/UCmUCPmvMLL3IaXRBtx7-J7Q"/>
  </node>
  <!-- Original coordinates: POINT (48.21922 20.279771) -->
  <!-- OSM <-> POI distance: None m-->
  <!-- Checker good: {not_in_water}; bad {}-->
  <!-- Original tags:  -->
  <node action="modify" changeset="99999" id="-82" lat="48.21922" lon="20.279771" timestamp="" uid="4579407" user="KAMI" version="99999">
    <tag k="addr:city" v="Ózd"/>
    <tag k="addr:country" v="HU"/>
    <tag k="addr:housenumber" v="54"/>
    <tag k="addr:postcode" v="3600"/>
    <tag k="addr:street" v="Vasvár út"/>
    <tag k="brand" v="Rossmann"/>
    <tag k="facebook" v="https://www.facebook.com/Rossmann.hu"/>
    <tag k="import" v="osm_poi_matchmaker"/>
    <tag k="instagram" v="https://www.instagram.com/rossmann_hu"/>
    <tag k="name" v="Rossmann"/>
    <tag k="opening_hours" v="Mo-Fr 08:00-18:00; Sa 08:00-13:00; PH off"/>
    <tag k="operator" v="Rossmann Magyarország Kft."/>
    <tag k="payment:cash" v="yes"/>
    <tag k="payment:debit_cards" v="yes"/>
    <tag k="shop" v="chemist"/>
    <tag k="source" v="website"/>
    <tag k="source:date" v="2018-07-30"/>
    <tag k="website" v="https://www.rossmann.hu"/>
    <tag k="youtube" v="https://www.youtube.com/channel/UCmUCPmvMLL3IaXRBtx7-J7Q"/>
  </node>
  <!-- OSM link: https://osm.org/node/3543320815 -->
  <!-- Original coordinates: POINT (47.329285 17.466463) -->
  <!-- OSM <-> POI distance: 25.9664269 m-->
  <!-- Checker good: {not_in_water}; bad {}-->
  <!-- Original tags: 'addr:city':'Pápa'; 'addr:housenumber':'13'; 'addr:postcode':'8500'; 'addr:street':'Kossuth Lajos utca'; 'name':'Rossmann'; 'opening_hours':'Mo-Fr 08:00-19:00; Sa 08:00-17:00'; 'operator':'Rossman'; 'phone':'+36 29 889 800'; 'shop':'chemist'; 'source':'local knowledge, website'; 'website':'http://www.rossmann.hu/'; 'wheelchair':'yes';  -->
  <node action="modify" changeset="1" id="3543320815" lat="47.3290991949181" lon="17.4666716975686" timestamp="2017-08-05T13:23:31Z" uid="4579407" user="KAMI" version="4">
    <tag k="addr:city" v="Pápa"/>
    <tag k="addr:country" v="HU"/>
    <tag k="addr:housenumber" v="13"/>
    <tag k="addr:postcode" v="8500"/>
    <tag k="addr:street" v="Kossuth Lajos utca"/>
    <tag k="brand" v="Rossmann"/>
    <tag k="facebook" v="https://www.facebook.com/Rossmann.hu"/>
    <tag k="import" v="osm_poi_matchmaker"/>
    <tag k="instagram" v="https://www.instagram.com/rossmann_hu"/>
    <tag k="name" v="Rossmann"/>
    <tag k="opening_hours" v="Mo-Fr 08:00-19:00; Sa 08:00-16:00; PH off"/>
    <tag k="operator" v="Rossmann Magyarország Kft."/>
    <tag k="payment:cash" v="yes"/>
    <tag k="payment:debit_cards" v="yes"/>
    <tag k="phone" v="+36 29 889 800"/>
    <tag k="shop" v="chemist"/>
    <tag k="source" v="website"/>
    <tag k="source:date" v="2018-07-30"/>
    <tag k="website" v="https://www.rossmann.hu"/>
    <tag k="wheelchair" v="yes"/>
    <tag k="youtube" v="https://www.youtube.com/channel/UCmUCPmvMLL3IaXRBtx7-J7Q"/>
  </node>
  <!-- Original coordinates: POINT (47.918954 19.698148) -->
  <!-- OSM <-> POI distance: None m-->
  <!-- Checker good: {not_in_water}; bad {}-->
  <!-- Original tags:  -->
  <node action="modify" changeset="99999" id="-84" lat="47.918954" lon="19.698148" timestamp="" uid="4579407" user="KAMI" version="99999">
    <tag k="addr:city" v="Pásztó"/>
    <tag k="addr:country" v="HU"/>
    <tag k="addr:housenumber" v="73"/>
    <tag k="addr:postcode" v="3060"/>
    <tag k="addr:street" v="Fő út"/>
    <tag k="brand" v="Rossmann"/>
    <tag k="facebook" v="https://www.facebook.com/Rossmann.hu"/>
    <tag k="import" v="osm_poi_matchmaker"/>
    <tag k="instagram" v="https://www.instagram.com/rossmann_hu"/>
    <tag k="name" v="Rossmann"/>
    <tag k="opening_hours" v="Mo-Fr 08:00-18:00; Sa 08:00-14:00; PH off"/>
    <tag k="operator" v="Rossmann Magyarország Kft."/>
    <tag k="payment:cash" v="yes"/>
    <tag k="payment:debit_cards" v="yes"/>
    <tag k="shop" v="chemist"/>
    <tag k="source" v="website"/>
    <tag k="source:date" v="2018-07-30"/>
    <tag k="website" v="https://www.rossmann.hu"/>
    <tag k="youtube" v="https://www.youtube.com/channel/UCmUCPmvMLL3IaXRBtx7-J7Q"/>
  </node>
  <!-- OSM link: https://osm.org/node/3440860202 -->
  <!-- Original coordinates: POINT (46.073031 18.229164) -->
  <!-- OSM <-> POI distance: 1.85210091 m-->
  <!-- Checker good: {not_in_water}; bad {}-->
  <!-- Original tags: 'description':'Az országos Rossmann drogériahálózat egyik pécsi boltja a Bajcsy-Zsilinszky út és a Rákóczi út kereszteződésében.'; 'name':'Rossmann drogéria'; 'shop':'chemist'; 'source':'local knowledge'; 'url':'http://turistautak.hu/poi.php?id=15479';  -->
  <node action="modify" changeset="1" id="3440860202" lat="46.0730432949754" lon="18.2291801974625" timestamp="2017-09-27T07:22:47Z" uid="4579407" user="KAMI" version="3">
    <tag k="addr:city" v="Pécs"/>
    <tag k="addr:country" v="HU"/>
    <tag k="addr:housenumber" v="50"/>
    <tag k="addr:postcode" v="7622"/>
    <tag k="addr:street" v="Rákóczi út"/>
    <tag k="brand" v="Rossmann"/>
    <tag k="description" v="Az országos Rossmann drogériahálózat egyik pécsi boltja a Bajcsy-Zsilinszky út és a Rákóczi út kereszteződésében."/>
    <tag k="facebook" v="https://www.facebook.com/Rossmann.hu"/>
    <tag k="import" v="osm_poi_matchmaker"/>
    <tag k="instagram" v="https://www.instagram.com/rossmann_hu"/>
    <tag k="name" v="Rossmann"/>
    <tag k="opening_hours" v="Mo-Fr 08:00-19:00; Sa 08:00-15:00; PH off"/>
    <tag k="operator" v="Rossmann Magyarország Kft."/>
    <tag k="payment:cash" v="yes"/>
    <tag k="payment:debit_cards" v="yes"/>
    <tag k="shop" v="chemist"/>
    <tag k="source" v="website"/>
    <tag k="source:date" v="2018-07-30"/>
    <tag k="url" v="http://turistautak.hu/poi.php?id=15479"/>
    <tag k="website" v="https://www.rossmann.hu"/>
    <tag k="youtube" v="https://www.youtube.com/channel/UCmUCPmvMLL3IaXRBtx7-J7Q"/>
  </node>
  <!-- Original coordinates: POINT (47.284488 19.54464) -->
  <!-- OSM <-> POI distance: None m-->
  <!-- Checker good: {not_in_water}; bad {}-->
  <!-- Original tags:  -->
  <node action="modify" changeset="99999" id="-86" lat="47.284488" lon="19.54464" timestamp="" uid="4579407" user="KAMI" version="99999">
    <tag k="addr:city" v="Pilis"/>
    <tag k="addr:country" v="HU"/>
    <tag k="addr:housenumber" v="19"/>
    <tag k="addr:postcode" v="2721"/>
    <tag k="addr:street" v="Rákóczi utca"/>
    <tag k="brand" v="Rossmann"/>
    <tag k="facebook" v="https://www.facebook.com/Rossmann.hu"/>
    <tag k="import" v="osm_poi_matchmaker"/>
    <tag k="instagram" v="https://www.instagram.com/rossmann_hu"/>
    <tag k="name" v="Rossmann"/>
    <tag k="opening_hours" v="Mo-Fr 08:00-18:00; Sa 08:00-13:00; PH off"/>
    <tag k="operator" v="Rossmann Magyarország Kft."/>
    <tag k="payment:cash" v="yes"/>
    <tag k="payment:debit_cards" v="yes"/>
    <tag k="shop" v="chemist"/>
    <tag k="source" v="website"/>
    <tag k="source:date" v="2018-07-30"/>
    <tag k="website" v="https://www.rossmann.hu"/>
    <tag k="youtube" v="https://www.youtube.com/channel/UCmUCPmvMLL3IaXRBtx7-J7Q"/>
  </node>
  <!-- OSM link: https://osm.org/way/306027276 -->
  <!-- Original coordinates: POINT (48.219983 20.705821) -->
  <!-- OSM <-> POI distance: 12.88018577 m-->
  <!-- Checker good: {not_in_water}; bad {}-->
  <!-- Original tags: 'addr:city':'Sajószentpéter'; 'addr:housenumber':'220'; 'addr:postcode':'3770'; 'addr:street':'Kossuth Lajos út'; 'building':'yes'; 'name':'Rossmann'; 'shop':'chemist';  -->
  <way action="modify" changeset="1" id="306027276" timestamp="2015-01-06T08:14:56Z" uid="4579407" user="KAMI" version="2">
    <nd ref="3107931300"/>
    <nd ref="3107931306"/>
    <nd ref="3107931307"/>
    <nd ref="3107931301"/>
    <nd ref="3107931300"/>
    <tag k="addr:city" v="Sajószentpéter"/>
    <tag k="addr:country" v="HU"/>
    <tag k="addr:housenumber" v="222"/>
    <tag k="addr:postcode" v="3770"/>
    <tag k="addr:street" v="Kossuth út"/>
    <tag k="brand" v="Rossmann"/>
    <tag k="building" v="yes"/>
    <tag k="facebook" v="https://www.facebook.com/Rossmann.hu"/>
    <tag k="import" v="osm_poi_matchmaker"/>
    <tag k="instagram" v="https://www.instagram.com/rossmann_hu"/>
    <tag k="name" v="Rossmann"/>
    <tag k="opening_hours" v="Mo-Fr 08:00-18:00; Sa 08:00-14:00; PH off"/>
    <tag k="operator" v="Rossmann Magyarország Kft."/>
    <tag k="payment:cash" v="yes"/>
    <tag k="payment:debit_cards" v="yes"/>
    <tag k="shop" v="chemist"/>
    <tag k="source" v="website"/>
    <tag k="source:date" v="2018-07-30"/>
    <tag k="website" v="https://www.rossmann.hu"/>
    <tag k="youtube" v="https://www.youtube.com/channel/UCmUCPmvMLL3IaXRBtx7-J7Q"/>
  </way>
  <!-- OSM link: https://osm.org/node/5286439795 -->
  <!-- Original coordinates: POINT (48.105919 19.809085) -->
  <!-- OSM <-> POI distance: 204.78022534 m-->
  <!-- Checker good: {not_in_water}; bad {}-->
  <!-- Original tags: 'name':'Rossmann'; 'shop':'chemist';  -->
  <node action="modify" changeset="1" id="5286439795" lat="48.1043051948861" lon="19.8077562972427" timestamp="2017-12-15T19:24:10Z" uid="4579407" user="KAMI" version="1">
    <tag k="addr:city" v="Salgótarján"/>
    <tag k="addr:country" v="HU"/>
    <tag k="addr:housenumber" v="18"/>
    <tag k="addr:postcode" v="3100"/>
    <tag k="addr:street" v="Rákóczi út"/>
    <tag k="brand" v="Rossmann"/>
    <tag k="facebook" v="https://www.facebook.com/Rossmann.hu"/>
    <tag k="import" v="osm_poi_matchmaker"/>
    <tag k="instagram" v="https://www.instagram.com/rossmann_hu"/>
    <tag k="name" v="Rossmann"/>
    <tag k="opening_hours" v="Mo-Fr 08:00-18:00; Sa 08:00-14:00; PH off"/>
    <tag k="operator" v="Rossmann Magyarország Kft."/>
    <tag k="payment:cash" v="yes"/>
    <tag k="payment:debit_cards" v="yes"/>
    <tag k="shop" v="chemist"/>
    <tag k="source" v="website"/>
    <tag k="source:date" v="2018-07-30"/>
    <tag k="website" v="https://www.rossmann.hu"/>
    <tag k="youtube" v="https://www.youtube.com/channel/UCmUCPmvMLL3IaXRBtx7-J7Q"/>
  </node>
  <!-- OSM link: https://osm.org/node/3465129564 -->
  <!-- Original coordinates: POINT (46.885594 18.620167) -->
  <!-- OSM <-> POI distance: 48.80568107 m-->
  <!-- Checker good: {not_in_water}; bad {}-->
  <!-- Original tags: 'description':'Rossmann Sárbogárdon Nyitva: H-P 08:00 - 18:00 Szo 08:00 - 13:00'; 'name':'Rossmann'; 'shop':'chemist'; 'source':'turistautak.hu'; 'source:date':'2012-01-01'; 'url':'http://turistautak.hu/poi.php?id=106928'; 'wheelchair':'yes';  -->
  <node action="modify" changeset="1" id="3465129564" lat="46.8851999949376" lon="18.620449997408" timestamp="2015-11-14T22:00:38Z" uid="4579407" user="KAMI" version="2">
    <tag k="addr:city" v="Sárbogárd"/>
    <tag k="addr:country" v="HU"/>
    <tag k="addr:housenumber" v="119"/>
    <tag k="addr:postcode" v="7000"/>
    <tag k="addr:street" v="Ady Endre utca"/>
    <tag k="brand" v="Rossmann"/>
    <tag k="description" v="Rossmann Sárbogárdon Nyitva: H-P 08:00 - 18:00 Szo 08:00 - 13:00"/>
    <tag k="facebook" v="https://www.facebook.com/Rossmann.hu"/>
    <tag k="import" v="osm_poi_matchmaker"/>
    <tag k="instagram" v="https://www.instagram.com/rossmann_hu"/>
    <tag k="name" v="Rossmann"/>
    <tag k="opening_hours" v="Mo-Fr 08:00-18:00; Sa 08:00-13:00; PH off"/>
    <tag k="operator" v="Rossmann Magyarország Kft."/>
    <tag k="payment:cash" v="yes"/>
    <tag k="payment:debit_cards" v="yes"/>
    <tag k="shop" v="chemist"/>
    <tag k="source" v="website"/>
    <tag k="source:date" v="2018-07-30"/>
    <tag k="url" v="http://turistautak.hu/poi.php?id=106928"/>
    <tag k="website" v="https://www.rossmann.hu"/>
    <tag k="wheelchair" v="yes"/>
    <tag k="youtube" v="https://www.youtube.com/channel/UCmUCPmvMLL3IaXRBtx7-J7Q"/>
  </node>
  <!-- OSM link: https://osm.org/node/1806426769 -->
  <!-- Original coordinates: POINT (47.252638 16.931226) -->
  <!-- OSM <-> POI distance: 4.878386 m-->
  <!-- Checker good: {not_in_water}; bad {}-->
  <!-- Original tags: 'name':'Rossmann'; 'shop':'chemist'; 'wheelchair':'yes';  -->
  <node action="modify" changeset="1" id="1806426769" lat="47.2526616949214" lon="16.9312803976431" timestamp="2015-11-28T19:01:08Z" uid="4579407" user="KAMI" version="4">
    <tag k="addr:city" v="Sárvár"/>
    <tag k="addr:country" v="HU"/>
    <tag k="addr:housenumber" v="38"/>
    <tag k="addr:postcode" v="9600"/>
    <tag k="addr:street" v="Batthyány utca"/>
    <tag k="brand" v="Rossmann"/>
    <tag k="facebook" v="https://www.facebook.com/Rossmann.hu"/>
    <tag k="import" v="osm_poi_matchmaker"/>
    <tag k="instagram" v="https://www.instagram.com/rossmann_hu"/>
    <tag k="name" v="Rossmann"/>
    <tag k="opening_hours" v="Mo-Fr 08:00-18:00; Sa 08:00-13:00; PH off"/>
    <tag k="operator" v="Rossmann Magyarország Kft."/>
    <tag k="payment:cash" v="yes"/>
    <tag k="payment:debit_cards" v="yes"/>
    <tag k="shop" v="chemist"/>
    <tag k="source" v="website"/>
    <tag k="source:date" v="2018-07-30"/>
    <tag k="website" v="https://www.rossmann.hu"/>
    <tag k="wheelchair" v="yes"/>
    <tag k="youtube" v="https://www.youtube.com/channel/UCmUCPmvMLL3IaXRBtx7-J7Q"/>
  </node>
  <!-- Original coordinates: POINT (45.854117 18.297685) -->
  <!-- OSM <-> POI distance: None m-->
  <!-- Checker good: {not_in_water}; bad {}-->
  <!-- Original tags:  -->
  <node action="modify" changeset="99999" id="-91" lat="45.854117" lon="18.297685" timestamp="" uid="4579407" user="KAMI" version="99999">
    <tag k="addr:city" v="Siklós"/>
    <tag k="addr:country" v="HU"/>
    <tag k="addr:housenumber" v="29"/>
    <tag k="addr:postcode" v="7800"/>
    <tag k="addr:street" v="Felszabadulás utca"/>
    <tag k="brand" v="Rossmann"/>
    <tag k="facebook" v="https://www.facebook.com/Rossmann.hu"/>
    <tag k="import" v="osm_poi_matchmaker"/>
    <tag k="instagram" v="https://www.instagram.com/rossmann_hu"/>
    <tag k="name" v="Rossmann"/>
    <tag k="opening_hours" v="Mo-Fr 08:00-18:00; Sa 08:00-13:00; PH off"/>
    <tag k="operator" v="Rossmann Magyarország Kft."/>
    <tag k="payment:cash" v="yes"/>
    <tag k="payment:debit_cards" v="yes"/>
    <tag k="shop" v="chemist"/>
    <tag k="source" v="website"/>
    <tag k="source:date" v="2018-07-30"/>
    <tag k="website" v="https://www.rossmann.hu"/>
    <tag k="youtube" v="https://www.youtube.com/channel/UCmUCPmvMLL3IaXRBtx7-J7Q"/>
  </node>
  <!-- OSM link: https://osm.org/node/4329545482 -->
  <!-- Original coordinates: POINT (46.906045 18.053043) -->
  <!-- OSM <-> POI distance: 75.57235051 m-->
  <!-- Checker good: {not_in_water}; bad {}-->
  <!-- Original tags: 'name':'Rossmann'; 'shop':'chemist'; 'wheelchair':'no';  -->
  <node action="modify" changeset="1" id="4329545482" lat="46.9063962949367" lon="18.0538945974869" timestamp="2017-05-16T11:23:03Z" uid="4579407" user="KAMI" version="2">
    <tag k="addr:city" v="Siófok"/>
    <tag k="addr:country" v="HU"/>
    <tag k="addr:housenumber" v="174-176"/>
    <tag k="addr:postcode" v="8600"/>
    <tag k="addr:street" v="Fő út"/>
    <tag k="brand" v="Rossmann"/>
    <tag k="facebook" v="https://www.facebook.com/Rossmann.hu"/>
    <tag k="import" v="osm_poi_matchmaker"/>
    <tag k="instagram" v="https://www.instagram.com/rossmann_hu"/>
    <tag k="name" v="Rossmann"/>
    <tag k="opening_hours" v="Mo-Fr 08:00-19:00; Sa 08:00-14:00; PH off"/>
    <tag k="operator" v="Rossmann Magyarország Kft."/>
    <tag k="payment:cash" v="yes"/>
    <tag k="payment:debit_cards" v="yes"/>
    <tag k="shop" v="chemist"/>
    <tag k="source" v="website"/>
    <tag k="source:date" v="2018-07-30"/>
    <tag k="website" v="https://www.rossmann.hu"/>
    <tag k="wheelchair" v="no"/>
    <tag k="youtube" v="https://www.youtube.com/channel/UCmUCPmvMLL3IaXRBtx7-J7Q"/>
  </node>
  <!-- OSM link: https://osm.org/node/3056222701 -->
  <!-- Original coordinates: POINT (47.690776 16.576482) -->
  <!-- OSM <-> POI distance: 17.34068618 m-->
  <!-- Checker good: {not_in_water}; bad {}-->
  <!-- Original tags: 'addr:city':'Sopron'; 'addr:housenumber':'16'; 'addr:postcode':'9400'; 'addr:street':'Kodály Zoltán tér'; 'name':'Rossmann'; 'opening_hours':'Mo-Fr 08:00-19:00;Sa 08:00-14:00'; 'shop':'chemist';  -->
  <node action="modify" changeset="1" id="3056222701" lat="47.6909316949029" lon="16.5764687976925" timestamp="2014-09-02T19:47:53Z" uid="4579407" user="KAMI" version="1">
    <tag k="addr:city" v="Sopron"/>
    <tag k="addr:country" v="HU"/>
    <tag k="addr:housenumber" v="16"/>
    <tag k="addr:postcode" v="9400"/>
    <tag k="addr:street" v="Kodály tér"/>
    <tag k="brand" v="Rossmann"/>
    <tag k="facebook" v="https://www.facebook.com/Rossmann.hu"/>
    <tag k="import" v="osm_poi_matchmaker"/>
    <tag k="instagram" v="https://www.instagram.com/rossmann_hu"/>
    <tag k="name" v="Rossmann"/>
    <tag k="opening_hours" v="Mo-Fr 08:00-19:00; Sa 08:00-16:00; PH off"/>
    <tag k="operator" v="Rossmann Magyarország Kft."/>
    <tag k="payment:cash" v="yes"/>
    <tag k="payment:debit_cards" v="yes"/>
    <tag k="shop" v="chemist"/>
    <tag k="source" v="website"/>
    <tag k="source:date" v="2018-07-30"/>
    <tag k="website" v="https://www.rossmann.hu"/>
    <tag k="youtube" v="https://www.youtube.com/channel/UCmUCPmvMLL3IaXRBtx7-J7Q"/>
  </node>
  <!-- Original coordinates: POINT (46.977964 17.281796) -->
  <!-- OSM <-> POI distance: None m-->
  <!-- Checker good: {not_in_water}; bad {}-->
  <!-- Original tags:  -->
  <node action="modify" changeset="99999" id="-94" lat="46.977964" lon="17.281796" timestamp="" uid="4579407" user="KAMI" version="99999">
    <tag k="addr:city" v="Sümeg"/>
    <tag k="addr:country" v="HU"/>
    <tag k="addr:housenumber" v="3"/>
    <tag k="addr:postcode" v="8330"/>
    <tag k="addr:street" v="Kossuth Lajos utca"/>
    <tag k="brand" v="Rossmann"/>
    <tag k="facebook" v="https://www.facebook.com/Rossmann.hu"/>
    <tag k="import" v="osm_poi_matchmaker"/>
    <tag k="instagram" v="https://www.instagram.com/rossmann_hu"/>
    <tag k="name" v="Rossmann"/>
    <tag k="opening_hours" v="Mo-Fr 08:00-18:00; Sa 08:00-14:00; PH off"/>
    <tag k="operator" v="Rossmann Magyarország Kft."/>
    <tag k="payment:cash" v="yes"/>
    <tag k="payment:debit_cards" v="yes"/>
    <tag k="shop" v="chemist"/>
    <tag k="source" v="website"/>
    <tag k="source:date" v="2018-07-30"/>
    <tag k="website" v="https://www.rossmann.hu"/>
    <tag k="youtube" v="https://www.youtube.com/channel/UCmUCPmvMLL3IaXRBtx7-J7Q"/>
  </node>
  <!-- Original coordinates: POINT (46.861648 17.903396) -->
  <!-- OSM <-> POI distance: None m-->
  <!-- Checker good: {not_in_water}; bad {}-->
  <!-- Original tags:  -->
  <node action="modify" changeset="99999" id="-95" lat="46.861648" lon="17.903396" timestamp="" uid="4579407" user="KAMI" version="99999">
    <tag k="addr:city" v="Szántód"/>
    <tag k="addr:country" v="HU"/>
    <tag k="addr:housenumber" v="10"/>
    <tag k="addr:postcode" v="8622"/>
    <tag k="addr:street" v="Május 1. utca"/>
    <tag k="brand" v="Rossmann"/>
    <tag k="facebook" v="https://www.facebook.com/Rossmann.hu"/>
    <tag k="import" v="osm_poi_matchmaker"/>
    <tag k="instagram" v="https://www.instagram.com/rossmann_hu"/>
    <tag k="name" v="Rossmann"/>
    <tag k="opening_hours" v="Mo-Sa 08:00-20:00; Su 08:00-18:00; PH off"/>
    <tag k="operator" v="Rossmann Magyarország Kft."/>
    <tag k="payment:cash" v="yes"/>
    <tag k="payment:debit_cards" v="yes"/>
    <tag k="shop" v="chemist"/>
    <tag k="source" v="website"/>
    <tag k="source:date" v="2018-07-30"/>
    <tag k="website" v="https://www.rossmann.hu"/>
    <tag k="youtube" v="https://www.youtube.com/channel/UCmUCPmvMLL3IaXRBtx7-J7Q"/>
  </node>
  <!-- OSM link: https://osm.org/node/2089385707 -->
  <!-- Original coordinates: POINT (47.318077 18.909189) -->
  <!-- OSM <-> POI distance: 18.83040787 m-->
  <!-- Checker good: {not_in_water}; bad {}-->
  <!-- Original tags: 'name':'Rossmann'; 'shop':'chemist'; 'wheelchair':'yes';  -->
  <node action="modify" changeset="1" id="2089385707" lat="47.3182409949186" lon="18.9092512973678" timestamp="2015-11-20T21:36:14Z" uid="4579407" user="KAMI" version="2">
    <tag k="addr:city" v="Százhalombatta"/>
    <tag k="addr:country" v="HU"/>
    <tag k="addr:housenumber" v="16"/>
    <tag k="addr:postcode" v="2440"/>
    <tag k="addr:street" v="Damjanich utca"/>
    <tag k="brand" v="Rossmann"/>
    <tag k="facebook" v="https://www.facebook.com/Rossmann.hu"/>
    <tag k="import" v="osm_poi_matchmaker"/>
    <tag k="instagram" v="https://www.instagram.com/rossmann_hu"/>
    <tag k="name" v="Rossmann"/>
    <tag k="opening_hours" v="Mo-Fr 08:00-18:00; Sa 08:00-14:00; PH off"/>
    <tag k="operator" v="Rossmann Magyarország Kft."/>
    <tag k="payment:cash" v="yes"/>
    <tag k="payment:debit_cards" v="yes"/>
    <tag k="shop" v="chemist"/>
    <tag k="source" v="website"/>
    <tag k="source:date" v="2018-07-30"/>
    <tag k="website" v="https://www.rossmann.hu"/>
    <tag k="wheelchair" v="yes"/>
    <tag k="youtube" v="https://www.youtube.com/channel/UCmUCPmvMLL3IaXRBtx7-J7Q"/>
  </node>
  <!-- Original coordinates: POINT (48.081584 19.520912) -->
  <!-- OSM <-> POI distance: None m-->
  <!-- Checker good: {not_in_water}; bad {}-->
  <!-- Original tags:  -->
  <node action="modify" changeset="99999" id="-97" lat="48.081584" lon="19.520912" timestamp="" uid="4579407" user="KAMI" version="99999">
    <tag k="addr:city" v="Szécsény"/>
    <tag k="addr:country" v="HU"/>
    <tag k="addr:housenumber" v="91"/>
    <tag k="addr:postcode" v="3170"/>
    <tag k="addr:street" v="Rákóczi út"/>
    <tag k="brand" v="Rossmann"/>
    <tag k="facebook" v="https://www.facebook.com/Rossmann.hu"/>
    <tag k="import" v="osm_poi_matchmaker"/>
    <tag k="instagram" v="https://www.instagram.com/rossmann_hu"/>
    <tag k="name" v="Rossmann"/>
    <tag k="opening_hours" v="Mo-Fr 08:00-18:00; Sa 08:00-15:00; PH off"/>
    <tag k="operator" v="Rossmann Magyarország Kft."/>
    <tag k="payment:cash" v="yes"/>
    <tag k="payment:debit_cards" v="yes"/>
    <tag k="shop" v="chemist"/>
    <tag k="source" v="website"/>
    <tag k="source:date" v="2018-07-30"/>
    <tag k="website" v="https://www.rossmann.hu"/>
    <tag k="youtube" v="https://www.youtube.com/channel/UCmUCPmvMLL3IaXRBtx7-J7Q"/>
  </node>
  <!-- OSM link: https://osm.org/node/1217211529 -->
  <!-- Original coordinates: POINT (46.248942 20.146204) -->
  <!-- OSM <-> POI distance: 6.83240153 m-->
  <!-- Checker good: {not_in_water}; bad {}-->
  <!-- Original tags: 'addr:city':'Szeged'; 'addr:housenumber':'7-9'; 'addr:postcode':'6720'; 'addr:street':'Jókai utca'; 'name':'Rossmann'; 'opening_hours':'Mo-Fr 08:00-19:00; Sa 08:00-15:00; PH off'; 'shop':'chemist'; 'website':'http://rossmann.hu/fooldal'; 'wheelchair':'yes';  -->
  <node action="modify" changeset="1" id="1217211529" lat="46.248950994967" lon="20.1462918971956" timestamp="2018-03-15T09:01:24Z" uid="4579407" user="KAMI" version="5">
    <tag k="addr:city" v="Szeged"/>
    <tag k="addr:country" v="HU"/>
    <tag k="addr:housenumber" v="7-9"/>
    <tag k="addr:postcode" v="6720"/>
    <tag k="addr:street" v="Jókai utca"/>
    <tag k="brand" v="Rossmann"/>
    <tag k="facebook" v="https://www.facebook.com/Rossmann.hu"/>
    <tag k="import" v="osm_poi_matchmaker"/>
    <tag k="instagram" v="https://www.instagram.com/rossmann_hu"/>
    <tag k="name" v="Rossmann"/>
    <tag k="opening_hours" v="Mo-Fr 08:00-19:00; Sa 08:00-15:00; PH off"/>
    <tag k="operator" v="Rossmann Magyarország Kft."/>
    <tag k="payment:cash" v="yes"/>
    <tag k="payment:debit_cards" v="yes"/>
    <tag k="shop" v="chemist"/>
    <tag k="source" v="website"/>
    <tag k="source:date" v="2018-07-30"/>
    <tag k="website" v="https://www.rossmann.hu"/>
    <tag k="wheelchair" v="yes"/>
    <tag k="youtube" v="https://www.youtube.com/channel/UCmUCPmvMLL3IaXRBtx7-J7Q"/>
  </node>
  <!-- OSM link: https://osm.org/node/4170281673 -->
  <!-- Original coordinates: POINT (47.19004 18.406682) -->
  <!-- OSM <-> POI distance: 459.38419139 m-->
  <!-- Checker good: {not_in_water}; bad {}-->
  <!-- Original tags: 'addr:city':'Székesfehérvár'; 'addr:housenumber':'2'; 'addr:postcode':'8000'; 'addr:street':'Várkapu utca'; 'name':'Rossmann Drogéria'; 'opening_hours':'Mo-Fr 08:00-19:00; Sa 09:00-14:00'; 'shop':'chemist';  -->
  <node action="modify" changeset="1" id="4170281673" lat="47.193832694924" lon="18.4090925974374" timestamp="2016-06-29T11:21:16Z" uid="4579407" user="KAMI" version="2">
    <tag k="addr:city" v="Székesfehérvár"/>
    <tag k="addr:country" v="HU"/>
    <tag k="addr:housenumber" v="1"/>
    <tag k="addr:postcode" v="8000"/>
    <tag k="addr:street" v="Palotai út"/>
    <tag k="brand" v="Rossmann"/>
    <tag k="facebook" v="https://www.facebook.com/Rossmann.hu"/>
    <tag k="import" v="osm_poi_matchmaker"/>
    <tag k="instagram" v="https://www.instagram.com/rossmann_hu"/>
    <tag k="name" v="Rossmann"/>
    <tag k="opening_hours" v="Mo-Sa 09:00-20:00; Su 10:00-18:00; PH off"/>
    <tag k="operator" v="Rossmann Magyarország Kft."/>
    <tag k="payment:cash" v="yes"/>
    <tag k="payment:debit_cards" v="yes"/>
    <tag k="shop" v="chemist"/>
    <tag k="source" v="website"/>
    <tag k="source:date" v="2018-07-30"/>
    <tag k="website" v="https://www.rossmann.hu"/>
    <tag k="youtube" v="https://www.youtube.com/channel/UCmUCPmvMLL3IaXRBtx7-J7Q"/>
  </node>
  <!-- OSM link: https://osm.org/node/3462181511 -->
  <!-- Original coordinates: POINT (46.351533 18.701946) -->
  <!-- OSM <-> POI distance: 33.3604949 m-->
  <!-- Checker good: {not_in_water}; bad {}-->
  <!-- Original tags: 'name':'Rossmann'; 'shop':'chemist'; 'source':'turistautak.hu'; 'source:date':'2011-11-24'; 'url':'http://turistautak.hu/poi.php?id=129572'; 'wheelchair':'yes';  -->
  <node action="modify" changeset="1" id="3462181511" lat="46.3512329949621" lon="18.7019499973967" timestamp="2015-11-21T20:45:18Z" uid="4579407" user="KAMI" version="2">
    <tag k="addr:city" v="Szekszárd"/>
    <tag k="addr:country" v="HU"/>
    <tag k="addr:housenumber" v="1-7"/>
    <tag k="addr:postcode" v="7100"/>
    <tag k="addr:street" v="Széchenyi út"/>
    <tag k="brand" v="Rossmann"/>
    <tag k="facebook" v="https://www.facebook.com/Rossmann.hu"/>
    <tag k="import" v="osm_poi_matchmaker"/>
    <tag k="instagram" v="https://www.instagram.com/rossmann_hu"/>
    <tag k="name" v="Rossmann"/>
    <tag k="opening_hours" v="Mo-Fr 08:00-19:00; Sa 08:00-14:00; PH off"/>
    <tag k="operator" v="Rossmann Magyarország Kft."/>
    <tag k="payment:cash" v="yes"/>
    <tag k="payment:debit_cards" v="yes"/>
    <tag k="shop" v="chemist"/>
    <tag k="source" v="website"/>
    <tag k="source:date" v="2018-07-30"/>
    <tag k="url" v="http://turistautak.hu/poi.php?id=129572"/>
    <tag k="website" v="https://www.rossmann.hu"/>
    <tag k="wheelchair" v="yes"/>
    <tag k="youtube" v="https://www.youtube.com/channel/UCmUCPmvMLL3IaXRBtx7-J7Q"/>
  </node>
  <!-- Original coordinates: POINT (47.650778 19.071118) -->
  <!-- OSM <-> POI distance: None m-->
  <!-- Checker good: {not_in_water}; bad {}-->
  <!-- Original tags:  -->
  <node action="modify" changeset="99999" id="-101" lat="47.650778" lon="19.071118" timestamp="" uid="4579407" user="KAMI" version="99999">
    <tag k="addr:city" v="Szentendre"/>
    <tag k="addr:country" v="HU"/>
    <tag k="addr:housenumber" v="20"/>
    <tag k="addr:postcode" v="2000"/>
    <tag k="addr:street" v="Dózsa György út"/>
    <tag k="brand" v="Rossmann"/>
    <tag k="facebook" v="https://www.facebook.com/Rossmann.hu"/>
    <tag k="import" v="osm_poi_matchmaker"/>
    <tag k="instagram" v="https://www.instagram.com/rossmann_hu"/>
    <tag k="name" v="Rossmann"/>
    <tag k="opening_hours" v="Mo-Fr 08:00-20:00; Sa 08:00-16:00; PH off"/>
    <tag k="operator" v="Rossmann Magyarország Kft."/>
    <tag k="payment:cash" v="yes"/>
    <tag k="payment:debit_cards" v="yes"/>
    <tag k="shop" v="chemist"/>
    <tag k="source" v="website"/>
    <tag k="source:date" v="2018-07-30"/>
    <tag k="website" v="https://www.rossmann.hu"/>
    <tag k="youtube" v="https://www.youtube.com/channel/UCmUCPmvMLL3IaXRBtx7-J7Q"/>
  </node>
  <!-- OSM link: https://osm.org/node/3212962690 -->
  <!-- Original coordinates: POINT (46.651486 20.260533) -->
  <!-- OSM <-> POI distance: 37.30600838 m-->
  <!-- Checker good: {not_in_water}; bad {}-->
  <!-- Original tags: 'addr:city':'Szentes'; 'addr:housenumber':'11-13'; 'addr:postcode':'6600'; 'addr:street':'Kossuth Lajos utca'; 'level':'0'; 'name':'Rossmann'; 'opening_hours':'Mo-Fr 08:00-19:00; Sa 08:00-14:00; PH off'; 'operator':'Rossmann Magyarország Kft.'; 'shop':'chemist'; 'website':'http://www.rossmann.hu/';  -->
  <node action="modify" changeset="1" id="3212962690" lat="46.6512986949482" lon="20.2609384971797" timestamp="2017-05-10T16:02:04Z" uid="4579407" user="KAMI" version="3">
    <tag k="addr:city" v="Szentes"/>
    <tag k="addr:country" v="HU"/>
    <tag k="addr:housenumber" v="11-13"/>
    <tag k="addr:postcode" v="6600"/>
    <tag k="addr:street" v="Kossuth út"/>
    <tag k="brand" v="Rossmann"/>
    <tag k="facebook" v="https://www.facebook.com/Rossmann.hu"/>
    <tag k="import" v="osm_poi_matchmaker"/>
    <tag k="instagram" v="https://www.instagram.com/rossmann_hu"/>
    <tag k="level" v="0"/>
    <tag k="name" v="Rossmann"/>
    <tag k="opening_hours" v="Mo-Fr 08:00-19:00; Sa 08:00-14:00; PH off"/>
    <tag k="operator" v="Rossmann Magyarország Kft."/>
    <tag k="payment:cash" v="yes"/>
    <tag k="payment:debit_cards" v="yes"/>
    <tag k="shop" v="chemist"/>
    <tag k="source" v="website"/>
    <tag k="source:date" v="2018-07-30"/>
    <tag k="website" v="https://www.rossmann.hu"/>
    <tag k="youtube" v="https://www.youtube.com/channel/UCmUCPmvMLL3IaXRBtx7-J7Q"/>
  </node>
  <!-- OSM link: https://osm.org/node/4850300860 -->
  <!-- Original coordinates: POINT (48.159761 21.208234) -->
  <!-- OSM <-> POI distance: 126.35789326 m-->
  <!-- Checker good: {not_in_water}; bad {}-->
  <!-- Original tags: 'addr:city':'Szerencs'; 'name':'Rossmann'; 'shop':'chemist';  -->
  <node action="modify" changeset="1" id="4850300860" lat="48.1605180948838" lon="21.206963597048" timestamp="2017-08-05T11:25:04Z" uid="4579407" user="KAMI" version="2">
    <tag k="addr:city" v="Szerencs"/>
    <tag k="addr:country" v="HU"/>
    <tag k="addr:housenumber" v="118"/>
    <tag k="addr:postcode" v="3900"/>
    <tag k="addr:street" v="Rákóczi utca"/>
    <tag k="brand" v="Rossmann"/>
    <tag k="facebook" v="https://www.facebook.com/Rossmann.hu"/>
    <tag k="import" v="osm_poi_matchmaker"/>
    <tag k="instagram" v="https://www.instagram.com/rossmann_hu"/>
    <tag k="name" v="Rossmann"/>
    <tag k="opening_hours" v="Mo-Fr 08:00-18:00; Sa 08:00-14:00; PH off"/>
    <tag k="operator" v="Rossmann Magyarország Kft."/>
    <tag k="payment:cash" v="yes"/>
    <tag k="payment:debit_cards" v="yes"/>
    <tag k="shop" v="chemist"/>
    <tag k="source" v="website"/>
    <tag k="source:date" v="2018-07-30"/>
    <tag k="website" v="https://www.rossmann.hu"/>
    <tag k="youtube" v="https://www.youtube.com/channel/UCmUCPmvMLL3IaXRBtx7-J7Q"/>
  </node>
  <!-- Original coordinates: POINT (47.332137 19.003309) -->
  <!-- OSM <-> POI distance: None m-->
  <!-- Checker good: {not_in_water}; bad {}-->
  <!-- Original tags:  -->
  <node action="modify" changeset="99999" id="-104" lat="47.332137" lon="19.003309" timestamp="" uid="4579407" user="KAMI" version="99999">
    <tag k="addr:city" v="Szigetszentmiklós"/>
    <tag k="addr:country" v="HU"/>
    <tag k="addr:postcode" v="2310"/>
    <tag k="addr:street" v="Lordok Háza üzletház"/>
    <tag k="brand" v="Rossmann"/>
    <tag k="facebook" v="https://www.facebook.com/Rossmann.hu"/>
    <tag k="import" v="osm_poi_matchmaker"/>
    <tag k="instagram" v="https://www.instagram.com/rossmann_hu"/>
    <tag k="name" v="Rossmann"/>
    <tag k="opening_hours" v="Mo-Fr 08:00-19:00; Sa 08:00-15:00; PH off"/>
    <tag k="operator" v="Rossmann Magyarország Kft."/>
    <tag k="payment:cash" v="yes"/>
    <tag k="payment:debit_cards" v="yes"/>
    <tag k="shop" v="chemist"/>
    <tag k="source" v="website"/>
    <tag k="source:date" v="2018-07-30"/>
    <tag k="website" v="https://www.rossmann.hu"/>
    <tag k="youtube" v="https://www.youtube.com/channel/UCmUCPmvMLL3IaXRBtx7-J7Q"/>
  </node>
  <!-- Original coordinates: POINT (46.047495 17.799901) -->
  <!-- OSM <-> POI distance: None m-->
  <!-- Checker good: {not_in_water}; bad {}-->
  <!-- Original tags:  -->
  <node action="modify" changeset="99999" id="-105" lat="46.047495" lon="17.799901" timestamp="" uid="4579407" user="KAMI" version="99999">
    <tag k="addr:city" v="Szigetvár"/>
    <tag k="addr:country" v="HU"/>
    <tag k="addr:housenumber" v="4"/>
    <tag k="addr:postcode" v="7900"/>
    <tag k="addr:street" v="József A. utca"/>
    <tag k="brand" v="Rossmann"/>
    <tag k="facebook" v="https://www.facebook.com/Rossmann.hu"/>
    <tag k="import" v="osm_poi_matchmaker"/>
    <tag k="instagram" v="https://www.instagram.com/rossmann_hu"/>
    <tag k="name" v="Rossmann"/>
    <tag k="opening_hours" v="Mo-Fr 08:00-18:00; Sa 08:00-13:00; PH off"/>
    <tag k="operator" v="Rossmann Magyarország Kft."/>
    <tag k="payment:cash" v="yes"/>
    <tag k="payment:debit_cards" v="yes"/>
    <tag k="shop" v="chemist"/>
    <tag k="source" v="website"/>
    <tag k="source:date" v="2018-07-30"/>
    <tag k="website" v="https://www.rossmann.hu"/>
    <tag k="youtube" v="https://www.youtube.com/channel/UCmUCPmvMLL3IaXRBtx7-J7Q"/>
  </node>
  <!-- OSM link: https://osm.org/node/4566712990 -->
  <!-- Original coordinates: POINT (47.176952 20.194703) -->
  <!-- OSM <-> POI distance: 42.85829697 m-->
  <!-- Checker good: {not_in_water}; bad {}-->
  <!-- Original tags: 'name':'Rossmann'; 'shop':'chemist'; 'toilets:wheelchair':'no'; 'wheelchair':'yes';  -->
  <node action="modify" changeset="1" id="4566712990" lat="47.1770309949247" lon="20.1952579971888" timestamp="2017-08-05T11:25:03Z" uid="4579407" user="KAMI" version="4">
    <tag k="addr:city" v="Szolnok"/>
    <tag k="addr:country" v="HU"/>
    <tag k="addr:housenumber" v="13"/>
    <tag k="addr:postcode" v="5000"/>
    <tag k="addr:street" v="Boldog Sándor István körút"/>
    <tag k="brand" v="Rossmann"/>
    <tag k="facebook" v="https://www.facebook.com/Rossmann.hu"/>
    <tag k="import" v="osm_poi_matchmaker"/>
    <tag k="instagram" v="https://www.instagram.com/rossmann_hu"/>
    <tag k="name" v="Rossmann"/>
    <tag k="opening_hours" v="Mo-Fr 08:00-19:00; Sa 08:00-14:00; PH off"/>
    <tag k="operator" v="Rossmann Magyarország Kft."/>
    <tag k="payment:cash" v="yes"/>
    <tag k="payment:debit_cards" v="yes"/>
    <tag k="shop" v="chemist"/>
    <tag k="source" v="website"/>
    <tag k="source:date" v="2018-07-30"/>
    <tag k="toilets:wheelchair" v="no"/>
    <tag k="website" v="https://www.rossmann.hu"/>
    <tag k="wheelchair" v="yes"/>
    <tag k="youtube" v="https://www.youtube.com/channel/UCmUCPmvMLL3IaXRBtx7-J7Q"/>
  </node>
  <!-- OSM link: https://osm.org/node/3177333065 -->
  <!-- Original coordinates: POINT (47.231297 16.622913) -->
  <!-- OSM <-> POI distance: 19.9928188 m-->
  <!-- Checker good: {not_in_water}; bad {}-->
  <!-- Original tags: 'addr:city':'Szombathely'; 'addr:housenumber':'22'; 'addr:postcode':'9700'; 'addr:street':'Fő tér'; 'name':'Rossmann'; 'opening_hours':'Mo-Fr 08:00-19:00; Sa 08:00-15:00'; 'shop':'chemist'; 'wheelchair':'yes';  -->
  <node action="modify" changeset="1" id="3177333065" lat="47.2312636949224" lon="16.6226527976861" timestamp="2016-12-30T13:40:08Z" uid="4579407" user="KAMI" version="4">
    <tag k="addr:city" v="Szombathely"/>
    <tag k="addr:country" v="HU"/>
    <tag k="addr:housenumber" v="23"/>
    <tag k="addr:postcode" v="9700"/>
    <tag k="addr:street" v="Fő tér"/>
    <tag k="brand" v="Rossmann"/>
    <tag k="facebook" v="https://www.facebook.com/Rossmann.hu"/>
    <tag k="import" v="osm_poi_matchmaker"/>
    <tag k="instagram" v="https://www.instagram.com/rossmann_hu"/>
    <tag k="name" v="Rossmann"/>
    <tag k="opening_hours" v="Mo-Fr 08:00-19:00; Sa 08:00-15:00; PH off"/>
    <tag k="operator" v="Rossmann Magyarország Kft."/>
    <tag k="payment:cash" v="yes"/>
    <tag k="payment:debit_cards" v="yes"/>
    <tag k="shop" v="chemist"/>
    <tag k="source" v="website"/>
    <tag k="source:date" v="2018-07-30"/>
    <tag k="website" v="https://www.rossmann.hu"/>
    <tag k="wheelchair" v="yes"/>
    <tag k="youtube" v="https://www.youtube.com/channel/UCmUCPmvMLL3IaXRBtx7-J7Q"/>
  </node>
  <!-- OSM link: https://osm.org/way/285803230 -->
  <!-- Original coordinates: POINT (47.751331 19.078293) -->
  <!-- OSM <-> POI distance: 17.96515782 m-->
  <!-- Checker good: {not_in_water}; bad {}-->
  <!-- Original tags: 'addr:city':'Tahitótfalu'; 'addr:housenumber':'5-15'; 'addr:postcode':'2022'; 'addr:street':'Szentendrei út'; 'building':'yes'; 'name':'Rossmann'; 'shop':'chemist'; 'wheelchair':'yes';  -->
  <way action="modify" changeset="1" id="285803230" timestamp="2017-09-12T08:05:05Z" uid="4579407" user="KAMI" version="7">
    <nd ref="2894324326"/>
    <nd ref="2894324325"/>
    <nd ref="5002210267"/>
    <nd ref="4991216212"/>
    <nd ref="4991093995"/>
    <nd ref="2894324328"/>
    <nd ref="2894324326"/>
    <tag k="addr:city" v="Tahitótfalu"/>
    <tag k="addr:country" v="HU"/>
    <tag k="addr:housenumber" v="5-15"/>
    <tag k="addr:postcode" v="2022"/>
    <tag k="addr:street" v="Szentendrei út"/>
    <tag k="brand" v="Rossmann"/>
    <tag k="building" v="yes"/>
    <tag k="facebook" v="https://www.facebook.com/Rossmann.hu"/>
    <tag k="import" v="osm_poi_matchmaker"/>
    <tag k="instagram" v="https://www.instagram.com/rossmann_hu"/>
    <tag k="name" v="Rossmann"/>
    <tag k="opening_hours" v="Mo-Fr 08:00-19:00; Sa 08:00-16:00; PH off"/>
    <tag k="operator" v="Rossmann Magyarország Kft."/>
    <tag k="payment:cash" v="yes"/>
    <tag k="payment:debit_cards" v="yes"/>
    <tag k="shop" v="chemist"/>
    <tag k="source" v="website"/>
    <tag k="source:date" v="2018-07-30"/>
    <tag k="website" v="https://www.rossmann.hu"/>
    <tag k="wheelchair" v="yes"/>
    <tag k="youtube" v="https://www.youtube.com/channel/UCmUCPmvMLL3IaXRBtx7-J7Q"/>
  </way>
  <!-- OSM link: https://osm.org/node/4008274659 -->
  <!-- Original coordinates: POINT (46.882556 17.439465) -->
  <!-- OSM <-> POI distance: 53.60028547 m-->
  <!-- Checker good: {not_in_water}; bad {}-->
  <!-- Original tags: 'name':'Rossmann'; 'shop':'chemist';  -->
  <node action="modify" changeset="1" id="4008274659" lat="46.8824415949378" lon="17.4387798975725" timestamp="2016-02-15T21:30:48Z" uid="4579407" user="KAMI" version="1">
    <tag k="addr:city" v="Tapolca"/>
    <tag k="addr:country" v="HU"/>
    <tag k="addr:housenumber" v="2-4"/>
    <tag k="addr:postcode" v="8300"/>
    <tag k="addr:street" v="Deák Ferenc utca"/>
    <tag k="brand" v="Rossmann"/>
    <tag k="facebook" v="https://www.facebook.com/Rossmann.hu"/>
    <tag k="import" v="osm_poi_matchmaker"/>
    <tag k="instagram" v="https://www.instagram.com/rossmann_hu"/>
    <tag k="name" v="Rossmann"/>
    <tag k="opening_hours" v="Mo-Fr 08:00-18:00; Sa 08:00-14:00; PH off"/>
    <tag k="operator" v="Rossmann Magyarország Kft."/>
    <tag k="payment:cash" v="yes"/>
    <tag k="payment:debit_cards" v="yes"/>
    <tag k="shop" v="chemist"/>
    <tag k="source" v="website"/>
    <tag k="source:date" v="2018-07-30"/>
    <tag k="website" v="https://www.rossmann.hu"/>
    <tag k="youtube" v="https://www.youtube.com/channel/UCmUCPmvMLL3IaXRBtx7-J7Q"/>
  </node>
  <!-- Original coordinates: POINT (47.651231 18.324779) -->
  <!-- OSM <-> POI distance: None m-->
  <!-- Checker good: {not_in_water}; bad {}-->
  <!-- Original tags:  -->
  <node action="modify" changeset="99999" id="-110" lat="47.651231" lon="18.324779" timestamp="" uid="4579407" user="KAMI" version="99999">
    <tag k="addr:city" v="Tata"/>
    <tag k="addr:country" v="HU"/>
    <tag k="addr:housenumber" v="3"/>
    <tag k="addr:postcode" v="2890"/>
    <tag k="addr:street" v="Ady Endre út"/>
    <tag k="brand" v="Rossmann"/>
    <tag k="facebook" v="https://www.facebook.com/Rossmann.hu"/>
    <tag k="import" v="osm_poi_matchmaker"/>
    <tag k="instagram" v="https://www.instagram.com/rossmann_hu"/>
    <tag k="name" v="Rossmann"/>
    <tag k="opening_hours" v="Mo-Fr 08:00-19:00; Sa 08:00-14:00; PH off"/>
    <tag k="operator" v="Rossmann Magyarország Kft."/>
    <tag k="payment:cash" v="yes"/>
    <tag k="payment:debit_cards" v="yes"/>
    <tag k="shop" v="chemist"/>
    <tag k="source" v="website"/>
    <tag k="source:date" v="2018-07-30"/>
    <tag k="website" v="https://www.rossmann.hu"/>
    <tag k="youtube" v="https://www.youtube.com/channel/UCmUCPmvMLL3IaXRBtx7-J7Q"/>
  </node>
  <!-- Original coordinates: POINT (47.584767 18.397651) -->
  <!-- OSM <-> POI distance: None m-->
  <!-- Checker good: {not_in_water}; bad {}-->
  <!-- Original tags:  -->
  <node action="modify" changeset="99999" id="-111" lat="47.584767" lon="18.397651" timestamp="" uid="4579407" user="KAMI" version="99999">
    <tag k="addr:city" v="Tatabánya"/>
    <tag k="addr:country" v="HU"/>
    <tag k="addr:housenumber" v="10"/>
    <tag k="addr:postcode" v="2800"/>
    <tag k="addr:street" v="Fő tér"/>
    <tag k="brand" v="Rossmann"/>
    <tag k="facebook" v="https://www.facebook.com/Rossmann.hu"/>
    <tag k="import" v="osm_poi_matchmaker"/>
    <tag k="instagram" v="https://www.instagram.com/rossmann_hu"/>
    <tag k="name" v="Rossmann"/>
    <tag k="opening_hours" v="Mo-Fr 08:00-19:00; Sa 08:00-15:00; PH off"/>
    <tag k="operator" v="Rossmann Magyarország Kft."/>
    <tag k="payment:cash" v="yes"/>
    <tag k="payment:debit_cards" v="yes"/>
    <tag k="shop" v="chemist"/>
    <tag k="source" v="website"/>
    <tag k="source:date" v="2018-07-30"/>
    <tag k="website" v="https://www.rossmann.hu"/>
    <tag k="youtube" v="https://www.youtube.com/channel/UCmUCPmvMLL3IaXRBtx7-J7Q"/>
  </node>
  <!-- OSM link: https://osm.org/node/3342609682 -->
  <!-- Original coordinates: POINT (47.61785 20.75761) -->
  <!-- OSM <-> POI distance: 27.07983718 m-->
  <!-- Checker good: {not_in_water}; bad {}-->
  <!-- Original tags: 'name':'Rossmann'; 'shop':'chemist'; 'wheelchair':'yes';  -->
  <node action="modify" changeset="1" id="3342609682" lat="47.6180611949059" lon="20.7574300971105" timestamp="2015-12-06T17:13:26Z" uid="4579407" user="KAMI" version="2">
    <tag k="addr:city" v="Tiszafüred"/>
    <tag k="addr:country" v="HU"/>
    <tag k="addr:housenumber" v="35"/>
    <tag k="addr:postcode" v="5350"/>
    <tag k="addr:street" v="Fő út"/>
    <tag k="brand" v="Rossmann"/>
    <tag k="facebook" v="https://www.facebook.com/Rossmann.hu"/>
    <tag k="import" v="osm_poi_matchmaker"/>
    <tag k="instagram" v="https://www.instagram.com/rossmann_hu"/>
    <tag k="name" v="Rossmann"/>
    <tag k="opening_hours" v="Mo-Fr 08:00-18:00; Sa 08:00-14:00; PH off"/>
    <tag k="operator" v="Rossmann Magyarország Kft."/>
    <tag k="payment:cash" v="yes"/>
    <tag k="payment:debit_cards" v="yes"/>
    <tag k="shop" v="chemist"/>
    <tag k="source" v="website"/>
    <tag k="source:date" v="2018-07-30"/>
    <tag k="website" v="https://www.rossmann.hu"/>
    <tag k="wheelchair" v="yes"/>
    <tag k="youtube" v="https://www.youtube.com/channel/UCmUCPmvMLL3IaXRBtx7-J7Q"/>
  </node>
  <!-- OSM link: https://osm.org/node/3222516598 -->
  <!-- Original coordinates: POINT (47.931258 21.033814) -->
  <!-- OSM <-> POI distance: 100.31116534 m-->
  <!-- Checker good: {not_in_water}; bad {}-->
  <!-- Original tags: 'addr:city':'Tiszaújváros'; 'addr:housenumber':'11/b'; 'addr:postcode':'3580'; 'addr:street':'Szent István út'; 'name':'Rossmann'; 'opening_hours':'Mo-Fr 08:00-18:00;Su 08:00-13:00'; 'shop':'chemist'; 'wheelchair':'yes';  -->
  <node action="modify" changeset="1" id="3222516598" lat="47.932138394893" lon="21.034107697072" timestamp="2015-12-06T17:09:53Z" uid="4579407" user="KAMI" version="2">
    <tag k="addr:city" v="Tiszaújváros"/>
    <tag k="addr:country" v="HU"/>
    <tag k="addr:housenumber" v="11/B"/>
    <tag k="addr:postcode" v="3580"/>
    <tag k="addr:street" v="Szent István út"/>
    <tag k="brand" v="Rossmann"/>
    <tag k="facebook" v="https://www.facebook.com/Rossmann.hu"/>
    <tag k="import" v="osm_poi_matchmaker"/>
    <tag k="instagram" v="https://www.instagram.com/rossmann_hu"/>
    <tag k="name" v="Rossmann"/>
    <tag k="opening_hours" v="Mo-Fr 08:00-18:00; Sa 08:00-14:00; PH off"/>
    <tag k="operator" v="Rossmann Magyarország Kft."/>
    <tag k="payment:cash" v="yes"/>
    <tag k="payment:debit_cards" v="yes"/>
    <tag k="shop" v="chemist"/>
    <tag k="source" v="website"/>
    <tag k="source:date" v="2018-07-30"/>
    <tag k="website" v="https://www.rossmann.hu"/>
    <tag k="wheelchair" v="yes"/>
    <tag k="youtube" v="https://www.youtube.com/channel/UCmUCPmvMLL3IaXRBtx7-J7Q"/>
  </node>
  <!-- OSM link: https://osm.org/way/231276196 -->
  <!-- Original coordinates: POINT (47.956283 21.358313) -->
  <!-- OSM <-> POI distance: 3.9732773 m-->
  <!-- Checker good: {not_in_water}; bad {}-->
  <!-- Original tags: 'building':'yes'; 'name':'Rossmann'; 'shop':'chemist'; 'wheelchair':'yes';  -->
  <way action="modify" changeset="1" id="231276196" timestamp="2017-10-02T11:39:40Z" uid="4579407" user="KAMI" version="3">
    <nd ref="2396799349"/>
    <nd ref="2396799353"/>
    <nd ref="2396799355"/>
    <nd ref="2396799351"/>
    <nd ref="2396799349"/>
    <tag k="addr:city" v="Tiszavasvári"/>
    <tag k="addr:country" v="HU"/>
    <tag k="addr:postcode" v="4440"/>
    <tag k="brand" v="Rossmann"/>
    <tag k="building" v="yes"/>
    <tag k="facebook" v="https://www.facebook.com/Rossmann.hu"/>
    <tag k="import" v="osm_poi_matchmaker"/>
    <tag k="instagram" v="https://www.instagram.com/rossmann_hu"/>
    <tag k="name" v="Rossmann"/>
    <tag k="opening_hours" v="Mo-Fr 08:00-18:00; Sa 08:00-13:00; PH off"/>
    <tag k="operator" v="Rossmann Magyarország Kft."/>
    <tag k="payment:cash" v="yes"/>
    <tag k="payment:debit_cards" v="yes"/>
    <tag k="shop" v="chemist"/>
    <tag k="source" v="website"/>
    <tag k="source:date" v="2018-07-30"/>
    <tag k="website" v="https://www.rossmann.hu"/>
    <tag k="wheelchair" v="yes"/>
    <tag k="youtube" v="https://www.youtube.com/channel/UCmUCPmvMLL3IaXRBtx7-J7Q"/>
  </way>
  <!-- Original coordinates: POINT (47.179109 20.41112) -->
  <!-- OSM <-> POI distance: None m-->
  <!-- Checker good: {not_in_water}; bad {}-->
  <!-- Original tags:  -->
  <node action="modify" changeset="99999" id="-115" lat="47.179109" lon="20.41112" timestamp="" uid="4579407" user="KAMI" version="99999">
    <tag k="addr:city" v="Törökszentmiklós"/>
    <tag k="addr:country" v="HU"/>
    <tag k="addr:housenumber" v="118"/>
    <tag k="addr:postcode" v="5200"/>
    <tag k="addr:street" v="Kossuth utca"/>
    <tag k="brand" v="Rossmann"/>
    <tag k="facebook" v="https://www.facebook.com/Rossmann.hu"/>
    <tag k="import" v="osm_poi_matchmaker"/>
    <tag k="instagram" v="https://www.instagram.com/rossmann_hu"/>
    <tag k="name" v="Rossmann"/>
    <tag k="opening_hours" v="Mo-Fr 08:00-19:00; Sa 08:00-15:00; PH off"/>
    <tag k="operator" v="Rossmann Magyarország Kft."/>
    <tag k="payment:cash" v="yes"/>
    <tag k="payment:debit_cards" v="yes"/>
    <tag k="shop" v="chemist"/>
    <tag k="source" v="website"/>
    <tag k="source:date" v="2018-07-30"/>
    <tag k="website" v="https://www.rossmann.hu"/>
    <tag k="youtube" v="https://www.youtube.com/channel/UCmUCPmvMLL3IaXRBtx7-J7Q"/>
  </node>
  <!-- Original coordinates: POINT (47.102191 20.743537) -->
  <!-- OSM <-> POI distance: None m-->
  <!-- Checker good: {not_in_water}; bad {}-->
  <!-- Original tags:  -->
  <node action="modify" changeset="99999" id="-116" lat="47.102191" lon="20.743537" timestamp="" uid="4579407" user="KAMI" version="99999">
    <tag k="addr:city" v="Túrkeve"/>
    <tag k="addr:country" v="HU"/>
    <tag k="addr:housenumber" v="34"/>
    <tag k="addr:postcode" v="5420"/>
    <tag k="addr:street" v="Széchenyi utca"/>
    <tag k="brand" v="Rossmann"/>
    <tag k="facebook" v="https://www.facebook.com/Rossmann.hu"/>
    <tag k="import" v="osm_poi_matchmaker"/>
    <tag k="instagram" v="https://www.instagram.com/rossmann_hu"/>
    <tag k="name" v="Rossmann"/>
    <tag k="opening_hours" v="Mo-Fr 08:00-18:00; Sa 08:00-13:00; PH off"/>
    <tag k="operator" v="Rossmann Magyarország Kft."/>
    <tag k="payment:cash" v="yes"/>
    <tag k="payment:debit_cards" v="yes"/>
    <tag k="shop" v="chemist"/>
    <tag k="source" v="website"/>
    <tag k="source:date" v="2018-07-30"/>
    <tag k="website" v="https://www.rossmann.hu"/>
    <tag k="youtube" v="https://www.youtube.com/channel/UCmUCPmvMLL3IaXRBtx7-J7Q"/>
  </node>
  <!-- Original coordinates: POINT (47.385285 19.345769) -->
  <!-- OSM <-> POI distance: None m-->
  <!-- Checker good: {not_in_water}; bad {}-->
  <!-- Original tags:  -->
  <node action="modify" changeset="99999" id="-117" lat="47.385285" lon="19.345769" timestamp="" uid="4579407" user="KAMI" version="99999">
    <tag k="addr:city" v="Üllő"/>
    <tag k="addr:country" v="HU"/>
    <tag k="addr:housenumber" v="100"/>
    <tag k="addr:postcode" v="2225"/>
    <tag k="addr:street" v="Pesti út"/>
    <tag k="brand" v="Rossmann"/>
    <tag k="facebook" v="https://www.facebook.com/Rossmann.hu"/>
    <tag k="import" v="osm_poi_matchmaker"/>
    <tag k="instagram" v="https://www.instagram.com/rossmann_hu"/>
    <tag k="name" v="Rossmann"/>
    <tag k="opening_hours" v="Mo-Fr 08:00-18:00; Sa 08:00-13:00; PH off"/>
    <tag k="operator" v="Rossmann Magyarország Kft."/>
    <tag k="payment:cash" v="yes"/>
    <tag k="payment:debit_cards" v="yes"/>
    <tag k="shop" v="chemist"/>
    <tag k="source" v="website"/>
    <tag k="source:date" v="2018-07-30"/>
    <tag k="website" v="https://www.rossmann.hu"/>
    <tag k="youtube" v="https://www.youtube.com/channel/UCmUCPmvMLL3IaXRBtx7-J7Q"/>
  </node>
  <!-- OSM link: https://osm.org/node/3068385146 -->
  <!-- Original coordinates: POINT (47.778955 19.128908) -->
  <!-- OSM <-> POI distance: 11.25204111 m-->
  <!-- Checker good: {not_in_water}; bad {}-->
  <!-- Original tags: 'brand':'Rossmann'; 'name':'Rossmann'; 'shop':'chemist'; 'source':'survey'; 'source:wheelchair':'jarhato.hu'; 'wheelchair':'yes';  -->
  <node action="modify" changeset="1" id="3068385146" lat="47.7790097948992" lon="19.1290345973372" timestamp="2014-09-10T19:41:39Z" uid="4579407" user="KAMI" version="2">
    <tag k="addr:city" v="Vác"/>
    <tag k="addr:country" v="HU"/>
    <tag k="addr:housenumber" v="7"/>
    <tag k="addr:postcode" v="2600"/>
    <tag k="addr:street" v="Széchenyi út"/>
    <tag k="brand" v="Rossmann"/>
    <tag k="facebook" v="https://www.facebook.com/Rossmann.hu"/>
    <tag k="import" v="osm_poi_matchmaker"/>
    <tag k="instagram" v="https://www.instagram.com/rossmann_hu"/>
    <tag k="name" v="Rossmann"/>
    <tag k="opening_hours" v="Mo-Fr 08:00-19:00; Sa 08:00-16:00; PH off"/>
    <tag k="operator" v="Rossmann Magyarország Kft."/>
    <tag k="payment:cash" v="yes"/>
    <tag k="payment:debit_cards" v="yes"/>
    <tag k="shop" v="chemist"/>
    <tag k="source" v="website"/>
    <tag k="source:date" v="2018-07-30"/>
    <tag k="source:wheelchair" v="jarhato.hu"/>
    <tag k="website" v="https://www.rossmann.hu"/>
    <tag k="wheelchair" v="yes"/>
    <tag k="youtube" v="https://www.youtube.com/channel/UCmUCPmvMLL3IaXRBtx7-J7Q"/>
  </node>
  <!-- Original coordinates: POINT (47.234792 18.658885) -->
  <!-- OSM <-> POI distance: None m-->
  <!-- Checker good: {not_in_water}; bad {}-->
  <!-- Original tags:  -->
  <node action="modify" changeset="99999" id="-119" lat="47.234792" lon="18.658885" timestamp="" uid="4579407" user="KAMI" version="99999">
    <tag k="addr:city" v="Velence"/>
    <tag k="addr:country" v="HU"/>
    <tag k="addr:housenumber" v="47"/>
    <tag k="addr:postcode" v="2481"/>
    <tag k="addr:street" v="Tópart utca"/>
    <tag k="brand" v="Rossmann"/>
    <tag k="facebook" v="https://www.facebook.com/Rossmann.hu"/>
    <tag k="import" v="osm_poi_matchmaker"/>
    <tag k="instagram" v="https://www.instagram.com/rossmann_hu"/>
    <tag k="name" v="Rossmann"/>
    <tag k="opening_hours" v="Mo-Fr 08:00-20:00; Sa 08:00-18:00; Su 10:00-18:00; PH off"/>
    <tag k="operator" v="Rossmann Magyarország Kft."/>
    <tag k="payment:cash" v="yes"/>
    <tag k="payment:debit_cards" v="yes"/>
    <tag k="shop" v="chemist"/>
    <tag k="source" v="website"/>
    <tag k="source:date" v="2018-07-30"/>
    <tag k="website" v="https://www.rossmann.hu"/>
    <tag k="youtube" v="https://www.youtube.com/channel/UCmUCPmvMLL3IaXRBtx7-J7Q"/>
  </node>
  <!-- OSM link: https://osm.org/node/4282018652 -->
  <!-- Original coordinates: POINT (47.65797 19.269594) -->
  <!-- OSM <-> POI distance: 54.5646619 m-->
  <!-- Checker good: {not_in_water}; bad {}-->
  <!-- Original tags: 'addr:city':'Veresegyház'; 'addr:country':'HU'; 'addr:housenumber':'1'; 'addr:postcode':'2112'; 'addr:street':'Erkel Ferenc tér'; 'name':'Rossmann'; 'opening_hours':'Mo-Fr 08:00-20:00; Sa 08:00-15:00'; 'shop':'chemist'; 'wheelchair':'yes';  -->
  <node action="modify" changeset="1" id="4282018652" lat="47.6579494949042" lon="19.2688660973178" timestamp="2018-04-29T12:05:26Z" uid="4579407" user="KAMI" version="5">
    <tag k="addr:city" v="Veresegyház"/>
    <tag k="addr:country" v="HU"/>
    <tag k="addr:housenumber" v="1"/>
    <tag k="addr:postcode" v="2112"/>
    <tag k="addr:street" v="Erkel Ferenc tér"/>
    <tag k="brand" v="Rossmann"/>
    <tag k="facebook" v="https://www.facebook.com/Rossmann.hu"/>
    <tag k="import" v="osm_poi_matchmaker"/>
    <tag k="instagram" v="https://www.instagram.com/rossmann_hu"/>
    <tag k="name" v="Rossmann"/>
    <tag k="opening_hours" v="Mo-Fr 08:00-20:00; Sa 08:00-15:00; PH off"/>
    <tag k="operator" v="Rossmann Magyarország Kft."/>
    <tag k="payment:cash" v="yes"/>
    <tag k="payment:debit_cards" v="yes"/>
    <tag k="shop" v="chemist"/>
    <tag k="source" v="website"/>
    <tag k="source:date" v="2018-07-30"/>
    <tag k="website" v="https://www.rossmann.hu"/>
    <tag k="wheelchair" v="yes"/>
    <tag k="youtube" v="https://www.youtube.com/channel/UCmUCPmvMLL3IaXRBtx7-J7Q"/>
  </node>
  <!-- Original coordinates: POINT (47.603564 18.38702) -->
  <!-- OSM <-> POI distance: None m-->
  <!-- Checker good: {not_in_water}; bad {}-->
  <!-- Original tags:  -->
  <node action="modify" changeset="99999" id="-121" lat="47.603564" lon="18.38702" timestamp="" uid="4579407" user="KAMI" version="99999">
    <tag k="addr:city" v="Vértesszőlős"/>
    <tag k="addr:country" v="HU"/>
    <tag k="addr:housenumber" v="1-3"/>
    <tag k="addr:postcode" v="2837"/>
    <tag k="addr:street" v="Határ út"/>
    <tag k="brand" v="Rossmann"/>
    <tag k="facebook" v="https://www.facebook.com/Rossmann.hu"/>
    <tag k="import" v="osm_poi_matchmaker"/>
    <tag k="instagram" v="https://www.instagram.com/rossmann_hu"/>
    <tag k="name" v="Rossmann"/>
    <tag k="opening_hours" v="Mo-Fr 09:00-19:00; Sa-Su 09:00-18:00; PH off"/>
    <tag k="operator" v="Rossmann Magyarország Kft."/>
    <tag k="payment:cash" v="yes"/>
    <tag k="payment:debit_cards" v="yes"/>
    <tag k="shop" v="chemist"/>
    <tag k="source" v="website"/>
    <tag k="source:date" v="2018-07-30"/>
    <tag k="website" v="https://www.rossmann.hu"/>
    <tag k="youtube" v="https://www.youtube.com/channel/UCmUCPmvMLL3IaXRBtx7-J7Q"/>
  </node>
  <!-- OSM link: https://osm.org/node/2231916236 -->
  <!-- Original coordinates: POINT (47.093038 17.910524) -->
  <!-- OSM <-> POI distance: 58.60113689 m-->
  <!-- Checker good: {not_in_water}; bad {}-->
  <!-- Original tags: 'level':'0'; 'name':'Rossmann'; 'opening_hours':'Mo-Fr 08:00-19:00; Sa 08:00-14:00'; 'shop':'chemist'; 'website':'http://www.rossmann.hu'; 'wheelchair':'yes';  -->
  <node action="modify" changeset="1" id="2231916236" lat="47.0930971949284" lon="17.9112931975067" timestamp="2017-08-13T16:36:54Z" uid="4579407" user="KAMI" version="5">
    <tag k="addr:city" v="Veszprém"/>
    <tag k="addr:country" v="HU"/>
    <tag k="addr:housenumber" v="6"/>
    <tag k="addr:postcode" v="8200"/>
    <tag k="addr:street" v="Kossuth Lajos utca"/>
    <tag k="brand" v="Rossmann"/>
    <tag k="facebook" v="https://www.facebook.com/Rossmann.hu"/>
    <tag k="import" v="osm_poi_matchmaker"/>
    <tag k="instagram" v="https://www.instagram.com/rossmann_hu"/>
    <tag k="level" v="0"/>
    <tag k="name" v="Rossmann"/>
    <tag k="opening_hours" v="Mo-Fr 08:00-19:00; Sa 08:00-15:00; PH off"/>
    <tag k="operator" v="Rossmann Magyarország Kft."/>
    <tag k="payment:cash" v="yes"/>
    <tag k="payment:debit_cards" v="yes"/>
    <tag k="shop" v="chemist"/>
    <tag k="source" v="website"/>
    <tag k="source:date" v="2018-07-30"/>
    <tag k="website" v="https://www.rossmann.hu"/>
    <tag k="wheelchair" v="yes"/>
    <tag k="youtube" v="https://www.youtube.com/channel/UCmUCPmvMLL3IaXRBtx7-J7Q"/>
  </node>
  <!-- OSM link: https://osm.org/node/4883616247 -->
  <!-- Original coordinates: POINT (46.843001 16.845709) -->
  <!-- OSM <-> POI distance: 23.92852138 m-->
  <!-- Checker good: {not_in_water}; bad {}-->
  <!-- Original tags: 'addr:city':'Zalaegerszeg'; 'addr:housenumber':'3'; 'addr:postcode':'8900'; 'addr:street':'Kossuth Lajos utca'; 'name':'Rossmann'; 'opening_hours':'Mo-Fr 08:00-19:00; Sa 08:00-16:00'; 'shop':'chemist';  -->
  <node action="modify" changeset="1" id="4883616247" lat="46.8432127949395" lon="16.8457646976551" timestamp="2018-05-14T12:15:35Z" uid="4579407" user="KAMI" version="3">
    <tag k="addr:city" v="Zalaegerszeg"/>
    <tag k="addr:country" v="HU"/>
    <tag k="addr:housenumber" v="3"/>
    <tag k="addr:postcode" v="8900"/>
    <tag k="addr:street" v="Kossuth Lajos út"/>
    <tag k="brand" v="Rossmann"/>
    <tag k="facebook" v="https://www.facebook.com/Rossmann.hu"/>
    <tag k="import" v="osm_poi_matchmaker"/>
    <tag k="instagram" v="https://www.instagram.com/rossmann_hu"/>
    <tag k="name" v="Rossmann"/>
    <tag k="opening_hours" v="Mo-Fr 08:00-19:00; Sa 08:00-16:00; PH off"/>
    <tag k="operator" v="Rossmann Magyarország Kft."/>
    <tag k="payment:cash" v="yes"/>
    <tag k="payment:debit_cards" v="yes"/>
    <tag k="shop" v="chemist"/>
    <tag k="source" v="website"/>
    <tag k="source:date" v="2018-07-30"/>
    <tag k="website" v="https://www.rossmann.hu"/>
    <tag k="youtube" v="https://www.youtube.com/channel/UCmUCPmvMLL3IaXRBtx7-J7Q"/>
  </node>
</osm>
