<?xml version='1.0' encoding='UTF-8'?>
<osm generator="JOSM" version="0.6">
  <!-- OSM link: https://osm.org/node/2743702804 -->
  <!-- Original coordinates: POINT (47.491297383232 19.05824303627) -->
  <!-- Original tags: 'amenity':'bicycle_rental'; 'capacity':'15'; 'name':'BUBI - Ferenciek tere'; 'network':'bubi'; 'payment:credit_cards':'yes'; 'ref':'0516'; 'source':'BKK-BuBi';  -->
  <node action="modify" changeset="1" id="2743702804" lat="47.4925363949112" lon="19.0565917973473" timestamp="2016-05-13T10:56:53Z" uid="4579407" user="KAMI" version="5">
    <tag k="addr:city" v="Budapest"/>
    <tag k="addr:country" v="HU"/>
    <tag k="addr:postcode" v="1053"/>
    <tag k="amenity" v="bicycle_rental"/>
    <tag k="branch" v="Károlyi utca"/>
    <tag k="brand" v="MOL Bubi"/>
    <tag k="capacity" v="15"/>
    <tag k="facebook" v="https://www.facebook.com/molbubi"/>
    <tag k="import" v="osm_poi_matchmaker"/>
    <tag k="name" v="MOL Bubi"/>
    <tag k="network" v="bubi"/>
    <tag k="opening_hours" v="24/7"/>
    <tag k="operator" v="BKK MOL Bubi"/>
    <tag k="payment:credit_cards" v="yes"/>
    <tag k="ref" v="0516"/>
    <tag k="source" v="website"/>
    <tag k="source:date" v="2018-07-15"/>
    <tag k="website" v="https://molbubi.bkk.hu"/>
    <tag k="youtube" v="https://www.youtube.com/user/bkkweb"/>
  </node>
  <!-- OSM link: https://osm.org/node/2743702986 -->
  <!-- Original coordinates: POINT (47.514237032226 19.076664447784) -->
  <!-- Original tags: 'amenity':'bicycle_rental'; 'capacity':'22'; 'name':'Hősök tere'; 'name:cs':'Náměstí Hrdinů'; 'name:de':'Heldenplatz'; 'name:en':'Heroes' Square'; 'name:es':'Plaza de los Héroes'; 'name:it':'Piazza degli Eroi'; 'name:ko':'영웅광장'; 'name:zh':'英雄广场'; 'network':'bubi'; 'payment:credit_cards':'yes'; 'ref':'0602'; 'source':'BKK-BuBi'; 'wheelchair':'yes';  -->
  <node action="modify" changeset="1" id="2743702986" lat="47.5142492949102" lon="19.0766214973445" timestamp="2018-04-21T00:04:50Z" uid="4579407" user="KAMI" version="7">
    <tag k="addr:city" v="Budapest"/>
    <tag k="addr:country" v="HU"/>
    <tag k="addr:postcode" v="1068"/>
    <tag k="amenity" v="bicycle_rental"/>
    <tag k="branch" v="Hősök tere"/>
    <tag k="brand" v="MOL Bubi"/>
    <tag k="capacity" v="22"/>
    <tag k="facebook" v="https://www.facebook.com/molbubi"/>
    <tag k="import" v="osm_poi_matchmaker"/>
    <tag k="name" v="MOL Bubi"/>
    <tag k="name:cs" v="Náměstí Hrdinů"/>
    <tag k="name:de" v="Heldenplatz"/>
    <tag k="name:en" v="Heroes' Square"/>
    <tag k="name:es" v="Plaza de los Héroes"/>
    <tag k="name:it" v="Piazza degli Eroi"/>
    <tag k="name:ko" v="영웅광장"/>
    <tag k="name:zh" v="英雄广场"/>
    <tag k="network" v="bubi"/>
    <tag k="opening_hours" v="24/7"/>
    <tag k="operator" v="BKK MOL Bubi"/>
    <tag k="payment:credit_cards" v="yes"/>
    <tag k="ref" v="0602"/>
    <tag k="source" v="website"/>
    <tag k="source:date" v="2018-07-15"/>
    <tag k="website" v="https://molbubi.bkk.hu"/>
    <tag k="wheelchair" v="yes"/>
    <tag k="youtube" v="https://www.youtube.com/user/bkkweb"/>
  </node>
  <!-- OSM link: https://osm.org/node/2743702976 -->
  <!-- Original coordinates: POINT (47.511265952484 19.057492017746) -->
  <!-- Original tags: 'amenity':'bicycle_rental'; 'capacity':'22'; 'name':'Nyugati pályaudvar'; 'name:de':'Westbahnhof'; 'network':'bubi'; 'payment:credit_cards':'yes'; 'ref':'0603'; 'source':'BKK-BuBi'; 'wheelchair':'yes';  -->
  <node action="modify" changeset="1" id="2743702976" lat="47.5112779949104" lon="19.0574481973472" timestamp="2018-06-01T20:17:31Z" uid="4579407" user="KAMI" version="7">
    <tag k="addr:city" v="Budapest"/>
    <tag k="addr:country" v="HU"/>
    <tag k="addr:postcode" v="1062"/>
    <tag k="amenity" v="bicycle_rental"/>
    <tag k="branch" v="Nyugati pályaudvar"/>
    <tag k="brand" v="MOL Bubi"/>
    <tag k="capacity" v="22"/>
    <tag k="facebook" v="https://www.facebook.com/molbubi"/>
    <tag k="import" v="osm_poi_matchmaker"/>
    <tag k="name" v="MOL Bubi"/>
    <tag k="name:de" v="Westbahnhof"/>
    <tag k="network" v="bubi"/>
    <tag k="opening_hours" v="24/7"/>
    <tag k="operator" v="BKK MOL Bubi"/>
    <tag k="payment:credit_cards" v="yes"/>
    <tag k="ref" v="0603"/>
    <tag k="source" v="website"/>
    <tag k="source:date" v="2018-07-15"/>
    <tag k="website" v="https://molbubi.bkk.hu"/>
    <tag k="wheelchair" v="yes"/>
    <tag k="youtube" v="https://www.youtube.com/user/bkkweb"/>
  </node>
  <!-- OSM link: https://osm.org/node/2743702958 -->
  <!-- Original coordinates: POINT (47.509294801892 19.069100618362) -->
  <!-- Original tags: 'amenity':'bicycle_rental'; 'capacity':'22'; 'name':'Kodály körönd'; 'network':'bubi'; 'payment:credit_cards':'no'; 'ref':'0604'; 'source':'BKK-BuBi'; 'wheelchair':'limited';  -->
  <node action="modify" changeset="1" id="2743702958" lat="47.5093901949104" lon="19.0691939973455" timestamp="2015-11-20T13:49:54Z" uid="4579407" user="KAMI" version="5">
    <tag k="addr:city" v="Budapest"/>
    <tag k="addr:country" v="HU"/>
    <tag k="addr:postcode" v="1063"/>
    <tag k="amenity" v="bicycle_rental"/>
    <tag k="branch" v="Kodály körönd"/>
    <tag k="brand" v="MOL Bubi"/>
    <tag k="capacity" v="22"/>
    <tag k="facebook" v="https://www.facebook.com/molbubi"/>
    <tag k="import" v="osm_poi_matchmaker"/>
    <tag k="name" v="MOL Bubi"/>
    <tag k="network" v="bubi"/>
    <tag k="opening_hours" v="24/7"/>
    <tag k="operator" v="BKK MOL Bubi"/>
    <tag k="payment:credit_cards" v="yes"/>
    <tag k="ref" v="0604"/>
    <tag k="source" v="website"/>
    <tag k="source:date" v="2018-07-15"/>
    <tag k="website" v="https://molbubi.bkk.hu"/>
    <tag k="wheelchair" v="limited"/>
    <tag k="youtube" v="https://www.youtube.com/user/bkkweb"/>
  </node>
  <!-- OSM link: https://osm.org/node/2743702945 -->
  <!-- Original coordinates: POINT (47.50774391814 19.059551954269) -->
  <!-- Original tags: 'amenity':'bicycle_rental'; 'capacity':'22'; 'name':'Teréz körút - Szondi utca'; 'network':'bubi'; 'payment:credit_cards':'no'; 'ref':'0605'; 'source':'BKK-BuBi';  -->
  <node action="modify" changeset="1" id="2743702945" lat="47.5077699949105" lon="19.0595322973469" timestamp="2014-09-12T08:12:12Z" uid="4579407" user="KAMI" version="3">
    <tag k="addr:city" v="Budapest"/>
    <tag k="addr:country" v="HU"/>
    <tag k="addr:postcode" v="1066"/>
    <tag k="amenity" v="bicycle_rental"/>
    <tag k="branch" v="Teréz körút"/>
    <tag k="brand" v="MOL Bubi"/>
    <tag k="capacity" v="22"/>
    <tag k="facebook" v="https://www.facebook.com/molbubi"/>
    <tag k="import" v="osm_poi_matchmaker"/>
    <tag k="name" v="MOL Bubi"/>
    <tag k="network" v="bubi"/>
    <tag k="opening_hours" v="24/7"/>
    <tag k="operator" v="BKK MOL Bubi"/>
    <tag k="payment:credit_cards" v="yes"/>
    <tag k="ref" v="0605"/>
    <tag k="source" v="website"/>
    <tag k="source:date" v="2018-07-15"/>
    <tag k="website" v="https://molbubi.bkk.hu"/>
    <tag k="youtube" v="https://www.youtube.com/user/bkkweb"/>
  </node>
  <!-- OSM link: https://osm.org/node/2743702921 -->
  <!-- Original coordinates: POINT (47.505758140268 19.063832759857) -->
  <!-- Original tags: 'amenity':'bicycle_rental'; 'capacity':'30'; 'name':'Oktogon'; 'network':'bubi'; 'payment:credit_cards':'yes'; 'ref':'0607'; 'source':'BKK-BuBi';  -->
  <node action="modify" changeset="1" id="2743702921" lat="47.5058649949106" lon="19.0639479973463" timestamp="2014-09-12T08:12:10Z" uid="4579407" user="KAMI" version="3">
    <tag k="addr:city" v="Budapest"/>
    <tag k="addr:country" v="HU"/>
    <tag k="addr:postcode" v="1067"/>
    <tag k="amenity" v="bicycle_rental"/>
    <tag k="branch" v="Oktogon"/>
    <tag k="brand" v="MOL Bubi"/>
    <tag k="capacity" v="30"/>
    <tag k="facebook" v="https://www.facebook.com/molbubi"/>
    <tag k="import" v="osm_poi_matchmaker"/>
    <tag k="name" v="MOL Bubi"/>
    <tag k="network" v="bubi"/>
    <tag k="opening_hours" v="24/7"/>
    <tag k="operator" v="BKK MOL Bubi"/>
    <tag k="payment:credit_cards" v="yes"/>
    <tag k="ref" v="0607"/>
    <tag k="source" v="website"/>
    <tag k="source:date" v="2018-07-15"/>
    <tag k="website" v="https://molbubi.bkk.hu"/>
    <tag k="youtube" v="https://www.youtube.com/user/bkkweb"/>
  </node>
  <!-- OSM link: https://osm.org/node/2743702886 -->
  <!-- Original coordinates: POINT (47.500688268092 19.056724905968) -->
  <!-- Original tags: 'amenity':'bicycle_rental'; 'capacity':'15'; 'name':'Andrássy út - Káldy Gyula utca'; 'network':'bubi'; 'payment:credit_cards':'no'; 'ref':'0610'; 'source':'BKK-BuBi';  -->
  <node action="modify" changeset="1" id="2743702886" lat="47.5007279949108" lon="19.0567897973473" timestamp="2014-09-12T08:12:05Z" uid="4579407" user="KAMI" version="3">
    <tag k="addr:city" v="Budapest"/>
    <tag k="addr:country" v="HU"/>
    <tag k="addr:postcode" v="1061"/>
    <tag k="amenity" v="bicycle_rental"/>
    <tag k="branch" v="Andrássy út"/>
    <tag k="brand" v="MOL Bubi"/>
    <tag k="capacity" v="15"/>
    <tag k="facebook" v="https://www.facebook.com/molbubi"/>
    <tag k="import" v="osm_poi_matchmaker"/>
    <tag k="name" v="MOL Bubi"/>
    <tag k="network" v="bubi"/>
    <tag k="opening_hours" v="24/7"/>
    <tag k="operator" v="BKK MOL Bubi"/>
    <tag k="payment:credit_cards" v="yes"/>
    <tag k="ref" v="0610"/>
    <tag k="source" v="website"/>
    <tag k="source:date" v="2018-07-15"/>
    <tag k="website" v="https://molbubi.bkk.hu"/>
    <tag k="youtube" v="https://www.youtube.com/user/bkkweb"/>
  </node>
  <!-- OSM link: https://osm.org/node/2743702961 -->
  <!-- Original coordinates: POINT (47.509675268709 19.055308699608) -->
  <!-- Original tags: 'amenity':'bicycle_rental'; 'capacity':'30'; 'name':'Nyugati tér'; 'network':'bubi'; 'operator':'BKK'; 'payment:credit_cards':'yes'; 'ref':'0611'; 'source':'BKK-BuBi;BKK FUTÁR App'; 'wheelchair':'yes';  -->
  <node action="modify" changeset="1" id="2743702961" lat="47.5096907949104" lon="19.0552954973475" timestamp="2017-07-08T14:43:31Z" uid="4579407" user="KAMI" version="7">
    <tag k="addr:city" v="Budapest"/>
    <tag k="addr:country" v="HU"/>
    <tag k="addr:postcode" v="1065"/>
    <tag k="amenity" v="bicycle_rental"/>
    <tag k="branch" v="Nyugati tér"/>
    <tag k="brand" v="MOL Bubi"/>
    <tag k="capacity" v="30"/>
    <tag k="facebook" v="https://www.facebook.com/molbubi"/>
    <tag k="import" v="osm_poi_matchmaker"/>
    <tag k="name" v="MOL Bubi"/>
    <tag k="network" v="bubi"/>
    <tag k="opening_hours" v="24/7"/>
    <tag k="operator" v="BKK MOL Bubi"/>
    <tag k="payment:credit_cards" v="yes"/>
    <tag k="ref" v="0611"/>
    <tag k="source" v="website"/>
    <tag k="source:date" v="2018-07-15"/>
    <tag k="website" v="https://molbubi.bkk.hu"/>
    <tag k="wheelchair" v="yes"/>
    <tag k="youtube" v="https://www.youtube.com/user/bkkweb"/>
  </node>
  <!-- OSM link: https://osm.org/node/2743702951 -->
  <!-- Original coordinates: POINT (47.50791785131 19.08416390419) -->
  <!-- Original tags: 'amenity':'bicycle_rental'; 'capacity':'15'; 'name':'Dózsa György út - Dembinszky utca'; 'network':'bubi'; 'payment:credit_cards':'no'; 'ref':'0702'; 'source':'BKK-BuBi';  -->
  <node action="modify" changeset="1" id="2743702951" lat="47.5079569949105" lon="19.0841846973435" timestamp="2014-09-12T08:12:06Z" uid="4579407" user="KAMI" version="3">
    <tag k="addr:city" v="Budapest"/>
    <tag k="addr:country" v="HU"/>
    <tag k="addr:postcode" v="1071"/>
    <tag k="amenity" v="bicycle_rental"/>
    <tag k="branch" v="Dózsa György út"/>
    <tag k="brand" v="MOL Bubi"/>
    <tag k="capacity" v="15"/>
    <tag k="facebook" v="https://www.facebook.com/molbubi"/>
    <tag k="import" v="osm_poi_matchmaker"/>
    <tag k="name" v="MOL Bubi"/>
    <tag k="network" v="bubi"/>
    <tag k="opening_hours" v="24/7"/>
    <tag k="operator" v="BKK MOL Bubi"/>
    <tag k="payment:credit_cards" v="yes"/>
    <tag k="ref" v="0702"/>
    <tag k="source" v="website"/>
    <tag k="source:date" v="2018-07-15"/>
    <tag k="website" v="https://molbubi.bkk.hu"/>
    <tag k="youtube" v="https://www.youtube.com/user/bkkweb"/>
  </node>
  <!-- OSM link: https://osm.org/node/2743702919 -->
  <!-- Original coordinates: POINT (47.504489812167 19.085408449173) -->
  <!-- Original tags: 'amenity':'bicycle_rental'; 'capacity':'15'; 'name':'Garay tér'; 'network':'bubi'; 'payment:credit_cards':'no'; 'ref':'0703'; 'source':'BKK-BuBi';  -->
  <node action="modify" changeset="1" id="2743702919" lat="47.5044519949106" lon="19.0854322973433" timestamp="2018-01-26T11:50:39Z" uid="4579407" user="KAMI" version="4">
    <tag k="addr:city" v="Budapest"/>
    <tag k="addr:country" v="HU"/>
    <tag k="addr:postcode" v="1078"/>
    <tag k="amenity" v="bicycle_rental"/>
    <tag k="branch" v="Garay tér"/>
    <tag k="brand" v="MOL Bubi"/>
    <tag k="capacity" v="15"/>
    <tag k="facebook" v="https://www.facebook.com/molbubi"/>
    <tag k="import" v="osm_poi_matchmaker"/>
    <tag k="name" v="MOL Bubi"/>
    <tag k="network" v="bubi"/>
    <tag k="opening_hours" v="24/7"/>
    <tag k="operator" v="BKK MOL Bubi"/>
    <tag k="payment:credit_cards" v="yes"/>
    <tag k="ref" v="0703"/>
    <tag k="source" v="website"/>
    <tag k="source:date" v="2018-07-15"/>
    <tag k="website" v="https://molbubi.bkk.hu"/>
    <tag k="youtube" v="https://www.youtube.com/user/bkkweb"/>
  </node>
  <!-- OSM link: https://osm.org/node/2743702934 -->
  <!-- Original coordinates: POINT (47.506406787652 19.039172530174) -->
  <!-- Original tags: 'amenity':'bicycle_rental'; 'capacity':'28'; 'name':'Batthyány tér'; 'network':'bubi'; 'operator':'BKK'; 'payment:credit_cards':'yes'; 'ref':'0101'; 'source':'BKK FUTÁR app'; 'website':'https://molbubi.bkk.hu/';  -->
  <node action="modify" changeset="1" id="2743702934" lat="47.5064826949106" lon="19.0392898973497" timestamp="2017-11-13T02:02:18Z" uid="4579407" user="KAMI" version="8">
    <tag k="addr:city" v="Budapest"/>
    <tag k="addr:country" v="HU"/>
    <tag k="addr:postcode" v="1011"/>
    <tag k="amenity" v="bicycle_rental"/>
    <tag k="branch" v="Batthyány tér"/>
    <tag k="brand" v="MOL Bubi"/>
    <tag k="capacity" v="28"/>
    <tag k="facebook" v="https://www.facebook.com/molbubi"/>
    <tag k="import" v="osm_poi_matchmaker"/>
    <tag k="name" v="MOL Bubi"/>
    <tag k="network" v="bubi"/>
    <tag k="opening_hours" v="24/7"/>
    <tag k="operator" v="BKK MOL Bubi"/>
    <tag k="payment:credit_cards" v="yes"/>
    <tag k="ref" v="0101"/>
    <tag k="source" v="website"/>
    <tag k="source:date" v="2018-07-15"/>
    <tag k="website" v="https://molbubi.bkk.hu"/>
    <tag k="youtube" v="https://www.youtube.com/user/bkkweb"/>
  </node>
  <!-- OSM link: https://osm.org/node/2743702790 -->
  <!-- Original coordinates: POINT (47.491279259484 19.045116305351) -->
  <!-- Original tags: 'amenity':'bicycle_rental'; 'capacity':'22'; 'name':'Döbrentei tér'; 'network':'bubi'; 'payment:credit_cards':'no'; 'ref':'0104'; 'source':'BKK-BuBi';  -->
  <node action="modify" changeset="1" id="2743702790" lat="47.4913072949112" lon="19.0451200973489" timestamp="2014-09-12T08:12:06Z" uid="4579407" user="KAMI" version="4">
    <tag k="addr:city" v="Budapest"/>
    <tag k="addr:country" v="HU"/>
    <tag k="addr:postcode" v="1013"/>
    <tag k="amenity" v="bicycle_rental"/>
    <tag k="branch" v="Döbrentei tér"/>
    <tag k="brand" v="MOL Bubi"/>
    <tag k="capacity" v="22"/>
    <tag k="facebook" v="https://www.facebook.com/molbubi"/>
    <tag k="import" v="osm_poi_matchmaker"/>
    <tag k="name" v="MOL Bubi"/>
    <tag k="network" v="bubi"/>
    <tag k="opening_hours" v="24/7"/>
    <tag k="operator" v="BKK MOL Bubi"/>
    <tag k="payment:credit_cards" v="yes"/>
    <tag k="ref" v="0104"/>
    <tag k="source" v="website"/>
    <tag k="source:date" v="2018-07-15"/>
    <tag k="website" v="https://molbubi.bkk.hu"/>
    <tag k="youtube" v="https://www.youtube.com/user/bkkweb"/>
  </node>
  <!-- OSM link: https://osm.org/node/2743702970 -->
  <!-- Original coordinates: POINT (47.510374595761 19.034371376038) -->
  <!-- Original tags: 'amenity':'bicycle_rental'; 'capacity':'15'; 'name':'Horvát utca'; 'network':'bubi'; 'operator':'BKK'; 'payment:credit_cards':'no'; 'ref':'0202'; 'source':'BKK-BuBi';  -->
  <node action="modify" changeset="1" id="2743702970" lat="47.5104986949104" lon="19.0343631973504" timestamp="2018-06-11T12:32:34Z" uid="4579407" user="KAMI" version="6">
    <tag k="addr:city" v="Budapest"/>
    <tag k="addr:country" v="HU"/>
    <tag k="addr:postcode" v="1027"/>
    <tag k="amenity" v="bicycle_rental"/>
    <tag k="branch" v="Horvát utca"/>
    <tag k="brand" v="MOL Bubi"/>
    <tag k="capacity" v="15"/>
    <tag k="facebook" v="https://www.facebook.com/molbubi"/>
    <tag k="import" v="osm_poi_matchmaker"/>
    <tag k="name" v="MOL Bubi"/>
    <tag k="network" v="bubi"/>
    <tag k="opening_hours" v="24/7"/>
    <tag k="operator" v="BKK MOL Bubi"/>
    <tag k="payment:credit_cards" v="yes"/>
    <tag k="ref" v="0202"/>
    <tag k="source" v="website"/>
    <tag k="source:date" v="2018-07-15"/>
    <tag k="website" v="https://molbubi.bkk.hu"/>
    <tag k="youtube" v="https://www.youtube.com/user/bkkweb"/>
  </node>
  <!-- OSM link: https://osm.org/node/2743702992 -->
  <!-- Original coordinates: POINT (47.515001514559 19.039805531502) -->
  <!-- Original tags: 'amenity':'bicycle_rental'; 'capacity':'19'; 'name':'Margit híd - Buda'; 'network':'bubi'; 'payment:credit_cards':'yes'; 'ref':'0201'; 'source':'BKK-BuBi;BKK FUTÁR App';  -->
  <node action="modify" changeset="1" id="2743702992" lat="47.5149969949102" lon="19.0398291973496" timestamp="2017-06-27T10:55:41Z" uid="4579407" user="KAMI" version="4">
    <tag k="addr:city" v="Budapest"/>
    <tag k="addr:country" v="HU"/>
    <tag k="addr:postcode" v="1023"/>
    <tag k="amenity" v="bicycle_rental"/>
    <tag k="branch" v="Margit híd"/>
    <tag k="brand" v="MOL Bubi"/>
    <tag k="capacity" v="19"/>
    <tag k="facebook" v="https://www.facebook.com/molbubi"/>
    <tag k="import" v="osm_poi_matchmaker"/>
    <tag k="name" v="MOL Bubi"/>
    <tag k="network" v="bubi"/>
    <tag k="opening_hours" v="24/7"/>
    <tag k="operator" v="BKK MOL Bubi"/>
    <tag k="payment:credit_cards" v="yes"/>
    <tag k="ref" v="0201"/>
    <tag k="source" v="website"/>
    <tag k="source:date" v="2018-07-15"/>
    <tag k="website" v="https://molbubi.bkk.hu"/>
    <tag k="youtube" v="https://www.youtube.com/user/bkkweb"/>
  </node>
  <!-- OSM link: https://osm.org/node/2743702948 -->
  <!-- Original coordinates: POINT (47.507856250045 19.027065038681) -->
  <!-- Original tags: 'amenity':'bicycle_rental'; 'capacity':'22'; 'name':'Széna tér'; 'network':'bubi'; 'operator':'BKK'; 'payment:credit_cards':'yes'; 'ref':'0204'; 'source':'BKK-BuBi'; 'wheelchair':'yes';  -->
  <node action="modify" changeset="1" id="2743702948" lat="47.5078369949105" lon="19.0270597973514" timestamp="2017-05-20T15:31:51Z" uid="4579407" user="KAMI" version="7">
    <tag k="addr:city" v="Budapest"/>
    <tag k="addr:country" v="HU"/>
    <tag k="addr:postcode" v="0"/>
    <tag k="amenity" v="bicycle_rental"/>
    <tag k="branch" v="Széna tér"/>
    <tag k="brand" v="MOL Bubi"/>
    <tag k="capacity" v="22"/>
    <tag k="facebook" v="https://www.facebook.com/molbubi"/>
    <tag k="import" v="osm_poi_matchmaker"/>
    <tag k="name" v="MOL Bubi"/>
    <tag k="network" v="bubi"/>
    <tag k="opening_hours" v="24/7"/>
    <tag k="operator" v="BKK MOL Bubi"/>
    <tag k="payment:credit_cards" v="yes"/>
    <tag k="ref" v="0204"/>
    <tag k="source" v="website"/>
    <tag k="source:date" v="2018-07-15"/>
    <tag k="website" v="https://molbubi.bkk.hu"/>
    <tag k="wheelchair" v="yes"/>
    <tag k="youtube" v="https://www.youtube.com/user/bkkweb"/>
  </node>
  <!-- Original coordinates: POINT (47.508584589787 19.048211574554) -->
  <!-- Original tags:  -->
  <node action="modify" changeset="99999" id="-16" lat="47.508584589787" lon="19.048211574554" timestamp="" uid="4579407" user="KAMI" version="99999">
    <tag k="addr:city" v="Budapest"/>
    <tag k="addr:country" v="HU"/>
    <tag k="addr:postcode" v="1055"/>
    <tag k="amenity" v="bicycle_rental"/>
    <tag k="branch" v="Szalay utca"/>
    <tag k="brand" v="MOL Bubi"/>
    <tag k="facebook" v="https://www.facebook.com/molbubi"/>
    <tag k="import" v="osm_poi_matchmaker"/>
    <tag k="name" v="MOL Bubi"/>
    <tag k="network" v="bubi"/>
    <tag k="opening_hours" v="24/7"/>
    <tag k="operator" v="BKK MOL Bubi"/>
    <tag k="payment:credit_cards" v="yes"/>
    <tag k="source" v="website"/>
    <tag k="source:date" v="2018-07-15"/>
    <tag k="website" v="https://molbubi.bkk.hu"/>
    <tag k="youtube" v="https://www.youtube.com/user/bkkweb"/>
  </node>
  <!-- OSM link: https://osm.org/node/2743702938 -->
  <!-- Original coordinates: POINT (47.506943093402 19.054852724075) -->
  <!-- Original tags: 'amenity':'bicycle_rental'; 'capacity':'15'; 'name':'Bajcsy-Zsilinszky út - Kálmán Imre utca'; 'network':'bubi'; 'operator':'BKK'; 'payment:credit_cards':'no'; 'ref':'0503'; 'source':'BKK-BuBi;BKK FUTÁR App';  -->
  <node action="modify" changeset="1" id="2743702938" lat="47.5069669949105" lon="19.0548549973475" timestamp="2017-07-08T14:43:31Z" uid="4579407" user="KAMI" version="5">
    <tag k="addr:city" v="Budapest"/>
    <tag k="addr:country" v="HU"/>
    <tag k="addr:postcode" v="1054"/>
    <tag k="amenity" v="bicycle_rental"/>
    <tag k="branch" v="Bajcsy"/>
    <tag k="brand" v="MOL Bubi"/>
    <tag k="capacity" v="15"/>
    <tag k="facebook" v="https://www.facebook.com/molbubi"/>
    <tag k="import" v="osm_poi_matchmaker"/>
    <tag k="name" v="MOL Bubi"/>
    <tag k="network" v="bubi"/>
    <tag k="opening_hours" v="24/7"/>
    <tag k="operator" v="BKK MOL Bubi"/>
    <tag k="payment:credit_cards" v="yes"/>
    <tag k="ref" v="0503"/>
    <tag k="source" v="website"/>
    <tag k="source:date" v="2018-07-15"/>
    <tag k="website" v="https://molbubi.bkk.hu"/>
    <tag k="youtube" v="https://www.youtube.com/user/bkkweb"/>
  </node>
  <!-- OSM link: https://osm.org/node/2743702890 -->
  <!-- Original coordinates: POINT (47.500760750058 19.047240614891) -->
  <!-- Original tags: 'amenity':'bicycle_rental'; 'capacity':'15'; 'name':'Akadémia'; 'network':'bubi'; 'payment:credit_cards':'yes'; 'ref':'0507'; 'source':'BKK-BuBi';  -->
  <node action="modify" changeset="1" id="2743702890" lat="47.5007560949108" lon="19.0471443973486" timestamp="2016-02-22T17:45:43Z" uid="4579407" user="KAMI" version="4">
    <tag k="addr:city" v="Budapest"/>
    <tag k="addr:country" v="HU"/>
    <tag k="addr:postcode" v="1051"/>
    <tag k="amenity" v="bicycle_rental"/>
    <tag k="branch" v="Akadémia"/>
    <tag k="brand" v="MOL Bubi"/>
    <tag k="capacity" v="15"/>
    <tag k="facebook" v="https://www.facebook.com/molbubi"/>
    <tag k="import" v="osm_poi_matchmaker"/>
    <tag k="name" v="MOL Bubi"/>
    <tag k="network" v="bubi"/>
    <tag k="opening_hours" v="24/7"/>
    <tag k="operator" v="BKK MOL Bubi"/>
    <tag k="payment:credit_cards" v="yes"/>
    <tag k="ref" v="0507"/>
    <tag k="source" v="website"/>
    <tag k="source:date" v="2018-07-15"/>
    <tag k="website" v="https://molbubi.bkk.hu"/>
    <tag k="youtube" v="https://www.youtube.com/user/bkkweb"/>
  </node>
  <!-- OSM link: https://osm.org/node/2743702804 -->
  <!-- Original coordinates: POINT (47.494668291595 19.056129455566) -->
  <!-- Original tags: 'amenity':'bicycle_rental'; 'capacity':'15'; 'name':'BUBI - Ferenciek tere'; 'network':'bubi'; 'payment:credit_cards':'yes'; 'ref':'0516'; 'source':'BKK-BuBi';  -->
  <node action="modify" changeset="1" id="2743702804" lat="47.4925363949112" lon="19.0565917973473" timestamp="2016-05-13T10:56:53Z" uid="4579407" user="KAMI" version="5">
    <tag k="addr:city" v="Budapest"/>
    <tag k="addr:country" v="HU"/>
    <tag k="addr:postcode" v="1052"/>
    <tag k="amenity" v="bicycle_rental"/>
    <tag k="branch" v="Vitkovics Mihály utca"/>
    <tag k="brand" v="MOL Bubi"/>
    <tag k="capacity" v="15"/>
    <tag k="facebook" v="https://www.facebook.com/molbubi"/>
    <tag k="import" v="osm_poi_matchmaker"/>
    <tag k="name" v="MOL Bubi"/>
    <tag k="network" v="bubi"/>
    <tag k="opening_hours" v="24/7"/>
    <tag k="operator" v="BKK MOL Bubi"/>
    <tag k="payment:credit_cards" v="yes"/>
    <tag k="ref" v="0516"/>
    <tag k="source" v="website"/>
    <tag k="source:date" v="2018-07-15"/>
    <tag k="website" v="https://molbubi.bkk.hu"/>
    <tag k="youtube" v="https://www.youtube.com/user/bkkweb"/>
  </node>
  <!-- OSM link: https://osm.org/node/2743702797 -->
  <!-- Original coordinates: POINT (47.49165260743 19.052969813347) -->
  <!-- Original tags: 'amenity':'bicycle_rental'; 'capacity':'22'; 'name':'BUBI - Március 15. tér'; 'network':'bubi'; 'payment:credit_cards':'yes'; 'ref':'0513'; 'source':'BKK-BuBi';  -->
  <node action="modify" changeset="1" id="2743702797" lat="47.4916647949112" lon="19.0528994973478" timestamp="2016-05-13T10:57:22Z" uid="4579407" user="KAMI" version="5">
    <tag k="addr:city" v="Budapest"/>
    <tag k="addr:country" v="HU"/>
    <tag k="addr:postcode" v="1056"/>
    <tag k="amenity" v="bicycle_rental"/>
    <tag k="branch" v="Március 15. tér"/>
    <tag k="brand" v="MOL Bubi"/>
    <tag k="capacity" v="22"/>
    <tag k="facebook" v="https://www.facebook.com/molbubi"/>
    <tag k="import" v="osm_poi_matchmaker"/>
    <tag k="name" v="MOL Bubi"/>
    <tag k="network" v="bubi"/>
    <tag k="opening_hours" v="24/7"/>
    <tag k="operator" v="BKK MOL Bubi"/>
    <tag k="payment:credit_cards" v="yes"/>
    <tag k="ref" v="0513"/>
    <tag k="source" v="website"/>
    <tag k="source:date" v="2018-07-15"/>
    <tag k="website" v="https://molbubi.bkk.hu"/>
    <tag k="youtube" v="https://www.youtube.com/user/bkkweb"/>
  </node>
  <!-- OSM link: https://osm.org/node/2743702878 -->
  <!-- Original coordinates: POINT (47.500267870719 19.063704013824) -->
  <!-- Original tags: 'amenity':'bicycle_rental'; 'capacity':'15'; 'name':'Klauzál tér'; 'network':'bubi'; 'payment:credit_cards':'no'; 'ref':'0704'; 'source':'BKK-BuBi';  -->
  <node action="modify" changeset="1" id="2743702878" lat="47.5002614949108" lon="19.0638035973463" timestamp="2014-09-12T08:12:08Z" uid="4579407" user="KAMI" version="3">
    <tag k="addr:city" v="Budapest"/>
    <tag k="addr:country" v="HU"/>
    <tag k="addr:postcode" v="1072"/>
    <tag k="amenity" v="bicycle_rental"/>
    <tag k="branch" v="Klauzál tér"/>
    <tag k="brand" v="MOL Bubi"/>
    <tag k="capacity" v="15"/>
    <tag k="facebook" v="https://www.facebook.com/molbubi"/>
    <tag k="import" v="osm_poi_matchmaker"/>
    <tag k="name" v="MOL Bubi"/>
    <tag k="network" v="bubi"/>
    <tag k="opening_hours" v="24/7"/>
    <tag k="operator" v="BKK MOL Bubi"/>
    <tag k="payment:credit_cards" v="yes"/>
    <tag k="ref" v="0704"/>
    <tag k="source" v="website"/>
    <tag k="source:date" v="2018-07-15"/>
    <tag k="website" v="https://molbubi.bkk.hu"/>
    <tag k="youtube" v="https://www.youtube.com/user/bkkweb"/>
  </node>
  <!-- OSM link: https://osm.org/node/2743702882 -->
  <!-- Original coordinates: POINT (47.500604913708 19.068403244019) -->
  <!-- Original tags: 'amenity':'bicycle_rental'; 'capacity':'22'; 'name':'Erzsébet körút - Wesselényi utca'; 'network':'bubi'; 'payment:credit_cards':'no'; 'ref':'0705'; 'source':'BKK-BuBi'; 'wheelchair':'no';  -->
  <node action="modify" changeset="1" id="2743702882" lat="47.5006259949108" lon="19.0684021973457" timestamp="2015-11-19T11:00:33Z" uid="4579407" user="KAMI" version="4">
    <tag k="addr:city" v="Budapest"/>
    <tag k="addr:country" v="HU"/>
    <tag k="addr:postcode" v="1073"/>
    <tag k="amenity" v="bicycle_rental"/>
    <tag k="branch" v="Erzsébet körút"/>
    <tag k="brand" v="MOL Bubi"/>
    <tag k="capacity" v="22"/>
    <tag k="facebook" v="https://www.facebook.com/molbubi"/>
    <tag k="import" v="osm_poi_matchmaker"/>
    <tag k="name" v="MOL Bubi"/>
    <tag k="network" v="bubi"/>
    <tag k="opening_hours" v="24/7"/>
    <tag k="operator" v="BKK MOL Bubi"/>
    <tag k="payment:credit_cards" v="yes"/>
    <tag k="ref" v="0705"/>
    <tag k="source" v="website"/>
    <tag k="source:date" v="2018-07-15"/>
    <tag k="website" v="https://molbubi.bkk.hu"/>
    <tag k="wheelchair" v="no"/>
    <tag k="youtube" v="https://www.youtube.com/user/bkkweb"/>
  </node>
  <!-- OSM link: https://osm.org/node/2743702898 -->
  <!-- Original coordinates: POINT (47.501481940164 19.075291156769) -->
  <!-- Original tags: 'amenity':'bicycle_rental'; 'capacity':'15'; 'name':'Rózsák tere'; 'name:de':'Rosenplatz'; 'network':'bubi'; 'payment:credit_cards':'no'; 'ref':'0706'; 'source':'BKK-BuBi'; 'wheelchair':'yes';  -->
  <node action="modify" changeset="1" id="2743702898" lat="47.5015003949108" lon="19.0753000973447" timestamp="2015-12-10T22:48:54Z" uid="4579407" user="KAMI" version="5">
    <tag k="addr:city" v="Budapest"/>
    <tag k="addr:country" v="HU"/>
    <tag k="addr:postcode" v="1074"/>
    <tag k="amenity" v="bicycle_rental"/>
    <tag k="branch" v="Rózsák tere"/>
    <tag k="brand" v="MOL Bubi"/>
    <tag k="capacity" v="15"/>
    <tag k="facebook" v="https://www.facebook.com/molbubi"/>
    <tag k="import" v="osm_poi_matchmaker"/>
    <tag k="name" v="MOL Bubi"/>
    <tag k="name:de" v="Rosenplatz"/>
    <tag k="network" v="bubi"/>
    <tag k="opening_hours" v="24/7"/>
    <tag k="operator" v="BKK MOL Bubi"/>
    <tag k="payment:credit_cards" v="yes"/>
    <tag k="ref" v="0706"/>
    <tag k="source" v="website"/>
    <tag k="source:date" v="2018-07-15"/>
    <tag k="website" v="https://molbubi.bkk.hu"/>
    <tag k="wheelchair" v="yes"/>
    <tag k="youtube" v="https://www.youtube.com/user/bkkweb"/>
  </node>
  <!-- OSM link: https://osm.org/node/2743702831 -->
  <!-- Original coordinates: POINT (47.497038671764 19.062073230743) -->
  <!-- Original tags: 'amenity':'bicycle_rental'; 'capacity':'15'; 'name':'Wesselényi utca - Síp utca'; 'network':'bubi'; 'payment:credit_cards':'no'; 'ref':'0708'; 'source':'BKK-BuBi';  -->
  <node action="modify" changeset="1" id="2743702831" lat="47.497075994911" lon="19.0620749973465" timestamp="2014-09-12T08:12:12Z" uid="4579407" user="KAMI" version="3">
    <tag k="addr:city" v="Budapest"/>
    <tag k="addr:country" v="HU"/>
    <tag k="addr:postcode" v="1075"/>
    <tag k="amenity" v="bicycle_rental"/>
    <tag k="branch" v="Wesselényi utca"/>
    <tag k="brand" v="MOL Bubi"/>
    <tag k="capacity" v="15"/>
    <tag k="facebook" v="https://www.facebook.com/molbubi"/>
    <tag k="import" v="osm_poi_matchmaker"/>
    <tag k="name" v="MOL Bubi"/>
    <tag k="network" v="bubi"/>
    <tag k="opening_hours" v="24/7"/>
    <tag k="operator" v="BKK MOL Bubi"/>
    <tag k="payment:credit_cards" v="yes"/>
    <tag k="ref" v="0708"/>
    <tag k="source" v="website"/>
    <tag k="source:date" v="2018-07-15"/>
    <tag k="website" v="https://molbubi.bkk.hu"/>
    <tag k="youtube" v="https://www.youtube.com/user/bkkweb"/>
  </node>
  <!-- OSM link: https://osm.org/node/2743702820 -->
  <!-- Original coordinates: POINT (47.495827225143 19.066731981911) -->
  <!-- Original tags: 'amenity':'bicycle_rental'; 'capacity':'22'; 'name':'BUBI - Gyulai Pál utca - Rákóczi út'; 'network':'bubi'; 'payment:credit_cards':'no'; 'ref':'0801'; 'source':'BKK-BuBi';  -->
  <node action="modify" changeset="1" id="2743702820" lat="47.495786494911" lon="19.0666026973459" timestamp="2016-05-13T10:53:29Z" uid="4579407" user="KAMI" version="6">
    <tag k="addr:city" v="Budapest"/>
    <tag k="addr:country" v="HU"/>
    <tag k="addr:postcode" v="1088"/>
    <tag k="amenity" v="bicycle_rental"/>
    <tag k="branch" v="Gyulai Pál utca"/>
    <tag k="brand" v="MOL Bubi"/>
    <tag k="capacity" v="22"/>
    <tag k="facebook" v="https://www.facebook.com/molbubi"/>
    <tag k="import" v="osm_poi_matchmaker"/>
    <tag k="name" v="MOL Bubi"/>
    <tag k="network" v="bubi"/>
    <tag k="opening_hours" v="24/7"/>
    <tag k="operator" v="BKK MOL Bubi"/>
    <tag k="payment:credit_cards" v="yes"/>
    <tag k="ref" v="0801"/>
    <tag k="source" v="website"/>
    <tag k="source:date" v="2018-07-15"/>
    <tag k="website" v="https://molbubi.bkk.hu"/>
    <tag k="youtube" v="https://www.youtube.com/user/bkkweb"/>
  </node>
  <!-- OSM link: https://osm.org/node/2743702807 -->
  <!-- Original coordinates: POINT (47.492754512107 19.071310758591) -->
  <!-- Original tags: 'amenity':'bicycle_rental'; 'capacity':'22'; 'name':'Rákóczi tér'; 'network':'bubi'; 'payment:credit_cards':'yes'; 'ref':'0804'; 'source':'BKK-BuBi'; 'wheelchair':'yes';  -->
  <node action="modify" changeset="1" id="2743702807" lat="47.4929011949111" lon="19.0713899973452" timestamp="2014-09-12T08:12:11Z" uid="4579407" user="KAMI" version="5">
    <tag k="addr:city" v="Budapest"/>
    <tag k="addr:country" v="HU"/>
    <tag k="addr:postcode" v="1085"/>
    <tag k="amenity" v="bicycle_rental"/>
    <tag k="branch" v="Rákóczi tér"/>
    <tag k="brand" v="MOL Bubi"/>
    <tag k="capacity" v="22"/>
    <tag k="facebook" v="https://www.facebook.com/molbubi"/>
    <tag k="import" v="osm_poi_matchmaker"/>
    <tag k="name" v="MOL Bubi"/>
    <tag k="network" v="bubi"/>
    <tag k="opening_hours" v="24/7"/>
    <tag k="operator" v="BKK MOL Bubi"/>
    <tag k="payment:credit_cards" v="yes"/>
    <tag k="ref" v="0804"/>
    <tag k="source" v="website"/>
    <tag k="source:date" v="2018-07-15"/>
    <tag k="website" v="https://molbubi.bkk.hu"/>
    <tag k="wheelchair" v="yes"/>
    <tag k="youtube" v="https://www.youtube.com/user/bkkweb"/>
  </node>
  <!-- OSM link: https://osm.org/node/2743702893 -->
  <!-- Original coordinates: POINT (47.500902089603 19.083112478256) -->
  <!-- Original tags: 'amenity':'bicycle_rental'; 'capacity':'22'; 'name':'Keleti pályaudvar'; 'network':'bubi'; 'payment:credit_cards':'yes'; 'ref':'0808'; 'source':'BKK-BuBi'; 'wheelchair':'yes';  -->
  <node action="modify" changeset="1" id="2743702893" lat="47.5009831949108" lon="19.0831752973436" timestamp="2015-12-06T15:09:11Z" uid="4579407" user="KAMI" version="6">
    <tag k="addr:city" v="Budapest"/>
    <tag k="addr:country" v="HU"/>
    <tag k="addr:postcode" v="1087"/>
    <tag k="amenity" v="bicycle_rental"/>
    <tag k="branch" v="Keleti pályaudvar"/>
    <tag k="brand" v="MOL Bubi"/>
    <tag k="capacity" v="22"/>
    <tag k="facebook" v="https://www.facebook.com/molbubi"/>
    <tag k="import" v="osm_poi_matchmaker"/>
    <tag k="name" v="MOL Bubi"/>
    <tag k="network" v="bubi"/>
    <tag k="opening_hours" v="24/7"/>
    <tag k="operator" v="BKK MOL Bubi"/>
    <tag k="payment:credit_cards" v="yes"/>
    <tag k="ref" v="0808"/>
    <tag k="source" v="website"/>
    <tag k="source:date" v="2018-07-15"/>
    <tag k="website" v="https://molbubi.bkk.hu"/>
    <tag k="wheelchair" v="yes"/>
    <tag k="youtube" v="https://www.youtube.com/user/bkkweb"/>
  </node>
  <!-- OSM link: https://osm.org/node/2743702772 -->
  <!-- Original coordinates: POINT (47.486403744132 19.065662026405) -->
  <!-- Original tags: 'amenity':'bicycle_rental'; 'capacity':'15'; 'name':'Markusovszky tér'; 'network':'bubi'; 'payment:credit_cards':'no'; 'ref':'0901'; 'source':'BKK-BuBi';  -->
  <node action="modify" changeset="1" id="2743702772" lat="47.4864371949114" lon="19.0655613973461" timestamp="2016-09-18T08:44:19Z" uid="4579407" user="KAMI" version="6">
    <tag k="addr:city" v="Budapest"/>
    <tag k="addr:country" v="HU"/>
    <tag k="addr:postcode" v="1092"/>
    <tag k="amenity" v="bicycle_rental"/>
    <tag k="branch" v="Markusovszky tér"/>
    <tag k="brand" v="MOL Bubi"/>
    <tag k="capacity" v="15"/>
    <tag k="facebook" v="https://www.facebook.com/molbubi"/>
    <tag k="import" v="osm_poi_matchmaker"/>
    <tag k="name" v="MOL Bubi"/>
    <tag k="network" v="bubi"/>
    <tag k="opening_hours" v="24/7"/>
    <tag k="operator" v="BKK MOL Bubi"/>
    <tag k="payment:credit_cards" v="yes"/>
    <tag k="ref" v="0901"/>
    <tag k="source" v="website"/>
    <tag k="source:date" v="2018-07-15"/>
    <tag k="website" v="https://molbubi.bkk.hu"/>
    <tag k="youtube" v="https://www.youtube.com/user/bkkweb"/>
  </node>
  <!-- OSM link: https://osm.org/node/2743702765 -->
  <!-- Original coordinates: POINT (47.484819557346 19.0597397089) -->
  <!-- Original tags: 'amenity':'bicycle_rental'; 'capacity':'22'; 'name':'Corvinus Egyetem'; 'network':'bubi'; 'payment:credit_cards':'no'; 'ref':'0903'; 'source':'BKK-BuBi'; 'toilets:wheelchair':'limited'; 'wheelchair':'yes';  -->
  <node action="modify" changeset="1" id="2743702765" lat="47.4849426949115" lon="19.0596865973469" timestamp="2017-07-19T12:19:07Z" uid="4579407" user="KAMI" version="7">
    <tag k="addr:city" v="Budapest"/>
    <tag k="addr:country" v="HU"/>
    <tag k="addr:postcode" v="1093"/>
    <tag k="amenity" v="bicycle_rental"/>
    <tag k="branch" v="Corvinus Egyetem"/>
    <tag k="brand" v="MOL Bubi"/>
    <tag k="capacity" v="22"/>
    <tag k="facebook" v="https://www.facebook.com/molbubi"/>
    <tag k="import" v="osm_poi_matchmaker"/>
    <tag k="name" v="MOL Bubi"/>
    <tag k="network" v="bubi"/>
    <tag k="opening_hours" v="24/7"/>
    <tag k="operator" v="BKK MOL Bubi"/>
    <tag k="payment:credit_cards" v="yes"/>
    <tag k="ref" v="0903"/>
    <tag k="source" v="website"/>
    <tag k="source:date" v="2018-07-15"/>
    <tag k="toilets:wheelchair" v="limited"/>
    <tag k="website" v="https://molbubi.bkk.hu"/>
    <tag k="wheelchair" v="yes"/>
    <tag k="youtube" v="https://www.youtube.com/user/bkkweb"/>
  </node>
  <!-- OSM link: https://osm.org/node/2743702755 -->
  <!-- Original coordinates: POINT (47.479580887855 19.066118001938) -->
  <!-- Original tags: 'amenity':'bicycle_rental'; 'capacity':'22'; 'name':'Boráros tér'; 'network':'bubi'; 'operator':'BKK'; 'payment:credit_cards':'yes'; 'ref':'0904'; 'source':'BKK-BuBi';  -->
  <node action="modify" changeset="1" id="2743702755" lat="47.4796180949117" lon="19.066079497346" timestamp="2017-08-24T12:15:59Z" uid="4579407" user="KAMI" version="4">
    <tag k="addr:city" v="Budapest"/>
    <tag k="addr:country" v="HU"/>
    <tag k="addr:postcode" v="1095"/>
    <tag k="amenity" v="bicycle_rental"/>
    <tag k="branch" v="Boráros tér"/>
    <tag k="brand" v="MOL Bubi"/>
    <tag k="capacity" v="22"/>
    <tag k="facebook" v="https://www.facebook.com/molbubi"/>
    <tag k="import" v="osm_poi_matchmaker"/>
    <tag k="name" v="MOL Bubi"/>
    <tag k="network" v="bubi"/>
    <tag k="opening_hours" v="24/7"/>
    <tag k="operator" v="BKK MOL Bubi"/>
    <tag k="payment:credit_cards" v="yes"/>
    <tag k="ref" v="0904"/>
    <tag k="source" v="website"/>
    <tag k="source:date" v="2018-07-15"/>
    <tag k="website" v="https://molbubi.bkk.hu"/>
    <tag k="youtube" v="https://www.youtube.com/user/bkkweb"/>
  </node>
  <!-- Original coordinates: POINT (47.484504164343 19.053457975388) -->
  <!-- Original tags:  -->
  <node action="modify" changeset="99999" id="-31" lat="47.484504164343" lon="19.053457975388" timestamp="" uid="4579407" user="KAMI" version="99999">
    <tag k="addr:city" v="Budapest"/>
    <tag k="addr:country" v="HU"/>
    <tag k="addr:postcode" v="1111"/>
    <tag k="amenity" v="bicycle_rental"/>
    <tag k="branch" v="Szent Gellért tér"/>
    <tag k="brand" v="MOL Bubi"/>
    <tag k="facebook" v="https://www.facebook.com/molbubi"/>
    <tag k="import" v="osm_poi_matchmaker"/>
    <tag k="name" v="MOL Bubi"/>
    <tag k="network" v="bubi"/>
    <tag k="opening_hours" v="24/7"/>
    <tag k="operator" v="BKK MOL Bubi"/>
    <tag k="payment:credit_cards" v="yes"/>
    <tag k="source" v="website"/>
    <tag k="source:date" v="2018-07-15"/>
    <tag k="website" v="https://molbubi.bkk.hu"/>
    <tag k="youtube" v="https://www.youtube.com/user/bkkweb"/>
  </node>
  <!-- OSM link: https://osm.org/node/4795797252 -->
  <!-- Original coordinates: POINT (47.47641568076 19.058994054794) -->
  <!-- Original tags: 'amenity':'bicycle_rental'; 'capacity':'22'; 'name':'Petőfi híd - Buda'; 'network':'bubi'; 'payment:credit_cards':'no'; 'ref':'1104'; 'source':'BKK-BuBi'; 'toilets:wheelchair':'no'; 'wheelchair':'no';  -->
  <node action="modify" changeset="1" id="4795797252" lat="47.4763918949119" lon="19.058946797347" timestamp="2017-12-28T00:24:13Z" uid="4579407" user="KAMI" version="2">
    <tag k="addr:city" v="Budapest"/>
    <tag k="addr:country" v="HU"/>
    <tag k="addr:postcode" v="1117"/>
    <tag k="amenity" v="bicycle_rental"/>
    <tag k="branch" v="Petőfi híd"/>
    <tag k="brand" v="MOL Bubi"/>
    <tag k="capacity" v="22"/>
    <tag k="facebook" v="https://www.facebook.com/molbubi"/>
    <tag k="import" v="osm_poi_matchmaker"/>
    <tag k="name" v="MOL Bubi"/>
    <tag k="network" v="bubi"/>
    <tag k="opening_hours" v="24/7"/>
    <tag k="operator" v="BKK MOL Bubi"/>
    <tag k="payment:credit_cards" v="yes"/>
    <tag k="ref" v="1104"/>
    <tag k="source" v="website"/>
    <tag k="source:date" v="2018-07-15"/>
    <tag k="toilets:wheelchair" v="no"/>
    <tag k="website" v="https://molbubi.bkk.hu"/>
    <tag k="wheelchair" v="no"/>
    <tag k="youtube" v="https://www.youtube.com/user/bkkweb"/>
  </node>
  <!-- OSM link: https://osm.org/node/2743702983 -->
  <!-- Original coordinates: POINT (47.513602974448 19.048072099686) -->
  <!-- Original tags: 'amenity':'bicycle_rental'; 'capacity':'15'; 'name':'Jászai Mari tér'; 'network':'bubi'; 'operator':'BKK'; 'payment:credit_cards':'no'; 'ref':'1301'; 'source':'BKK-BuBi;BKK FUTÁR App'; 'wheelchair':'no';  -->
  <node action="modify" changeset="1" id="2743702983" lat="47.5136089949103" lon="19.0481220973485" timestamp="2017-07-08T14:43:30Z" uid="4579407" user="KAMI" version="6">
    <tag k="addr:city" v="Budapest"/>
    <tag k="addr:country" v="HU"/>
    <tag k="addr:postcode" v="1137"/>
    <tag k="amenity" v="bicycle_rental"/>
    <tag k="branch" v="Jászai Mari tér"/>
    <tag k="brand" v="MOL Bubi"/>
    <tag k="capacity" v="15"/>
    <tag k="facebook" v="https://www.facebook.com/molbubi"/>
    <tag k="import" v="osm_poi_matchmaker"/>
    <tag k="name" v="MOL Bubi"/>
    <tag k="network" v="bubi"/>
    <tag k="opening_hours" v="24/7"/>
    <tag k="operator" v="BKK MOL Bubi"/>
    <tag k="payment:credit_cards" v="yes"/>
    <tag k="ref" v="1301"/>
    <tag k="source" v="website"/>
    <tag k="source:date" v="2018-07-15"/>
    <tag k="website" v="https://molbubi.bkk.hu"/>
    <tag k="wheelchair" v="no"/>
    <tag k="youtube" v="https://www.youtube.com/user/bkkweb"/>
  </node>
  <!-- OSM link: https://osm.org/node/2743702996 -->
  <!-- Original coordinates: POINT (47.517497779783 19.060007929802) -->
  <!-- Original tags: 'amenity':'bicycle_rental'; 'capacity':'15'; 'name':'BUBI - Váci út - Victor Hugo utca'; 'network':'bubi'; 'payment:credit_cards':'no'; 'ref':'1303'; 'source':'BKK-BuBi'; 'wheelchair':'no';  -->
  <node action="modify" changeset="1" id="2743702996" lat="47.5175135949101" lon="19.0600104973468" timestamp="2016-05-13T11:00:01Z" uid="4579407" user="KAMI" version="5">
    <tag k="addr:city" v="Budapest"/>
    <tag k="addr:country" v="HU"/>
    <tag k="addr:postcode" v="1132"/>
    <tag k="amenity" v="bicycle_rental"/>
    <tag k="branch" v="Váci út"/>
    <tag k="brand" v="MOL Bubi"/>
    <tag k="capacity" v="15"/>
    <tag k="facebook" v="https://www.facebook.com/molbubi"/>
    <tag k="import" v="osm_poi_matchmaker"/>
    <tag k="name" v="MOL Bubi"/>
    <tag k="network" v="bubi"/>
    <tag k="opening_hours" v="24/7"/>
    <tag k="operator" v="BKK MOL Bubi"/>
    <tag k="payment:credit_cards" v="yes"/>
    <tag k="ref" v="1303"/>
    <tag k="source" v="website"/>
    <tag k="source:date" v="2018-07-15"/>
    <tag k="website" v="https://molbubi.bkk.hu"/>
    <tag k="wheelchair" v="no"/>
    <tag k="youtube" v="https://www.youtube.com/user/bkkweb"/>
  </node>
  <!-- OSM link: https://osm.org/node/1901940740 -->
  <!-- Original coordinates: POINT (47.518349163838 19.04482126236) -->
  <!-- Original tags: 'amenity':'bicycle_rental';  -->
  <node action="modify" changeset="1" id="1901940740" lat="47.5183272949101" lon="19.0449417973489" timestamp="2017-08-13T18:27:28Z" uid="4579407" user="KAMI" version="2">
    <tag k="addr:city" v="Budapest"/>
    <tag k="addr:country" v="HU"/>
    <tag k="addr:postcode" v="1007"/>
    <tag k="amenity" v="bicycle_rental"/>
    <tag k="branch" v="Margitsziget"/>
    <tag k="brand" v="MOL Bubi"/>
    <tag k="facebook" v="https://www.facebook.com/molbubi"/>
    <tag k="import" v="osm_poi_matchmaker"/>
    <tag k="name" v="MOL Bubi"/>
    <tag k="network" v="bubi"/>
    <tag k="opening_hours" v="24/7"/>
    <tag k="operator" v="BKK MOL Bubi"/>
    <tag k="payment:credit_cards" v="yes"/>
    <tag k="source" v="website"/>
    <tag k="source:date" v="2018-07-15"/>
    <tag k="website" v="https://molbubi.bkk.hu"/>
    <tag k="youtube" v="https://www.youtube.com/user/bkkweb"/>
  </node>
  <!-- OSM link: https://osm.org/node/2743702989 -->
  <!-- Original coordinates: POINT (47.514490653192 19.052535295486) -->
  <!-- Original tags: 'amenity':'bicycle_rental'; 'capacity':'15'; 'name':'Pannónia utca - Raoul Wallenberg utca'; 'network':'bubi'; 'operator':'BKK'; 'payment:credit_cards':'no'; 'ref':'1305'; 'source':'BKK-BuBi;BKK FUTÁR App';  -->
  <node action="modify" changeset="1" id="2743702989" lat="47.5145339949102" lon="19.0525429973479" timestamp="2017-07-08T14:43:31Z" uid="4579407" user="KAMI" version="5">
    <tag k="addr:city" v="Budapest"/>
    <tag k="addr:country" v="HU"/>
    <tag k="addr:postcode" v="1136"/>
    <tag k="amenity" v="bicycle_rental"/>
    <tag k="branch" v="Pannónia utca"/>
    <tag k="brand" v="MOL Bubi"/>
    <tag k="capacity" v="15"/>
    <tag k="facebook" v="https://www.facebook.com/molbubi"/>
    <tag k="import" v="osm_poi_matchmaker"/>
    <tag k="name" v="MOL Bubi"/>
    <tag k="network" v="bubi"/>
    <tag k="opening_hours" v="24/7"/>
    <tag k="operator" v="BKK MOL Bubi"/>
    <tag k="payment:credit_cards" v="yes"/>
    <tag k="ref" v="1305"/>
    <tag k="source" v="website"/>
    <tag k="source:date" v="2018-07-15"/>
    <tag k="website" v="https://molbubi.bkk.hu"/>
    <tag k="youtube" v="https://www.youtube.com/user/bkkweb"/>
  </node>
  <!-- OSM link: https://osm.org/node/2743703002 -->
  <!-- Original coordinates: POINT (47.518845496254 19.081320762634) -->
  <!-- Original tags: 'amenity':'bicycle_rental'; 'capacity':'22'; 'name':'Széchenyi fürdő'; 'name:de':'Széchenyi-Bad'; 'network':'bubi'; 'payment:credit_cards':'yes'; 'ref':'1401'; 'source':'BKK-BuBi';  -->
  <node action="modify" changeset="1" id="2743703002" lat="47.51890359491" lon="19.0814143973438" timestamp="2015-08-09T21:59:50Z" uid="4579407" user="KAMI" version="5">
    <tag k="addr:city" v="Budapest"/>
    <tag k="addr:country" v="HU"/>
    <tag k="addr:postcode" v="1146"/>
    <tag k="amenity" v="bicycle_rental"/>
    <tag k="branch" v="Széchenyi fürdő"/>
    <tag k="brand" v="MOL Bubi"/>
    <tag k="capacity" v="22"/>
    <tag k="facebook" v="https://www.facebook.com/molbubi"/>
    <tag k="import" v="osm_poi_matchmaker"/>
    <tag k="name" v="MOL Bubi"/>
    <tag k="name:de" v="Széchenyi-Bad"/>
    <tag k="network" v="bubi"/>
    <tag k="opening_hours" v="24/7"/>
    <tag k="operator" v="BKK MOL Bubi"/>
    <tag k="payment:credit_cards" v="yes"/>
    <tag k="ref" v="1401"/>
    <tag k="source" v="website"/>
    <tag k="source:date" v="2018-07-15"/>
    <tag k="website" v="https://molbubi.bkk.hu"/>
    <tag k="youtube" v="https://www.youtube.com/user/bkkweb"/>
  </node>
  <!-- OSM link: https://osm.org/node/2743702874 -->
  <!-- Original coordinates: POINT (47.499858342454 19.02548789978) -->
  <!-- Original tags: 'amenity':'bicycle_rental'; 'capacity':'30'; 'name':'Déli pályaudvar'; 'name:de':'Südbahnhof'; 'network':'bubi'; 'payment:credit_cards':'yes'; 'ref':'0105'; 'source':'BKK-BuBi'; 'wheelchair':'no';  -->
  <node action="modify" changeset="1" id="2743702874" lat="47.4997010949109" lon="19.0256955973516" timestamp="2017-02-28T10:41:24Z" uid="4579407" user="KAMI" version="7">
    <tag k="addr:city" v="Budapest"/>
    <tag k="addr:country" v="HU"/>
    <tag k="addr:postcode" v="1012"/>
    <tag k="amenity" v="bicycle_rental"/>
    <tag k="branch" v="Déli pályaudvar"/>
    <tag k="brand" v="MOL Bubi"/>
    <tag k="capacity" v="30"/>
    <tag k="facebook" v="https://www.facebook.com/molbubi"/>
    <tag k="import" v="osm_poi_matchmaker"/>
    <tag k="name" v="MOL Bubi"/>
    <tag k="name:de" v="Südbahnhof"/>
    <tag k="network" v="bubi"/>
    <tag k="opening_hours" v="24/7"/>
    <tag k="operator" v="BKK MOL Bubi"/>
    <tag k="payment:credit_cards" v="yes"/>
    <tag k="ref" v="0105"/>
    <tag k="source" v="website"/>
    <tag k="source:date" v="2018-07-15"/>
    <tag k="website" v="https://molbubi.bkk.hu"/>
    <tag k="wheelchair" v="no"/>
    <tag k="youtube" v="https://www.youtube.com/user/bkkweb"/>
  </node>
  <!-- OSM link: https://osm.org/node/3686468737 -->
  <!-- Original coordinates: POINT (47.508345 19.023556) -->
  <!-- Original tags: 'amenity':'bicycle_rental'; 'capacity':'24'; 'name':'Fény utcai piac'; 'network':'bubi'; 'operator':'BKK'; 'payment:credit_cards':'yes'; 'ref':'0206'; 'source':'BKK-Bubi';  -->
  <node action="modify" changeset="1" id="3686468737" lat="47.5083755949105" lon="19.0234752973519" timestamp="2017-05-20T15:31:52Z" uid="4579407" user="KAMI" version="2">
    <tag k="addr:city" v="Budapest"/>
    <tag k="addr:country" v="HU"/>
    <tag k="addr:postcode" v="1024"/>
    <tag k="amenity" v="bicycle_rental"/>
    <tag k="branch" v="Fény utcai piac"/>
    <tag k="brand" v="MOL Bubi"/>
    <tag k="capacity" v="24"/>
    <tag k="facebook" v="https://www.facebook.com/molbubi"/>
    <tag k="import" v="osm_poi_matchmaker"/>
    <tag k="name" v="MOL Bubi"/>
    <tag k="network" v="bubi"/>
    <tag k="opening_hours" v="24/7"/>
    <tag k="operator" v="BKK MOL Bubi"/>
    <tag k="payment:credit_cards" v="yes"/>
    <tag k="ref" v="0206"/>
    <tag k="source" v="website"/>
    <tag k="source:date" v="2018-07-15"/>
    <tag k="website" v="https://molbubi.bkk.hu"/>
    <tag k="youtube" v="https://www.youtube.com/user/bkkweb"/>
  </node>
  <!-- OSM link: https://osm.org/way/496991433 -->
  <!-- Original coordinates: POINT (47.489343 19.075943) -->
  <!-- Original tags: 'amenity':'bicycle_rental'; 'capacity':'26'; 'name':'Horváth Mihály tér'; 'network':'bubi'; 'payment:credit_cards':'yes'; 'ref':'0810'; 'source':'BKK-Bubi';  -->
  <way action="modify" changeset="1" id="496991433" timestamp="2017-05-30T20:34:15Z" uid="4579407" user="KAMI" version="1">
    <nd ref="4886312410"/>
    <nd ref="4886312403"/>
    <nd ref="4886312402"/>
    <nd ref="4886312408"/>
    <nd ref="4886312410"/>
    <tag k="addr:city" v="Budapest"/>
    <tag k="addr:country" v="HU"/>
    <tag k="addr:postcode" v="1082"/>
    <tag k="amenity" v="bicycle_rental"/>
    <tag k="branch" v="Horváth Mihály tér"/>
    <tag k="brand" v="MOL Bubi"/>
    <tag k="capacity" v="26"/>
    <tag k="facebook" v="https://www.facebook.com/molbubi"/>
    <tag k="import" v="osm_poi_matchmaker"/>
    <tag k="name" v="MOL Bubi"/>
    <tag k="network" v="bubi"/>
    <tag k="opening_hours" v="24/7"/>
    <tag k="operator" v="BKK MOL Bubi"/>
    <tag k="payment:credit_cards" v="yes"/>
    <tag k="ref" v="0810"/>
    <tag k="source" v="website"/>
    <tag k="source:date" v="2018-07-15"/>
    <tag k="website" v="https://molbubi.bkk.hu"/>
    <tag k="youtube" v="https://www.youtube.com/user/bkkweb"/>
  </way>
  <!-- OSM link: https://osm.org/node/3686495200 -->
  <!-- Original coordinates: POINT (47.495046 19.077116) -->
  <!-- Original tags: 'amenity':'bicycle_rental'; 'capacity':'22'; 'name':'II. János Pál Pápa tér M'; 'network':'bubi'; 'payment:credit_cards':'yes'; 'ref':'0811'; 'source':'BKK-Bubi'; 'wheelchair':'yes';  -->
  <node action="modify" changeset="1" id="3686495200" lat="47.4949414949111" lon="19.0771974973444" timestamp="2015-12-02T14:52:50Z" uid="4579407" user="KAMI" version="2">
    <tag k="addr:city" v="Budapest"/>
    <tag k="addr:country" v="HU"/>
    <tag k="addr:postcode" v="1081"/>
    <tag k="amenity" v="bicycle_rental"/>
    <tag k="branch" v="II. János Pál Pápa tér M"/>
    <tag k="brand" v="MOL Bubi"/>
    <tag k="capacity" v="22"/>
    <tag k="facebook" v="https://www.facebook.com/molbubi"/>
    <tag k="import" v="osm_poi_matchmaker"/>
    <tag k="name" v="MOL Bubi"/>
    <tag k="network" v="bubi"/>
    <tag k="opening_hours" v="24/7"/>
    <tag k="operator" v="BKK MOL Bubi"/>
    <tag k="payment:credit_cards" v="yes"/>
    <tag k="ref" v="0811"/>
    <tag k="source" v="website"/>
    <tag k="source:date" v="2018-07-15"/>
    <tag k="website" v="https://molbubi.bkk.hu"/>
    <tag k="wheelchair" v="yes"/>
    <tag k="youtube" v="https://www.youtube.com/user/bkkweb"/>
  </node>
  <!-- OSM link: https://osm.org/node/3686484025 -->
  <!-- Original coordinates: POINT (47.478589 19.040798) -->
  <!-- Original tags: 'amenity':'bicycle_rental'; 'capacity':'30'; 'name':'Villányi út - Tas vezér utca'; 'network':'bubi'; 'payment:credit_cards':'yes'; 'ref':'1110'; 'source':'BKK-Bubi'; 'wheelchair':'yes';  -->
  <node action="modify" changeset="1" id="3686484025" lat="47.4786520949118" lon="19.0406288973495" timestamp="2017-10-28T20:53:48Z" uid="4579407" user="KAMI" version="3">
    <tag k="addr:city" v="Budapest"/>
    <tag k="addr:country" v="HU"/>
    <tag k="addr:postcode" v="1114"/>
    <tag k="amenity" v="bicycle_rental"/>
    <tag k="branch" v="Villányi út"/>
    <tag k="brand" v="MOL Bubi"/>
    <tag k="capacity" v="30"/>
    <tag k="facebook" v="https://www.facebook.com/molbubi"/>
    <tag k="import" v="osm_poi_matchmaker"/>
    <tag k="name" v="MOL Bubi"/>
    <tag k="network" v="bubi"/>
    <tag k="opening_hours" v="24/7"/>
    <tag k="operator" v="BKK MOL Bubi"/>
    <tag k="payment:credit_cards" v="yes"/>
    <tag k="ref" v="1110"/>
    <tag k="source" v="website"/>
    <tag k="source:date" v="2018-07-15"/>
    <tag k="website" v="https://molbubi.bkk.hu"/>
    <tag k="wheelchair" v="yes"/>
    <tag k="youtube" v="https://www.youtube.com/user/bkkweb"/>
  </node>
  <!-- OSM link: https://osm.org/node/3686480276 -->
  <!-- Original coordinates: POINT (47.482587 19.030513) -->
  <!-- Original tags: 'amenity':'bicycle_rental'; 'capacity':'32'; 'name':'Villányi út - Karolina út'; 'network':'bubi'; 'payment:credit_cards':'yes'; 'ref':'1113'; 'source':'BKK-Bubi';  -->
  <node action="modify" changeset="1" id="3686480276" lat="47.4826372949116" lon="19.0304811973509" timestamp="2018-05-18T16:07:10Z" uid="4579407" user="KAMI" version="3">
    <tag k="addr:city" v="Budapest"/>
    <tag k="addr:country" v="HU"/>
    <tag k="addr:postcode" v="1113"/>
    <tag k="amenity" v="bicycle_rental"/>
    <tag k="branch" v="Villányi út"/>
    <tag k="brand" v="MOL Bubi"/>
    <tag k="capacity" v="32"/>
    <tag k="facebook" v="https://www.facebook.com/molbubi"/>
    <tag k="import" v="osm_poi_matchmaker"/>
    <tag k="name" v="MOL Bubi"/>
    <tag k="network" v="bubi"/>
    <tag k="opening_hours" v="24/7"/>
    <tag k="operator" v="BKK MOL Bubi"/>
    <tag k="payment:credit_cards" v="yes"/>
    <tag k="ref" v="1113"/>
    <tag k="source" v="website"/>
    <tag k="source:date" v="2018-07-15"/>
    <tag k="website" v="https://molbubi.bkk.hu"/>
    <tag k="youtube" v="https://www.youtube.com/user/bkkweb"/>
  </node>
  <!-- OSM link: https://osm.org/node/3686468755 -->
  <!-- Original coordinates: POINT (47.487812 19.024279) -->
  <!-- Original tags: 'amenity':'bicycle_rental'; 'capacity':'30'; 'name':'BAH csomópont'; 'network':'bubi'; 'payment:credit_cards':'yes'; 'ref':'1201'; 'source':'BKK-Bubi'; 'wheelchair':'yes';  -->
  <node action="modify" changeset="1" id="3686468755" lat="47.4878404949114" lon="19.0242634973518" timestamp="2016-12-21T00:47:54Z" uid="4579407" user="KAMI" version="3">
    <tag k="addr:city" v="Budapest"/>
    <tag k="addr:country" v="HU"/>
    <tag k="addr:postcode" v="1124"/>
    <tag k="amenity" v="bicycle_rental"/>
    <tag k="branch" v="BAH csomópont"/>
    <tag k="brand" v="MOL Bubi"/>
    <tag k="capacity" v="30"/>
    <tag k="facebook" v="https://www.facebook.com/molbubi"/>
    <tag k="import" v="osm_poi_matchmaker"/>
    <tag k="name" v="MOL Bubi"/>
    <tag k="network" v="bubi"/>
    <tag k="opening_hours" v="24/7"/>
    <tag k="operator" v="BKK MOL Bubi"/>
    <tag k="payment:credit_cards" v="yes"/>
    <tag k="ref" v="1201"/>
    <tag k="source" v="website"/>
    <tag k="source:date" v="2018-07-15"/>
    <tag k="website" v="https://molbubi.bkk.hu"/>
    <tag k="wheelchair" v="yes"/>
    <tag k="youtube" v="https://www.youtube.com/user/bkkweb"/>
  </node>
  <!-- OSM link: https://osm.org/node/2743702996 -->
  <!-- Original coordinates: POINT (47.51964976217 19.061311483383) -->
  <!-- Original tags: 'amenity':'bicycle_rental'; 'capacity':'15'; 'name':'BUBI - Váci út - Victor Hugo utca'; 'network':'bubi'; 'payment:credit_cards':'no'; 'ref':'1303'; 'source':'BKK-BuBi'; 'wheelchair':'no';  -->
  <node action="modify" changeset="1" id="2743702996" lat="47.5175135949101" lon="19.0600104973468" timestamp="2016-05-13T11:00:01Z" uid="4579407" user="KAMI" version="5">
    <tag k="addr:city" v="Budapest"/>
    <tag k="addr:country" v="HU"/>
    <tag k="addr:postcode" v="1134"/>
    <tag k="amenity" v="bicycle_rental"/>
    <tag k="branch" v="Váci út"/>
    <tag k="brand" v="MOL Bubi"/>
    <tag k="capacity" v="15"/>
    <tag k="facebook" v="https://www.facebook.com/molbubi"/>
    <tag k="import" v="osm_poi_matchmaker"/>
    <tag k="name" v="MOL Bubi"/>
    <tag k="network" v="bubi"/>
    <tag k="opening_hours" v="24/7"/>
    <tag k="operator" v="BKK MOL Bubi"/>
    <tag k="payment:credit_cards" v="yes"/>
    <tag k="ref" v="1303"/>
    <tag k="source" v="website"/>
    <tag k="source:date" v="2018-07-15"/>
    <tag k="website" v="https://molbubi.bkk.hu"/>
    <tag k="wheelchair" v="no"/>
    <tag k="youtube" v="https://www.youtube.com/user/bkkweb"/>
  </node>
  <!-- OSM link: https://osm.org/node/3686451788 -->
  <!-- Original coordinates: POINT (47.524844588231 19.062716960907) -->
  <!-- Original tags: 'amenity':'bicycle_rental'; 'capacity':'32'; 'name':'BUBI - Dózsa György út M'; 'network':'bubi'; 'payment:credit_cards':'yes'; 'ref':'1307'; 'source':'BKK-Bubi';  -->
  <node action="modify" changeset="1" id="3686451788" lat="47.5247673949098" lon="19.0629259973464" timestamp="2017-02-20T01:24:52Z" uid="4579407" user="KAMI" version="3">
    <tag k="addr:city" v="Budapest"/>
    <tag k="addr:country" v="HU"/>
    <tag k="addr:postcode" v="1133"/>
    <tag k="amenity" v="bicycle_rental"/>
    <tag k="branch" v="Dózsa György út M"/>
    <tag k="brand" v="MOL Bubi"/>
    <tag k="capacity" v="32"/>
    <tag k="facebook" v="https://www.facebook.com/molbubi"/>
    <tag k="import" v="osm_poi_matchmaker"/>
    <tag k="name" v="MOL Bubi"/>
    <tag k="network" v="bubi"/>
    <tag k="opening_hours" v="24/7"/>
    <tag k="operator" v="BKK MOL Bubi"/>
    <tag k="payment:credit_cards" v="yes"/>
    <tag k="ref" v="1307"/>
    <tag k="source" v="website"/>
    <tag k="source:date" v="2018-07-15"/>
    <tag k="website" v="https://molbubi.bkk.hu"/>
    <tag k="youtube" v="https://www.youtube.com/user/bkkweb"/>
  </node>
  <!-- OSM link: https://osm.org/node/3686483855 -->
  <!-- Original coordinates: POINT (47.480799061076 19.077243804932) -->
  <!-- Original tags: 'amenity':'bicycle_rental'; 'capacity':'22'; 'name':'SOTE-Vendel utca'; 'network':'bubi'; 'payment:credit_cards':'yes'; 'ref':'0907'; 'source':'BKK-Bubi';  -->
  <node action="modify" changeset="1" id="3686483855" lat="47.4806778949117" lon="19.0772026973444" timestamp="2017-08-08T16:06:27Z" uid="4579407" user="KAMI" version="2">
    <tag k="addr:city" v="Budapest"/>
    <tag k="addr:country" v="HU"/>
    <tag k="addr:postcode" v="1096"/>
    <tag k="amenity" v="bicycle_rental"/>
    <tag k="branch" v="SOTE"/>
    <tag k="brand" v="MOL Bubi"/>
    <tag k="capacity" v="22"/>
    <tag k="facebook" v="https://www.facebook.com/molbubi"/>
    <tag k="import" v="osm_poi_matchmaker"/>
    <tag k="name" v="MOL Bubi"/>
    <tag k="network" v="bubi"/>
    <tag k="opening_hours" v="24/7"/>
    <tag k="operator" v="BKK MOL Bubi"/>
    <tag k="payment:credit_cards" v="yes"/>
    <tag k="ref" v="0907"/>
    <tag k="source" v="website"/>
    <tag k="source:date" v="2018-07-15"/>
    <tag k="website" v="https://molbubi.bkk.hu"/>
    <tag k="youtube" v="https://www.youtube.com/user/bkkweb"/>
  </node>
  <!-- OSM link: https://osm.org/node/3772026127 -->
  <!-- Original coordinates: POINT (47.481640164197 19.073832035065) -->
  <!-- Original tags: 'amenity':'bicycle_rental'; 'capacity':'30'; 'name':'Ferenc tér'; 'network':'bubi'; 'payment:credit_cards':'yes'; 'ref':'0906'; 'source':'BKK-BuBi'; 'wheelchair':'limited';  -->
  <node action="modify" changeset="1" id="3772026127" lat="47.4817241949116" lon="19.0737963973449" timestamp="2016-09-18T08:44:18Z" uid="4579407" user="KAMI" version="6">
    <tag k="addr:city" v="Budapest"/>
    <tag k="addr:country" v="HU"/>
    <tag k="addr:postcode" v="1094"/>
    <tag k="amenity" v="bicycle_rental"/>
    <tag k="branch" v="Ferenc tér"/>
    <tag k="brand" v="MOL Bubi"/>
    <tag k="capacity" v="30"/>
    <tag k="facebook" v="https://www.facebook.com/molbubi"/>
    <tag k="import" v="osm_poi_matchmaker"/>
    <tag k="name" v="MOL Bubi"/>
    <tag k="network" v="bubi"/>
    <tag k="opening_hours" v="24/7"/>
    <tag k="operator" v="BKK MOL Bubi"/>
    <tag k="payment:credit_cards" v="yes"/>
    <tag k="ref" v="0906"/>
    <tag k="source" v="website"/>
    <tag k="source:date" v="2018-07-15"/>
    <tag k="website" v="https://molbubi.bkk.hu"/>
    <tag k="wheelchair" v="limited"/>
    <tag k="youtube" v="https://www.youtube.com/user/bkkweb"/>
  </node>
  <!-- OSM link: https://osm.org/node/4543652535 -->
  <!-- Original coordinates: POINT (47.507765659818 19.035111665726) -->
  <!-- Original tags: 'amenity':'bicycle_rental'; 'capacity':'15'; 'name':'Csalogány utca - Medve utca'; 'network':'bubi'; 'operator':'BKK'; 'payment:credit_cards':'no'; 'ref':'0211'; 'source':'BKK FUTÁR app';  -->
  <node action="modify" changeset="1" id="4543652535" lat="47.5077842949105" lon="19.0350323973503" timestamp="2017-05-22T14:44:09Z" uid="4579407" user="KAMI" version="3">
    <tag k="addr:city" v="Budapest"/>
    <tag k="addr:country" v="HU"/>
    <tag k="addr:postcode" v="1015"/>
    <tag k="amenity" v="bicycle_rental"/>
    <tag k="branch" v="Csalogány utca"/>
    <tag k="brand" v="MOL Bubi"/>
    <tag k="capacity" v="15"/>
    <tag k="facebook" v="https://www.facebook.com/molbubi"/>
    <tag k="import" v="osm_poi_matchmaker"/>
    <tag k="name" v="MOL Bubi"/>
    <tag k="network" v="bubi"/>
    <tag k="opening_hours" v="24/7"/>
    <tag k="operator" v="BKK MOL Bubi"/>
    <tag k="payment:credit_cards" v="yes"/>
    <tag k="ref" v="0211"/>
    <tag k="source" v="website"/>
    <tag k="source:date" v="2018-07-15"/>
    <tag k="website" v="https://molbubi.bkk.hu"/>
    <tag k="youtube" v="https://www.youtube.com/user/bkkweb"/>
  </node>
  <!-- OSM link: https://osm.org/node/4475875333 -->
  <!-- Original coordinates: POINT (47.528003254662 19.038593173027) -->
  <!-- Original tags: 'amenity':'bicycle_rental'; 'capacity':'24'; 'name':'Kolosy tér'; 'network':'bubi'; 'payment:credit_cards':'yes'; 'ref':'0301'; 'source':'survey;BKK FUTÁR app';  -->
  <node action="modify" changeset="1" id="4475875333" lat="47.5279977949097" lon="19.0385264973498" timestamp="2017-05-22T14:44:09Z" uid="4579407" user="KAMI" version="4">
    <tag k="addr:city" v="Budapest"/>
    <tag k="addr:country" v="HU"/>
    <tag k="addr:postcode" v="1036"/>
    <tag k="amenity" v="bicycle_rental"/>
    <tag k="branch" v="Kolosy tér"/>
    <tag k="brand" v="MOL Bubi"/>
    <tag k="capacity" v="24"/>
    <tag k="facebook" v="https://www.facebook.com/molbubi"/>
    <tag k="import" v="osm_poi_matchmaker"/>
    <tag k="name" v="MOL Bubi"/>
    <tag k="network" v="bubi"/>
    <tag k="opening_hours" v="24/7"/>
    <tag k="operator" v="BKK MOL Bubi"/>
    <tag k="payment:credit_cards" v="yes"/>
    <tag k="ref" v="0301"/>
    <tag k="source" v="website"/>
    <tag k="source:date" v="2018-07-15"/>
    <tag k="website" v="https://molbubi.bkk.hu"/>
    <tag k="youtube" v="https://www.youtube.com/user/bkkweb"/>
  </node>
  <!-- OSM link: https://osm.org/node/4795269990 -->
  <!-- Original coordinates: POINT (47.533660849057 19.03545498848) -->
  <!-- Original tags: 'amenity':'bicycle_rental'; 'capacity':'20'; 'name':'Bécsi út - Óbudai Egyetem'; 'network':'bubi'; 'operator':'BKK'; 'payment:credit_cards':'no'; 'ref':'0303'; 'source':'survey;BKK FUTÁR app';  -->
  <node action="modify" changeset="1" id="4795269990" lat="47.5336872949094" lon="19.0355123973502" timestamp="2017-05-22T14:44:10Z" uid="4579407" user="KAMI" version="4">
    <tag k="addr:city" v="Budapest"/>
    <tag k="addr:country" v="HU"/>
    <tag k="addr:postcode" v="1034"/>
    <tag k="amenity" v="bicycle_rental"/>
    <tag k="branch" v="Bécsi út"/>
    <tag k="brand" v="MOL Bubi"/>
    <tag k="capacity" v="20"/>
    <tag k="facebook" v="https://www.facebook.com/molbubi"/>
    <tag k="import" v="osm_poi_matchmaker"/>
    <tag k="name" v="MOL Bubi"/>
    <tag k="network" v="bubi"/>
    <tag k="opening_hours" v="24/7"/>
    <tag k="operator" v="BKK MOL Bubi"/>
    <tag k="payment:credit_cards" v="yes"/>
    <tag k="ref" v="0303"/>
    <tag k="source" v="website"/>
    <tag k="source:date" v="2018-07-15"/>
    <tag k="website" v="https://molbubi.bkk.hu"/>
    <tag k="youtube" v="https://www.youtube.com/user/bkkweb"/>
  </node>
  <!-- OSM link: https://osm.org/node/4866394976 -->
  <!-- Original coordinates: POINT (47.540063843103 19.030830860138) -->
  <!-- Original tags: 'amenity':'bicycle_rental'; 'capacity':'12'; 'name':'Szent Margit Kórház'; 'network':'bubi'; 'operator':'BKK'; 'payment:credit_cards':'no'; 'ref':'0305'; 'source':'BKK FUTÁR app';  -->
  <node action="modify" changeset="1" id="4866394976" lat="47.5400996949092" lon="19.0309129973509" timestamp="2017-08-29T16:44:05Z" uid="4579407" user="KAMI" version="3">
    <tag k="addr:city" v="Budapest"/>
    <tag k="addr:country" v="HU"/>
    <tag k="addr:postcode" v="1037"/>
    <tag k="amenity" v="bicycle_rental"/>
    <tag k="branch" v="Szent Margit Kórház"/>
    <tag k="brand" v="MOL Bubi"/>
    <tag k="capacity" v="12"/>
    <tag k="facebook" v="https://www.facebook.com/molbubi"/>
    <tag k="import" v="osm_poi_matchmaker"/>
    <tag k="name" v="MOL Bubi"/>
    <tag k="network" v="bubi"/>
    <tag k="opening_hours" v="24/7"/>
    <tag k="operator" v="BKK MOL Bubi"/>
    <tag k="payment:credit_cards" v="yes"/>
    <tag k="ref" v="0305"/>
    <tag k="source" v="website"/>
    <tag k="source:date" v="2018-07-15"/>
    <tag k="website" v="https://molbubi.bkk.hu"/>
    <tag k="youtube" v="https://www.youtube.com/user/bkkweb"/>
  </node>
  <!-- OSM link: https://osm.org/node/4832384021 -->
  <!-- Original coordinates: POINT (47.538999146031 19.035868048668) -->
  <!-- Original tags: 'amenity':'bicycle_rental'; 'capacity':'20'; 'name':'Kiscelli utca - Zápor utca'; 'network':'bubi'; 'operator':'BKK'; 'payment:credit_cards':'no'; 'ref':'0306'; 'source':'survey;BKK FUTÁR app';  -->
  <node action="modify" changeset="1" id="4832384021" lat="47.5389852949092" lon="19.0359387973502" timestamp="2017-05-22T14:44:10Z" uid="4579407" user="KAMI" version="3">
    <tag k="addr:city" v="Budapest"/>
    <tag k="addr:country" v="HU"/>
    <tag k="addr:postcode" v="1032"/>
    <tag k="amenity" v="bicycle_rental"/>
    <tag k="branch" v="Kiscelli utca"/>
    <tag k="brand" v="MOL Bubi"/>
    <tag k="capacity" v="20"/>
    <tag k="facebook" v="https://www.facebook.com/molbubi"/>
    <tag k="import" v="osm_poi_matchmaker"/>
    <tag k="name" v="MOL Bubi"/>
    <tag k="network" v="bubi"/>
    <tag k="opening_hours" v="24/7"/>
    <tag k="operator" v="BKK MOL Bubi"/>
    <tag k="payment:credit_cards" v="yes"/>
    <tag k="ref" v="0306"/>
    <tag k="source" v="website"/>
    <tag k="source:date" v="2018-07-15"/>
    <tag k="website" v="https://molbubi.bkk.hu"/>
    <tag k="youtube" v="https://www.youtube.com/user/bkkweb"/>
  </node>
  <!-- Original coordinates: POINT (47.490412937033 19.024157524109) -->
  <!-- Original tags:  -->
  <node action="modify" changeset="99999" id="-54" lat="47.490412937033" lon="19.024157524109" timestamp="" uid="4579407" user="KAMI" version="99999">
    <tag k="addr:city" v="Budapest"/>
    <tag k="addr:country" v="HU"/>
    <tag k="addr:postcode" v="1123"/>
    <tag k="amenity" v="bicycle_rental"/>
    <tag k="branch" v="MOM Park"/>
    <tag k="brand" v="MOL Bubi"/>
    <tag k="facebook" v="https://www.facebook.com/molbubi"/>
    <tag k="import" v="osm_poi_matchmaker"/>
    <tag k="name" v="MOL Bubi"/>
    <tag k="network" v="bubi"/>
    <tag k="opening_hours" v="24/7"/>
    <tag k="operator" v="BKK MOL Bubi"/>
    <tag k="payment:credit_cards" v="yes"/>
    <tag k="source" v="website"/>
    <tag k="source:date" v="2018-07-15"/>
    <tag k="website" v="https://molbubi.bkk.hu"/>
    <tag k="youtube" v="https://www.youtube.com/user/bkkweb"/>
  </node>
  <!-- OSM link: https://osm.org/node/4938268117 -->
  <!-- Original coordinates: POINT (47.508765767257 19.017409086227) -->
  <!-- Original tags: 'amenity':'bicycle_rental'; 'capacity':'15'; 'fixme':'precise location'; 'name':'Városmajor - Nyúl utca'; 'network':'bubi'; 'operator':'BKK'; 'payment:credit_cards':'no'; 'ref':'1204'; 'source':'survey;BKK FUTÁR App';  -->
  <node action="modify" changeset="1" id="4938268117" lat="47.5087469949105" lon="19.0175094973527" timestamp="2017-06-27T10:55:41Z" uid="4579407" user="KAMI" version="1">
    <tag k="addr:city" v="Budapest"/>
    <tag k="addr:country" v="HU"/>
    <tag k="addr:postcode" v="1122"/>
    <tag k="amenity" v="bicycle_rental"/>
    <tag k="branch" v="Városmajor"/>
    <tag k="brand" v="MOL Bubi"/>
    <tag k="capacity" v="15"/>
    <tag k="facebook" v="https://www.facebook.com/molbubi"/>
    <tag k="fixme" v="precise location"/>
    <tag k="import" v="osm_poi_matchmaker"/>
    <tag k="name" v="MOL Bubi"/>
    <tag k="network" v="bubi"/>
    <tag k="opening_hours" v="24/7"/>
    <tag k="operator" v="BKK MOL Bubi"/>
    <tag k="payment:credit_cards" v="yes"/>
    <tag k="ref" v="1204"/>
    <tag k="source" v="website"/>
    <tag k="source:date" v="2018-07-15"/>
    <tag k="website" v="https://molbubi.bkk.hu"/>
    <tag k="youtube" v="https://www.youtube.com/user/bkkweb"/>
  </node>
  <!-- Original coordinates: POINT (47.53829657898 19.061236381531) -->
  <!-- Original tags:  -->
  <node action="modify" changeset="99999" id="-56" lat="47.53829657898" lon="19.061236381531" timestamp="" uid="4579407" user="KAMI" version="99999">
    <tag k="addr:city" v="Budapest"/>
    <tag k="addr:country" v="HU"/>
    <tag k="addr:postcode" v="1138"/>
    <tag k="amenity" v="bicycle_rental"/>
    <tag k="branch" v="Duna Aréna"/>
    <tag k="brand" v="MOL Bubi"/>
    <tag k="facebook" v="https://www.facebook.com/molbubi"/>
    <tag k="import" v="osm_poi_matchmaker"/>
    <tag k="name" v="MOL Bubi"/>
    <tag k="network" v="bubi"/>
    <tag k="opening_hours" v="24/7"/>
    <tag k="operator" v="BKK MOL Bubi"/>
    <tag k="payment:credit_cards" v="yes"/>
    <tag k="source" v="website"/>
    <tag k="source:date" v="2018-07-15"/>
    <tag k="website" v="https://molbubi.bkk.hu"/>
    <tag k="youtube" v="https://www.youtube.com/user/bkkweb"/>
  </node>
  <!-- Original coordinates: POINT (47.474918213942 19.099345207214) -->
  <!-- Original tags:  -->
  <node action="modify" changeset="99999" id="-57" lat="47.474918213942" lon="19.099345207214" timestamp="" uid="4579407" user="KAMI" version="99999">
    <tag k="addr:city" v="Budapest"/>
    <tag k="addr:country" v="HU"/>
    <tag k="addr:postcode" v="1098"/>
    <tag k="amenity" v="bicycle_rental"/>
    <tag k="branch" v="Népliget M (buszpályaudvar)"/>
    <tag k="brand" v="MOL Bubi"/>
    <tag k="facebook" v="https://www.facebook.com/molbubi"/>
    <tag k="import" v="osm_poi_matchmaker"/>
    <tag k="name" v="MOL Bubi"/>
    <tag k="network" v="bubi"/>
    <tag k="opening_hours" v="24/7"/>
    <tag k="operator" v="BKK MOL Bubi"/>
    <tag k="payment:credit_cards" v="yes"/>
    <tag k="source" v="website"/>
    <tag k="source:date" v="2018-07-15"/>
    <tag k="website" v="https://molbubi.bkk.hu"/>
    <tag k="youtube" v="https://www.youtube.com/user/bkkweb"/>
  </node>
</osm>
