<?xml version='1.0' encoding='UTF-8'?>
<osm generator="JOSM" version="0.6">
  <!-- OSM link: https://osm.org/way/238178358 -->
  <!-- Original coordinates: POINT (47.954101 22.318145) -->
  <!-- OSM <-> POI distance: 4.99162889 m-->
  <!-- Checker good: {not_in_water}; bad {}-->
  <!-- Original tags: 'amenity':'pharmacy'; 'building':'yes'; 'dispensing':'yes';  -->
  <way action="modify" changeset="1" id="238178358" timestamp="2013-09-16T11:57:53Z" uid="4579407" user="KAMI" version="1">
    <nd ref="2460316479"/>
    <nd ref="2460316490"/>
    <nd ref="2460316469"/>
    <nd ref="2460316462"/>
    <nd ref="2460316479"/>
    <tag k="addr:city" v="Mátészalka"/>
    <tag k="addr:country" v="HU"/>
    <tag k="addr:housenumber" v="1"/>
    <tag k="addr:postcode" v="4700"/>
    <tag k="addr:street" v="Eötvös utca"/>
    <tag k="amenity" v="pharmacy"/>
    <tag k="building" v="yes"/>
    <tag k="dispensing" v="yes"/>
    <tag k="import" v="osm_poi_matchmaker"/>
    <tag k="name" v="Kulcs Patika"/>
    <tag k="payment:cash" v="yes"/>
    <tag k="payment:debit_cards" v="yes"/>
    <tag k="source" v="website"/>
    <tag k="source:date" v="2018-07-18"/>
    <tag k="website" v="https://www.kulcspatika.hupatikak/salvare-gyogyszertar-p92"/>
  </way>
  <!-- Original coordinates: POINT (47.952850792488 22.316923141479) -->
  <!-- OSM <-> POI distance: None m-->
  <!-- Checker good: {not_in_water}; bad {}-->
  <!-- Original tags:  -->
  <node action="modify" changeset="99999" id="-2" lat="47.952850792488" lon="22.316923141479" timestamp="" uid="4579407" user="KAMI" version="99999">
    <tag k="addr:city" v="Mátészalka"/>
    <tag k="addr:country" v="HU"/>
    <tag k="addr:housenumber" v="19"/>
    <tag k="addr:postcode" v="4700"/>
    <tag k="addr:street" v="Kölcsey utca"/>
    <tag k="amenity" v="pharmacy"/>
    <tag k="dispensing" v="yes"/>
    <tag k="import" v="osm_poi_matchmaker"/>
    <tag k="name" v="Kulcs Patika"/>
    <tag k="payment:cash" v="yes"/>
    <tag k="payment:debit_cards" v="yes"/>
    <tag k="source" v="website"/>
    <tag k="source:date" v="2018-07-18"/>
    <tag k="website" v="https://www.kulcspatika.hupatikak/kigyo-gyogyszertar-p130"/>
  </node>
  <!-- Original coordinates: POINT (47.876215499597 21.8469196558) -->
  <!-- OSM <-> POI distance: None m-->
  <!-- Checker good: {not_in_water}; bad {}-->
  <!-- Original tags:  -->
  <node action="modify" changeset="99999" id="-3" lat="47.876215499597" lon="21.8469196558" timestamp="" uid="4579407" user="KAMI" version="99999">
    <tag k="addr:city" v="Nagykálló"/>
    <tag k="addr:country" v="HU"/>
    <tag k="addr:housenumber" v="1"/>
    <tag k="addr:postcode" v="4320"/>
    <tag k="addr:street" v="Petőfi utca"/>
    <tag k="amenity" v="pharmacy"/>
    <tag k="dispensing" v="yes"/>
    <tag k="import" v="osm_poi_matchmaker"/>
    <tag k="name" v="Kulcs Patika"/>
    <tag k="payment:cash" v="yes"/>
    <tag k="payment:debit_cards" v="yes"/>
    <tag k="source" v="website"/>
    <tag k="source:date" v="2018-07-18"/>
    <tag k="website" v="https://www.kulcspatika.hupatikak/igazgyongy-patika-p163"/>
  </node>
  <!-- Original coordinates: POINT (46.4333 21.2333) -->
  <!-- OSM <-> POI distance: None m-->
  <!-- Checker good: {not_in_water}; bad {}-->
  <!-- Original tags:  -->
  <node action="modify" changeset="99999" id="-4" lat="46.4333" lon="21.2333" timestamp="" uid="4579407" user="KAMI" version="99999">
    <tag k="addr:city" v="Lőkösháza"/>
    <tag k="addr:country" v="HU"/>
    <tag k="addr:housenumber" v="23"/>
    <tag k="addr:postcode" v="5743"/>
    <tag k="addr:street" v="Alapítók utca"/>
    <tag k="amenity" v="pharmacy"/>
    <tag k="dispensing" v="yes"/>
    <tag k="import" v="osm_poi_matchmaker"/>
    <tag k="name" v="Kulcs Patika"/>
    <tag k="payment:cash" v="yes"/>
    <tag k="payment:debit_cards" v="yes"/>
    <tag k="source" v="website"/>
    <tag k="source:date" v="2018-07-18"/>
    <tag k="website" v="https://www.kulcspatika.hupatikak/kigyo-fiok-patika-p141"/>
  </node>
  <!-- OSM link: https://osm.org/node/3354856157 -->
  <!-- Original coordinates: POINT (47.600134942836 21.75393753373) -->
  <!-- OSM <-> POI distance: 10.21989058 m-->
  <!-- Checker good: {not_in_water}; bad {}-->
  <!-- Original tags: 'amenity':'pharmacy'; 'source':'turistautak.hu'; 'url':'http://turistautak.hu/poi.php?id=80960';  -->
  <node action="modify" changeset="1" id="3354856157" lat="47.6001499949066" lon="21.7540719969718" timestamp="2015-02-16T21:48:50Z" uid="4579407" user="KAMI" version="1">
    <tag k="addr:city" v="Hajdúsámson"/>
    <tag k="addr:country" v="HU"/>
    <tag k="addr:housenumber" v="6"/>
    <tag k="addr:postcode" v="4251"/>
    <tag k="addr:street" v="Petőfi út"/>
    <tag k="amenity" v="pharmacy"/>
    <tag k="dispensing" v="yes"/>
    <tag k="import" v="osm_poi_matchmaker"/>
    <tag k="name" v="Kulcs Patika"/>
    <tag k="payment:cash" v="yes"/>
    <tag k="payment:debit_cards" v="yes"/>
    <tag k="source" v="website"/>
    <tag k="source:date" v="2018-07-18"/>
    <tag k="url" v="http://turistautak.hu/poi.php?id=80960"/>
    <tag k="website" v="https://www.kulcspatika.hupatikak/samson-patika-p93"/>
  </node>
  <!-- Original coordinates: POINT (47.71177888515 21.677178067459) -->
  <!-- OSM <-> POI distance: None m-->
  <!-- Checker good: {not_in_water}; bad {}-->
  <!-- Original tags:  -->
  <node action="modify" changeset="99999" id="-6" lat="47.71177888515" lon="21.677178067459" timestamp="" uid="4579407" user="KAMI" version="99999">
    <tag k="addr:city" v="Téglás"/>
    <tag k="addr:country" v="HU"/>
    <tag k="addr:housenumber" v="59"/>
    <tag k="addr:postcode" v="4243"/>
    <tag k="addr:street" v="Kossuth Lajos utca"/>
    <tag k="amenity" v="pharmacy"/>
    <tag k="dispensing" v="yes"/>
    <tag k="import" v="osm_poi_matchmaker"/>
    <tag k="name" v="Kulcs Patika"/>
    <tag k="payment:cash" v="yes"/>
    <tag k="payment:debit_cards" v="yes"/>
    <tag k="source" v="website"/>
    <tag k="source:date" v="2018-07-18"/>
    <tag k="website" v="https://www.kulcspatika.hupatikak/harsfavirag-gyogyszertar-es-gyogynovenybolt-p47"/>
  </node>
  <!-- OSM link: https://osm.org/node/3088235365 -->
  <!-- Original coordinates: POINT (47.53458127337 21.633242328758) -->
  <!-- OSM <-> POI distance: 8.68165731 m-->
  <!-- Checker good: {not_in_water}; bad {}-->
  <!-- Original tags: 'amenity':'pharmacy'; 'name':'Arany Oroszlán Gyógyszertár'; 'opening_hours':'Mo-Fr 08:00-19:00; Sa 08:00-13:00'; 'wheelchair':'yes';  -->
  <node action="modify" changeset="1" id="3088235365" lat="47.5346219949094" lon="21.6333409969886" timestamp="2014-11-02T21:04:22Z" uid="4579407" user="KAMI" version="2">
    <tag k="addr:city" v="Debrecen"/>
    <tag k="addr:country" v="HU"/>
    <tag k="addr:housenumber" v="66"/>
    <tag k="addr:postcode" v="4029"/>
    <tag k="addr:street" v="Csapó utca"/>
    <tag k="amenity" v="pharmacy"/>
    <tag k="dispensing" v="yes"/>
    <tag k="import" v="osm_poi_matchmaker"/>
    <tag k="name" v="Kulcs Patika"/>
    <tag k="opening_hours" v="Mo-Fr 08:00-19:00; Sa 08:00-13:00"/>
    <tag k="payment:cash" v="yes"/>
    <tag k="payment:debit_cards" v="yes"/>
    <tag k="source" v="website"/>
    <tag k="source:date" v="2018-07-18"/>
    <tag k="website" v="https://www.kulcspatika.hupatikak/arany-oroszlan-gyogyszertar-p6"/>
    <tag k="wheelchair" v="yes"/>
  </node>
  <!-- Original coordinates: POINT (47.546466926898 21.628528833389) -->
  <!-- OSM <-> POI distance: None m-->
  <!-- Checker good: {not_in_water}; bad {}-->
  <!-- Original tags:  -->
  <node action="modify" changeset="99999" id="-8" lat="47.546466926898" lon="21.628528833389" timestamp="" uid="4579407" user="KAMI" version="99999">
    <tag k="addr:city" v="Debrecen"/>
    <tag k="addr:country" v="HU"/>
    <tag k="addr:housenumber" v="4/A"/>
    <tag k="addr:postcode" v="4028"/>
    <tag k="addr:street" v="Géresi utca"/>
    <tag k="amenity" v="pharmacy"/>
    <tag k="dispensing" v="yes"/>
    <tag k="import" v="osm_poi_matchmaker"/>
    <tag k="name" v="Kulcs Patika"/>
    <tag k="payment:cash" v="yes"/>
    <tag k="payment:debit_cards" v="yes"/>
    <tag k="source" v="website"/>
    <tag k="source:date" v="2018-07-18"/>
    <tag k="website" v="https://www.kulcspatika.hupatikak/nagyerdei-patika-p76"/>
  </node>
  <!-- OSM link: https://osm.org/node/5274930866 -->
  <!-- Original coordinates: POINT (46.642999821858 21.272529959679) -->
  <!-- OSM <-> POI distance: 11.89471053 m-->
  <!-- Checker good: {not_in_water}; bad {}-->
  <!-- Original tags: 'amenity':'pharmacy'; 'name':'Aranykereszt Gyógyszertár'; 'opening_hours':'Mo-Fr 07:30-18:00; Sa 07:30-12:00';  -->
  <node action="modify" changeset="1" id="5274930866" lat="46.6429591949486" lon="21.2726740970388" timestamp="2017-12-10T10:26:09Z" uid="4579407" user="KAMI" version="1">
    <tag k="addr:city" v="Gyula"/>
    <tag k="addr:country" v="HU"/>
    <tag k="addr:housenumber" v="4"/>
    <tag k="addr:postcode" v="5700"/>
    <tag k="addr:street" v="Vásárhelyi Pál utca"/>
    <tag k="amenity" v="pharmacy"/>
    <tag k="dispensing" v="yes"/>
    <tag k="import" v="osm_poi_matchmaker"/>
    <tag k="name" v="Kulcs Patika"/>
    <tag k="opening_hours" v="Mo-Fr 07:30-18:00; Sa 07:30-12:00"/>
    <tag k="payment:cash" v="yes"/>
    <tag k="payment:debit_cards" v="yes"/>
    <tag k="source" v="website"/>
    <tag k="source:date" v="2018-07-18"/>
    <tag k="website" v="https://www.kulcspatika.hupatikak/aranykereszt-gyogyszertar-p9"/>
  </node>
  <!-- Original coordinates: POINT (46.425087006674 21.051338911057) -->
  <!-- OSM <-> POI distance: None m-->
  <!-- Checker good: {not_in_water}; bad {}-->
  <!-- Original tags:  -->
  <node action="modify" changeset="99999" id="-10" lat="46.425087006674" lon="21.051338911057" timestamp="" uid="4579407" user="KAMI" version="99999">
    <tag k="addr:city" v="Kunágota"/>
    <tag k="addr:country" v="HU"/>
    <tag k="addr:housenumber" v="28/B"/>
    <tag k="addr:postcode" v="5746"/>
    <tag k="addr:street" v="Rákóczi utca"/>
    <tag k="amenity" v="pharmacy"/>
    <tag k="dispensing" v="yes"/>
    <tag k="import" v="osm_poi_matchmaker"/>
    <tag k="name" v="Kulcs Patika"/>
    <tag k="payment:cash" v="yes"/>
    <tag k="payment:debit_cards" v="yes"/>
    <tag k="source" v="website"/>
    <tag k="source:date" v="2018-07-18"/>
    <tag k="website" v="https://www.kulcspatika.hupatikak/ametiszt-gyogyszertar-p152"/>
  </node>
  <!-- Original coordinates: POINT (46.650342 21.26511) -->
  <!-- OSM <-> POI distance: None m-->
  <!-- Checker good: {not_in_water}; bad {}-->
  <!-- Original tags:  -->
  <node action="modify" changeset="99999" id="-11" lat="46.650342" lon="21.26511" timestamp="" uid="4579407" user="KAMI" version="99999">
    <tag k="addr:city" v="Gyula"/>
    <tag k="addr:country" v="HU"/>
    <tag k="addr:housenumber" v="1/B"/>
    <tag k="addr:postcode" v="5700"/>
    <tag k="addr:street" v="Nürnbergi utca"/>
    <tag k="amenity" v="pharmacy"/>
    <tag k="dispensing" v="yes"/>
    <tag k="import" v="osm_poi_matchmaker"/>
    <tag k="name" v="Kulcs Patika"/>
    <tag k="payment:cash" v="yes"/>
    <tag k="payment:debit_cards" v="yes"/>
    <tag k="source" v="website"/>
    <tag k="source:date" v="2018-07-18"/>
    <tag k="website" v="https://www.kulcspatika.hupatikak/coronella-patika-p23"/>
  </node>
  <!-- OSM link: https://osm.org/node/5664505024 -->
  <!-- Original coordinates: POINT (45.850841550594 18.298678347221) -->
  <!-- OSM <-> POI distance: 1.57756253 m-->
  <!-- Checker good: {not_in_water}; bad {}-->
  <!-- Original tags: 'amenity':'pharmacy'; 'source':'survey';  -->
  <node action="modify" changeset="1" id="5664505024" lat="45.8508543949862" lon="18.2986869974528" timestamp="2018-06-04T18:26:12Z" uid="4579407" user="KAMI" version="1">
    <tag k="addr:city" v="Siklós"/>
    <tag k="addr:country" v="HU"/>
    <tag k="addr:housenumber" v="7"/>
    <tag k="addr:postcode" v="7800"/>
    <tag k="addr:street" v="Baross Gábor utca"/>
    <tag k="amenity" v="pharmacy"/>
    <tag k="dispensing" v="yes"/>
    <tag k="import" v="osm_poi_matchmaker"/>
    <tag k="name" v="Kulcs Patika"/>
    <tag k="payment:cash" v="yes"/>
    <tag k="payment:debit_cards" v="yes"/>
    <tag k="source" v="website"/>
    <tag k="source:date" v="2018-07-18"/>
    <tag k="website" v="https://www.kulcspatika.hupatikak/hollos-patika-p49"/>
  </node>
  <!-- OSM link: https://osm.org/node/4185907002 -->
  <!-- Original coordinates: POINT (46.735147 21.242569) -->
  <!-- OSM <-> POI distance: 34.85205079 m-->
  <!-- Checker good: {not_in_water}; bad {}-->
  <!-- Original tags: 'addr:city':'Doboz'; 'addr:housenumber':'2'; 'addr:postcode':'5624'; 'addr:street':'Nagy utca'; 'amenity':'pharmacy'; 'contact:email':'dobozipatika@t-online.hu'; 'contact:facebook':'https://www.facebook.com/kazaypatikadoboz'; 'contact:phone':'+36 66 268 762'; 'name':'Kazay Endre gyógyszertár';  -->
  <node action="modify" changeset="1" id="4185907002" lat="46.7353871949444" lon="21.242862797043" timestamp="2017-10-06T15:55:24Z" uid="4579407" user="KAMI" version="2">
    <tag k="addr:city" v="Doboz"/>
    <tag k="addr:country" v="HU"/>
    <tag k="addr:housenumber" v="2"/>
    <tag k="addr:postcode" v="5624"/>
    <tag k="addr:street" v="Marx utca"/>
    <tag k="amenity" v="pharmacy"/>
    <tag k="contact:email" v="dobozipatika@t-online.hu"/>
    <tag k="contact:facebook" v="https://www.facebook.com/kazaypatikadoboz"/>
    <tag k="contact:phone" v="+36 66 268 762"/>
    <tag k="dispensing" v="yes"/>
    <tag k="import" v="osm_poi_matchmaker"/>
    <tag k="name" v="Kulcs Patika"/>
    <tag k="payment:cash" v="yes"/>
    <tag k="payment:debit_cards" v="yes"/>
    <tag k="source" v="website"/>
    <tag k="source:date" v="2018-07-18"/>
    <tag k="website" v="https://www.kulcspatika.hupatikak/kazay-endre-gyogyszertar-p54"/>
  </node>
  <!-- OSM link: https://osm.org/way/376735557 -->
  <!-- Original coordinates: POINT (46.05339911054 17.788975682556) -->
  <!-- OSM <-> POI distance: 0.0 m-->
  <!-- Checker good: {not_in_water}; bad {}-->
  <!-- Original tags: 'addr:city':'Szigetvár'; 'addr:housenumber':'5'; 'addr:postcode':'7900'; 'addr:street':'Szent István lakótelep'; 'amenity':'pharmacy'; 'building':'yes'; 'name':'Boróka Patika';  -->
  <way action="modify" changeset="1" id="376735557" timestamp="2017-01-02T16:50:42Z" uid="4579407" user="KAMI" version="3">
    <nd ref="3801268010"/>
    <nd ref="3801268011"/>
    <nd ref="3801268012"/>
    <nd ref="3801268013"/>
    <nd ref="3801268010"/>
    <tag k="addr:city" v="Szigetvár"/>
    <tag k="addr:country" v="HU"/>
    <tag k="addr:housenumber" v="5"/>
    <tag k="addr:postcode" v="7900"/>
    <tag k="addr:street" v="Szent István lakótelep"/>
    <tag k="amenity" v="pharmacy"/>
    <tag k="building" v="yes"/>
    <tag k="dispensing" v="yes"/>
    <tag k="import" v="osm_poi_matchmaker"/>
    <tag k="name" v="Kulcs Patika"/>
    <tag k="payment:cash" v="yes"/>
    <tag k="payment:debit_cards" v="yes"/>
    <tag k="source" v="website"/>
    <tag k="source:date" v="2018-07-18"/>
    <tag k="website" v="https://www.kulcspatika.hupatikak/boroka-patika-p20"/>
  </way>
  <!-- OSM link: https://osm.org/node/2325161468 -->
  <!-- Original coordinates: POINT (47.680664631562 16.587772796295) -->
  <!-- OSM <-> POI distance: 15.21328126 m-->
  <!-- Checker good: {not_in_water}; bad {}-->
  <!-- Original tags: 'addr:city':'Sopron'; 'addr:housenumber':'35'; 'addr:postcode':'9400'; 'addr:street':'Deák tér'; 'amenity':'pharmacy'; 'email':'szebelledy@mail.pharmanet.hu'; 'fax':'+36 99 524891'; 'name':'Szebellédy'; 'opening_hours':'Mo-Fr 07:30-20:00;Sa 07:30-13:00'; 'phone':'+36 99 505469'; 'website':'http://szebelledysopron.novodata.hu/';  -->
  <node action="modify" changeset="1" id="2325161468" lat="47.6808012949033" lon="16.587782397691" timestamp="2014-09-05T16:17:21Z" uid="4579407" user="KAMI" version="2">
    <tag k="addr:city" v="Sopron"/>
    <tag k="addr:country" v="HU"/>
    <tag k="addr:housenumber" v="35"/>
    <tag k="addr:postcode" v="9400"/>
    <tag k="addr:street" v="Deák tér"/>
    <tag k="amenity" v="pharmacy"/>
    <tag k="dispensing" v="yes"/>
    <tag k="email" v="szebelledy@mail.pharmanet.hu"/>
    <tag k="fax" v="+36 99 524891"/>
    <tag k="import" v="osm_poi_matchmaker"/>
    <tag k="name" v="Kulcs Patika"/>
    <tag k="opening_hours" v="Mo-Fr 07:30-20:00;Sa 07:30-13:00"/>
    <tag k="payment:cash" v="yes"/>
    <tag k="payment:debit_cards" v="yes"/>
    <tag k="phone" v="+36 99 505469"/>
    <tag k="source" v="website"/>
    <tag k="source:date" v="2018-07-18"/>
    <tag k="website" v="https://www.kulcspatika.hupatikak/szebelledy-gyogyszertar-p98"/>
  </node>
  <!-- Original coordinates: POINT (46.699671458577 21.184275980186) -->
  <!-- OSM <-> POI distance: None m-->
  <!-- Checker good: {not_in_water}; bad {}-->
  <!-- Original tags:  -->
  <node action="modify" changeset="99999" id="-16" lat="46.699671458577" lon="21.184275980186" timestamp="" uid="4579407" user="KAMI" version="99999">
    <tag k="addr:city" v="Békéscsaba"/>
    <tag k="addr:country" v="HU"/>
    <tag k="addr:housenumber" v="11"/>
    <tag k="addr:postcode" v="5623"/>
    <tag k="addr:street" v="Weinckheim Károly tér"/>
    <tag k="amenity" v="pharmacy"/>
    <tag k="dispensing" v="yes"/>
    <tag k="import" v="osm_poi_matchmaker"/>
    <tag k="name" v="Kulcs Patika"/>
    <tag k="payment:cash" v="yes"/>
    <tag k="payment:debit_cards" v="yes"/>
    <tag k="source" v="website"/>
    <tag k="source:date" v="2018-07-18"/>
    <tag k="website" v="https://www.kulcspatika.hupatikak/kazay-endre-fiokgyogyszertar-p140"/>
  </node>
  <!-- Original coordinates: POINT (46.4667 20.9) -->
  <!-- OSM <-> POI distance: None m-->
  <!-- Checker good: {not_in_water}; bad {}-->
  <!-- Original tags:  -->
  <node action="modify" changeset="99999" id="-17" lat="46.4667" lon="20.9" timestamp="" uid="4579407" user="KAMI" version="99999">
    <tag k="addr:city" v="Mezőmegyer"/>
    <tag k="addr:country" v="HU"/>
    <tag k="addr:housenumber" v="1"/>
    <tag k="addr:postcode" v="5668"/>
    <tag k="addr:street" v="Október 23 tér"/>
    <tag k="amenity" v="pharmacy"/>
    <tag k="dispensing" v="yes"/>
    <tag k="import" v="osm_poi_matchmaker"/>
    <tag k="name" v="Kulcs Patika"/>
    <tag k="payment:cash" v="yes"/>
    <tag k="payment:debit_cards" v="yes"/>
    <tag k="source" v="website"/>
    <tag k="source:date" v="2018-07-18"/>
    <tag k="website" v="https://www.kulcspatika.hupatikak/isteni-gondviseles-fiokgyogyszertara-mezomegyer-p139"/>
  </node>
  <!-- OSM link: https://osm.org/node/5218035278 -->
  <!-- Original coordinates: POINT (46.038541034382 17.992145348549) -->
  <!-- OSM <-> POI distance: 15.18930509 m-->
  <!-- Checker good: {not_in_water}; bad {}-->
  <!-- Original tags: 'amenity':'pharmacy'; 'healthcare':'pharmacy'; 'name':'Harmónia';  -->
  <node action="modify" changeset="1" id="5218035278" lat="46.0386208949771" lon="17.9923049974955" timestamp="2017-11-08T13:25:36Z" uid="4579407" user="KAMI" version="1">
    <tag k="addr:city" v="Szentlőrinc"/>
    <tag k="addr:country" v="HU"/>
    <tag k="addr:housenumber" v="10"/>
    <tag k="addr:postcode" v="7940"/>
    <tag k="addr:street" v="Pécsi utca"/>
    <tag k="amenity" v="pharmacy"/>
    <tag k="dispensing" v="yes"/>
    <tag k="healthcare" v="pharmacy"/>
    <tag k="import" v="osm_poi_matchmaker"/>
    <tag k="name" v="Kulcs Patika"/>
    <tag k="payment:cash" v="yes"/>
    <tag k="payment:debit_cards" v="yes"/>
    <tag k="source" v="website"/>
    <tag k="source:date" v="2018-07-18"/>
    <tag k="website" v="https://www.kulcspatika.hupatikak/harmonia-patika-p45"/>
  </node>
  <!-- OSM link: https://osm.org/node/5218035277 -->
  <!-- Original coordinates: POINT (46.042204886539 17.985536139881) -->
  <!-- OSM <-> POI distance: 14.20924089 m-->
  <!-- Checker good: {not_in_water}; bad {}-->
  <!-- Original tags: 'amenity':'pharmacy'; 'healthcare':'pharmacy'; 'name':'Fehér Kereszt Patika';  -->
  <node action="modify" changeset="1" id="5218035277" lat="46.0421430949769" lon="17.9853749974964" timestamp="2017-11-08T13:25:36Z" uid="4579407" user="KAMI" version="1">
    <tag k="addr:city" v="Szentlőrinc"/>
    <tag k="addr:country" v="HU"/>
    <tag k="addr:housenumber" v="1"/>
    <tag k="addr:postcode" v="7940"/>
    <tag k="addr:street" v="Kossuth Lajos utca"/>
    <tag k="amenity" v="pharmacy"/>
    <tag k="dispensing" v="yes"/>
    <tag k="healthcare" v="pharmacy"/>
    <tag k="import" v="osm_poi_matchmaker"/>
    <tag k="name" v="Kulcs Patika"/>
    <tag k="payment:cash" v="yes"/>
    <tag k="payment:debit_cards" v="yes"/>
    <tag k="source" v="website"/>
    <tag k="source:date" v="2018-07-18"/>
    <tag k="website" v="https://www.kulcspatika.hupatikak/feher-kereszt-patika-p33"/>
  </node>
  <!-- Original coordinates: POINT (46.680124228275 21.102411364418) -->
  <!-- OSM <-> POI distance: None m-->
  <!-- Checker good: {not_in_water}; bad {}-->
  <!-- Original tags:  -->
  <node action="modify" changeset="99999" id="-20" lat="46.680124228275" lon="21.102411364418" timestamp="" uid="4579407" user="KAMI" version="99999">
    <tag k="addr:city" v="Békéscsaba"/>
    <tag k="addr:country" v="HU"/>
    <tag k="addr:housenumber" v="5"/>
    <tag k="addr:postcode" v="5600"/>
    <tag k="addr:street" v="Deák utca"/>
    <tag k="amenity" v="pharmacy"/>
    <tag k="dispensing" v="yes"/>
    <tag k="import" v="osm_poi_matchmaker"/>
    <tag k="name" v="Kulcs Patika"/>
    <tag k="payment:cash" v="yes"/>
    <tag k="payment:debit_cards" v="yes"/>
    <tag k="source" v="website"/>
    <tag k="source:date" v="2018-07-18"/>
    <tag k="website" v="https://www.kulcspatika.hupatikak/isteni-gondviseles-gyogyszertara-p1"/>
  </node>
  <!-- Original coordinates: POINT (46.678175498277 21.092687834324) -->
  <!-- OSM <-> POI distance: None m-->
  <!-- Checker good: {not_in_water}; bad {}-->
  <!-- Original tags:  -->
  <node action="modify" changeset="99999" id="-21" lat="46.678175498277" lon="21.092687834324" timestamp="" uid="4579407" user="KAMI" version="99999">
    <tag k="addr:city" v="Békéscsaba"/>
    <tag k="addr:country" v="HU"/>
    <tag k="addr:housenumber" v="2"/>
    <tag k="addr:postcode" v="5600"/>
    <tag k="addr:street" v="Mednyánszky utca"/>
    <tag k="amenity" v="pharmacy"/>
    <tag k="dispensing" v="yes"/>
    <tag k="import" v="osm_poi_matchmaker"/>
    <tag k="name" v="Kulcs Patika"/>
    <tag k="payment:cash" v="yes"/>
    <tag k="payment:debit_cards" v="yes"/>
    <tag k="source" v="website"/>
    <tag k="source:date" v="2018-07-18"/>
    <tag k="website" v="https://www.kulcspatika.hupatikak/kigyo-gyogyszertar-p55"/>
  </node>
  <!-- OSM link: https://osm.org/node/2704920520 -->
  <!-- Original coordinates: POINT (46.926302476764 21.264256303076) -->
  <!-- OSM <-> POI distance: 7.74687511 m-->
  <!-- Checker good: {not_in_water}; bad {}-->
  <!-- Original tags: 'amenity':'pharmacy';  -->
  <node action="modify" changeset="1" id="2704920520" lat="46.9262335949358" lon="21.26427159704" timestamp="2014-03-07T00:05:36Z" uid="4579407" user="KAMI" version="1">
    <tag k="addr:city" v="Vésztő"/>
    <tag k="addr:country" v="HU"/>
    <tag k="addr:housenumber" v="64"/>
    <tag k="addr:postcode" v="5530"/>
    <tag k="addr:street" v="Kossuth Lajos utca"/>
    <tag k="amenity" v="pharmacy"/>
    <tag k="dispensing" v="yes"/>
    <tag k="import" v="osm_poi_matchmaker"/>
    <tag k="name" v="Kulcs Patika"/>
    <tag k="payment:cash" v="yes"/>
    <tag k="payment:debit_cards" v="yes"/>
    <tag k="source" v="website"/>
    <tag k="source:date" v="2018-07-18"/>
    <tag k="website" v="https://www.kulcspatika.hupatikak/kristaly-patika-p65"/>
  </node>
  <!-- Original coordinates: POINT (46.215271909319 20.474449246697) -->
  <!-- OSM <-> POI distance: None m-->
  <!-- Checker good: {not_in_water}; bad {}-->
  <!-- Original tags:  -->
  <node action="modify" changeset="99999" id="-23" lat="46.215271909319" lon="20.474449246697" timestamp="" uid="4579407" user="KAMI" version="99999">
    <tag k="addr:city" v="Makó"/>
    <tag k="addr:country" v="HU"/>
    <tag k="addr:housenumber" v="8"/>
    <tag k="addr:postcode" v="6900"/>
    <tag k="addr:street" v="Széchenyi tér"/>
    <tag k="amenity" v="pharmacy"/>
    <tag k="dispensing" v="yes"/>
    <tag k="import" v="osm_poi_matchmaker"/>
    <tag k="name" v="Kulcs Patika"/>
    <tag k="payment:cash" v="yes"/>
    <tag k="payment:debit_cards" v="yes"/>
    <tag k="source" v="website"/>
    <tag k="source:date" v="2018-07-18"/>
    <tag k="website" v="https://www.kulcspatika.hupatikak/kigyo-gyogyszertar-p56"/>
  </node>
  <!-- Original coordinates: POINT (46.065876 18.16902) -->
  <!-- OSM <-> POI distance: None m-->
  <!-- Checker good: {not_in_water}; bad {}-->
  <!-- Original tags:  -->
  <node action="modify" changeset="99999" id="-24" lat="46.065876" lon="18.16902" timestamp="" uid="4579407" user="KAMI" version="99999">
    <tag k="addr:city" v="Pécs"/>
    <tag k="addr:country" v="HU"/>
    <tag k="addr:housenumber" v="52"/>
    <tag k="addr:postcode" v="7634"/>
    <tag k="addr:street" v="Pellérdi út"/>
    <tag k="amenity" v="pharmacy"/>
    <tag k="dispensing" v="yes"/>
    <tag k="import" v="osm_poi_matchmaker"/>
    <tag k="name" v="Kulcs Patika"/>
    <tag k="payment:cash" v="yes"/>
    <tag k="payment:debit_cards" v="yes"/>
    <tag k="source" v="website"/>
    <tag k="source:date" v="2018-07-18"/>
    <tag k="website" v="https://www.kulcspatika.hupatikak/zsongorko-gyogyszertar-p116"/>
  </node>
  <!-- Original coordinates: POINT (46.657012709991 20.951911561673) -->
  <!-- OSM <-> POI distance: None m-->
  <!-- Checker good: {not_in_water}; bad {}-->
  <!-- Original tags:  -->
  <node action="modify" changeset="99999" id="-25" lat="46.657012709991" lon="20.951911561673" timestamp="" uid="4579407" user="KAMI" version="99999">
    <tag k="addr:city" v="Telekgerendás"/>
    <tag k="addr:country" v="HU"/>
    <tag k="addr:housenumber" v="13"/>
    <tag k="addr:postcode" v="5675"/>
    <tag k="addr:street" v="Dózsa György utca"/>
    <tag k="amenity" v="pharmacy"/>
    <tag k="dispensing" v="yes"/>
    <tag k="import" v="osm_poi_matchmaker"/>
    <tag k="name" v="Kulcs Patika"/>
    <tag k="payment:cash" v="yes"/>
    <tag k="payment:debit_cards" v="yes"/>
    <tag k="source" v="website"/>
    <tag k="source:date" v="2018-07-18"/>
    <tag k="website" v="https://www.kulcspatika.hupatikak/isteni-gondviseles-fiokgyogyszertara-telekgerendas-p138"/>
  </node>
  <!-- OSM link: https://osm.org/node/2342204406 -->
  <!-- Original coordinates: POINT (46.073684028838 18.2317667) -->
  <!-- OSM <-> POI distance: 42.63620039 m-->
  <!-- Checker good: {not_in_water}; bad {}-->
  <!-- Original tags: 'amenity':'pharmacy'; 'name':'Belvárosi gyógyszertár';  -->
  <node action="modify" changeset="1" id="2342204406" lat="46.0736006949754" lon="18.2312271974622" timestamp="2013-11-02T12:59:43Z" uid="4579407" user="KAMI" version="2">
    <tag k="addr:city" v="Pécs"/>
    <tag k="addr:country" v="HU"/>
    <tag k="addr:housenumber" v="49"/>
    <tag k="addr:postcode" v="7621"/>
    <tag k="addr:street" v="Rákóczi út"/>
    <tag k="amenity" v="pharmacy"/>
    <tag k="dispensing" v="yes"/>
    <tag k="import" v="osm_poi_matchmaker"/>
    <tag k="name" v="Kulcs Patika"/>
    <tag k="payment:cash" v="yes"/>
    <tag k="payment:debit_cards" v="yes"/>
    <tag k="source" v="website"/>
    <tag k="source:date" v="2018-07-18"/>
    <tag k="website" v="https://www.kulcspatika.hupatikak/belvarosi-gyogyszertar-p178"/>
  </node>
  <!-- OSM link: https://osm.org/node/3487683307 -->
  <!-- Original coordinates: POINT (46.217982 20.244144) -->
  <!-- OSM <-> POI distance: 19.83088384 m-->
  <!-- Checker good: {not_in_water}; bad {}-->
  <!-- Original tags: 'amenity':'pharmacy'; 'source':'turistautak.hu'; 'source:date':'2012-10-15'; 'url':'http://turistautak.hu/poi.php?id=136025';  -->
  <node action="modify" changeset="1" id="3487683307" lat="46.2178729949685" lon="20.243939997182" timestamp="2015-04-29T21:54:39Z" uid="4579407" user="KAMI" version="1">
    <tag k="addr:city" v="Deszk"/>
    <tag k="addr:country" v="HU"/>
    <tag k="addr:housenumber" v="29"/>
    <tag k="addr:postcode" v="6772"/>
    <tag k="addr:street" v="Felszabadulás utca"/>
    <tag k="amenity" v="pharmacy"/>
    <tag k="dispensing" v="yes"/>
    <tag k="import" v="osm_poi_matchmaker"/>
    <tag k="name" v="Kulcs Patika"/>
    <tag k="payment:cash" v="yes"/>
    <tag k="payment:debit_cards" v="yes"/>
    <tag k="source" v="website"/>
    <tag k="source:date" v="2018-07-18"/>
    <tag k="url" v="http://turistautak.hu/poi.php?id=136025"/>
    <tag k="website" v="https://www.kulcspatika.hupatikak/cedrus-patika-p22"/>
  </node>
  <!-- OSM link: https://osm.org/node/1240913256 -->
  <!-- Original coordinates: POINT (46.248094420038 20.145320321426) -->
  <!-- OSM <-> POI distance: 14.27634072 m-->
  <!-- Checker good: {not_in_water}; bad {}-->
  <!-- Original tags: 'addr:city':'Szeged'; 'addr:postcode':'6722'; 'alt_name':'Kabay-Med Patika'; 'amenity':'pharmacy'; 'contact:email':'info@kabaysz.paticard.hu'; 'contact:phone':'+36 62 420763'; 'contact:website':'http://www.kabaysz.paticard.hu'; 'name':'Kabay Patika'; 'opening_hours':'Mo-Fr 07:00-21:00; Sa 08:00-15:00; PH off'; 'operator':'Gyöngy Patikák';  -->
  <node action="modify" changeset="1" id="1240913256" lat="46.247998294967" lon="20.1454433971957" timestamp="2018-04-14T08:18:57Z" uid="4579407" user="KAMI" version="7">
    <tag k="addr:city" v="Szeged"/>
    <tag k="addr:country" v="HU"/>
    <tag k="addr:housenumber" v="95"/>
    <tag k="addr:postcode" v="6722"/>
    <tag k="addr:street" v="Tisza Lajos körút"/>
    <tag k="alt_name" v="Kabay-Med Patika"/>
    <tag k="amenity" v="pharmacy"/>
    <tag k="contact:email" v="info@kabaysz.paticard.hu"/>
    <tag k="contact:phone" v="+36 62 420763"/>
    <tag k="contact:website" v="http://www.kabaysz.paticard.hu"/>
    <tag k="dispensing" v="yes"/>
    <tag k="import" v="osm_poi_matchmaker"/>
    <tag k="name" v="Kulcs Patika"/>
    <tag k="opening_hours" v="Mo-Fr 07:00-21:00; Sa 08:00-15:00; PH off"/>
    <tag k="operator" v="Gyöngy Patikák"/>
    <tag k="payment:cash" v="yes"/>
    <tag k="payment:debit_cards" v="yes"/>
    <tag k="source" v="website"/>
    <tag k="source:date" v="2018-07-18"/>
    <tag k="website" v="https://www.kulcspatika.hupatikak/kabay-patika-p53"/>
  </node>
  <!-- OSM link: https://osm.org/node/4876287703 -->
  <!-- Original coordinates: POINT (46.247344309733 20.138343796134) -->
  <!-- OSM <-> POI distance: 14.62193142 m-->
  <!-- Checker good: {not_in_water}; bad {}-->
  <!-- Original tags: 'amenity':'pharmacy'; 'name':'Arany Oroszlán'; 'name:de':'Zum Goldenen Löwen'; 'name:en':'The Golden Lion'; 'opening_hours':'Mo-Fr 07:30-18:00; Sa 08:00-12:00'; 'payment:debit_cards':'yes';  -->
  <node action="modify" changeset="1" id="4876287703" lat="46.2473702949671" lon="20.1385301971967" timestamp="2017-05-25T15:21:22Z" uid="4579407" user="KAMI" version="1">
    <tag k="addr:city" v="Szeged"/>
    <tag k="addr:country" v="HU"/>
    <tag k="addr:housenumber" v="41"/>
    <tag k="addr:postcode" v="6722"/>
    <tag k="addr:street" v="Petőfi Sándor sugárút"/>
    <tag k="amenity" v="pharmacy"/>
    <tag k="dispensing" v="yes"/>
    <tag k="import" v="osm_poi_matchmaker"/>
    <tag k="name" v="Kulcs Patika"/>
    <tag k="name:de" v="Zum Goldenen Löwen"/>
    <tag k="name:en" v="The Golden Lion"/>
    <tag k="opening_hours" v="Mo-Fr 07:30-18:00; Sa 08:00-12:00"/>
    <tag k="payment:cash" v="yes"/>
    <tag k="payment:debit_cards" v="yes"/>
    <tag k="source" v="website"/>
    <tag k="source:date" v="2018-07-18"/>
    <tag k="website" v="https://www.kulcspatika.hupatikak/arany-oroszlan-gyogyszertar-p162"/>
  </node>
  <!-- OSM link: https://osm.org/node/4051364463 -->
  <!-- Original coordinates: POINT (46.369126 17.787932) -->
  <!-- OSM <-> POI distance: 8.39059626 m-->
  <!-- Checker good: {not_in_water}; bad {}-->
  <!-- Original tags: 'addr:city':'Kaposvár'; 'addr:housenumber':'21'; 'addr:postcode':'7400'; 'addr:street':'Kisfaludy utca'; 'amenity':'pharmacy'; 'name':'Őrangyal Patika';  -->
  <node action="modify" changeset="1" id="4051364463" lat="46.3691623949613" lon="17.7880277975239" timestamp="2016-03-09T17:00:16Z" uid="4579407" user="KAMI" version="1">
    <tag k="addr:city" v="Kaposvár"/>
    <tag k="addr:country" v="HU"/>
    <tag k="addr:housenumber" v="21"/>
    <tag k="addr:postcode" v="7400"/>
    <tag k="addr:street" v="Kisfaludy utca"/>
    <tag k="amenity" v="pharmacy"/>
    <tag k="dispensing" v="yes"/>
    <tag k="import" v="osm_poi_matchmaker"/>
    <tag k="name" v="Kulcs Patika"/>
    <tag k="payment:cash" v="yes"/>
    <tag k="payment:debit_cards" v="yes"/>
    <tag k="source" v="website"/>
    <tag k="source:date" v="2018-07-18"/>
    <tag k="website" v="https://www.kulcspatika.hupatikak/orangyal-patika-p79"/>
  </node>
  <!-- Original coordinates: POINT (47.318279481784 21.115019917488) -->
  <!-- OSM <-> POI distance: None m-->
  <!-- Checker good: {not_in_water}; bad {}-->
  <!-- Original tags:  -->
  <node action="modify" changeset="99999" id="-31" lat="47.318279481784" lon="21.115019917488" timestamp="" uid="4579407" user="KAMI" version="99999">
    <tag k="addr:city" v="Püspökladány"/>
    <tag k="addr:country" v="HU"/>
    <tag k="addr:housenumber" v="5"/>
    <tag k="addr:postcode" v="4150"/>
    <tag k="addr:street" v="Petőfi utca"/>
    <tag k="amenity" v="pharmacy"/>
    <tag k="dispensing" v="yes"/>
    <tag k="import" v="osm_poi_matchmaker"/>
    <tag k="name" v="Kulcs Patika"/>
    <tag k="payment:cash" v="yes"/>
    <tag k="payment:debit_cards" v="yes"/>
    <tag k="source" v="website"/>
    <tag k="source:date" v="2018-07-18"/>
    <tag k="website" v="https://www.kulcspatika.hupatikak/remeny-gyogyszertar-p90"/>
  </node>
  <!-- OSM link: https://osm.org/node/4597083753 -->
  <!-- Original coordinates: POINT (46.331532 20.205621) -->
  <!-- OSM <-> POI distance: 18.10407976 m-->
  <!-- Checker good: {not_in_water}; bad {}-->
  <!-- Original tags: 'addr:city':'Algyő'; 'addr:housenumber':'42'; 'addr:postcode':'6750'; 'addr:street':'Egészségház utca'; 'amenity':'pharmacy'; 'name':'Gyevi Patika';  -->
  <node action="modify" changeset="1" id="4597083753" lat="46.3316946949631" lon="20.2056119971874" timestamp="2017-03-29T15:46:13Z" uid="4579407" user="KAMI" version="2">
    <tag k="addr:city" v="Algyő"/>
    <tag k="addr:country" v="HU"/>
    <tag k="addr:housenumber" v="42"/>
    <tag k="addr:postcode" v="6750"/>
    <tag k="addr:street" v="Egészségház utca"/>
    <tag k="amenity" v="pharmacy"/>
    <tag k="dispensing" v="yes"/>
    <tag k="import" v="osm_poi_matchmaker"/>
    <tag k="name" v="Kulcs Patika"/>
    <tag k="payment:cash" v="yes"/>
    <tag k="payment:debit_cards" v="yes"/>
    <tag k="source" v="website"/>
    <tag k="source:date" v="2018-07-18"/>
    <tag k="website" v="https://www.kulcspatika.hupatikak/gyevi-gyogyszertar-p40"/>
  </node>
  <!-- OSM link: https://osm.org/way/234156509 -->
  <!-- Original coordinates: POINT (46.190594995072 18.264003233135) -->
  <!-- OSM <-> POI distance: 30.06226393 m-->
  <!-- Checker good: {not_in_water}; bad {}-->
  <!-- Original tags: 'amenity':'pharmacy'; 'building':'yes'; 'wheelchair':'no';  -->
  <way action="modify" changeset="1" id="234156509" timestamp="2014-08-09T21:33:30Z" uid="4579407" user="KAMI" version="3">
    <nd ref="2424559454"/>
    <nd ref="2424559456"/>
    <nd ref="2424559459"/>
    <nd ref="2424559461"/>
    <nd ref="2424559454"/>
    <tag k="addr:city" v="Komló"/>
    <tag k="addr:country" v="HU"/>
    <tag k="addr:housenumber" v="101"/>
    <tag k="addr:postcode" v="7300"/>
    <tag k="addr:street" v="Kossuth Lajos utca"/>
    <tag k="amenity" v="pharmacy"/>
    <tag k="building" v="yes"/>
    <tag k="dispensing" v="yes"/>
    <tag k="import" v="osm_poi_matchmaker"/>
    <tag k="name" v="Kulcs Patika"/>
    <tag k="payment:cash" v="yes"/>
    <tag k="payment:debit_cards" v="yes"/>
    <tag k="source" v="website"/>
    <tag k="source:date" v="2018-07-18"/>
    <tag k="website" v="https://www.kulcspatika.hupatikak/vital-plusz-gyogyszertar-p176"/>
    <tag k="wheelchair" v="no"/>
  </way>
  <!-- OSM link: https://osm.org/way/433530804 -->
  <!-- Original coordinates: POINT (46.275558283521 20.062189699355) -->
  <!-- OSM <-> POI distance: 28.43552932 m-->
  <!-- Checker good: {not_in_water}; bad {}-->
  <!-- Original tags: 'addr:city':'Szeged'; 'addr:housenumber':'10'; 'addr:postcode':'6791'; 'addr:street':'Negyvennyolcas utca'; 'amenity':'pharmacy'; 'building':'yes'; 'opening_hours':'Mo-Fr 07:00-19:00; week 2-25/2 Sa 08:00-12:00'; 'phone':'+36 62 461 229'; 'source':'http://www.webbeteg.hu/keresok/patika/2405/';  -->
  <way action="modify" changeset="1" id="433530804" timestamp="2016-12-16T21:13:47Z" uid="4579407" user="KAMI" version="5">
    <nd ref="4322141046"/>
    <nd ref="4322141047"/>
    <nd ref="4322248548"/>
    <nd ref="4322307736"/>
    <nd ref="4322307737"/>
    <nd ref="4322141049"/>
    <nd ref="4322141050"/>
    <nd ref="4322141046"/>
    <tag k="addr:city" v="Szeged"/>
    <tag k="addr:country" v="HU"/>
    <tag k="addr:housenumber" v="10"/>
    <tag k="addr:postcode" v="6791"/>
    <tag k="addr:street" v="Negyvennyolcas utca"/>
    <tag k="amenity" v="pharmacy"/>
    <tag k="building" v="yes"/>
    <tag k="dispensing" v="yes"/>
    <tag k="import" v="osm_poi_matchmaker"/>
    <tag k="name" v="Kulcs Patika"/>
    <tag k="opening_hours" v="Mo-Fr 07:00-19:00; week 2-25/2 Sa 08:00-12:00"/>
    <tag k="payment:cash" v="yes"/>
    <tag k="payment:debit_cards" v="yes"/>
    <tag k="phone" v="+36 62 461 229"/>
    <tag k="source" v="website"/>
    <tag k="source:date" v="2018-07-18"/>
    <tag k="website" v="https://www.kulcspatika.hupatikak/szent-istvan-gyogyszertar-p104"/>
  </way>
  <!-- Original coordinates: POINT (46.109037 18.988092) -->
  <!-- OSM <-> POI distance: None m-->
  <!-- Checker good: {not_in_water}; bad {}-->
  <!-- Original tags:  -->
  <node action="modify" changeset="99999" id="-35" lat="46.109037" lon="18.988092" timestamp="" uid="4579407" user="KAMI" version="99999">
    <tag k="addr:city" v="Vaskút"/>
    <tag k="addr:country" v="HU"/>
    <tag k="addr:housenumber" v="93"/>
    <tag k="addr:postcode" v="6521"/>
    <tag k="addr:street" v="Kossuth Lajos utca"/>
    <tag k="amenity" v="pharmacy"/>
    <tag k="dispensing" v="yes"/>
    <tag k="import" v="osm_poi_matchmaker"/>
    <tag k="name" v="Kulcs Patika"/>
    <tag k="payment:cash" v="yes"/>
    <tag k="payment:debit_cards" v="yes"/>
    <tag k="source" v="website"/>
    <tag k="source:date" v="2018-07-18"/>
    <tag k="website" v="https://www.kulcspatika.hupatikak/szent-gyorgy-patika-p102"/>
  </node>
  <!-- Original coordinates: POINT (47.027362 20.96135) -->
  <!-- OSM <-> POI distance: None m-->
  <!-- Checker good: {not_in_water}; bad {}-->
  <!-- Original tags:  -->
  <node action="modify" changeset="99999" id="-36" lat="47.027362" lon="20.96135" timestamp="" uid="4579407" user="KAMI" version="99999">
    <tag k="addr:city" v="Dévaványa"/>
    <tag k="addr:country" v="HU"/>
    <tag k="addr:housenumber" v="3"/>
    <tag k="addr:postcode" v="5510"/>
    <tag k="addr:street" v="Hősök tere"/>
    <tag k="amenity" v="pharmacy"/>
    <tag k="dispensing" v="yes"/>
    <tag k="import" v="osm_poi_matchmaker"/>
    <tag k="name" v="Kulcs Patika"/>
    <tag k="payment:cash" v="yes"/>
    <tag k="payment:debit_cards" v="yes"/>
    <tag k="source" v="website"/>
    <tag k="source:date" v="2018-07-18"/>
    <tag k="website" v="https://www.kulcspatika.hupatikak/deva-patika-p26"/>
  </node>
  <!-- OSM link: https://osm.org/way/586388008 -->
  <!-- Original coordinates: POINT (46.671022 20.670733) -->
  <!-- OSM <-> POI distance: 3.62480003 m-->
  <!-- Checker good: {not_in_water}; bad {}-->
  <!-- Original tags: 'amenity':'pharmacy'; 'building':'yes'; 'dispensing':'yes'; 'healthcare':'pharmacy'; 'name':'Gyógyszertár';  -->
  <way action="modify" changeset="1" id="586388008" timestamp="2018-05-07T17:46:19Z" uid="4579407" user="KAMI" version="1">
    <nd ref="5602714236"/>
    <nd ref="5602714237"/>
    <nd ref="5602714238"/>
    <nd ref="5602714239"/>
    <nd ref="5602714236"/>
    <tag k="addr:city" v="Nagyszénás"/>
    <tag k="addr:country" v="HU"/>
    <tag k="addr:housenumber" v="6"/>
    <tag k="addr:postcode" v="5931"/>
    <tag k="addr:street" v="Március 15. tér"/>
    <tag k="amenity" v="pharmacy"/>
    <tag k="building" v="yes"/>
    <tag k="dispensing" v="yes"/>
    <tag k="healthcare" v="pharmacy"/>
    <tag k="import" v="osm_poi_matchmaker"/>
    <tag k="name" v="Kulcs Patika"/>
    <tag k="payment:cash" v="yes"/>
    <tag k="payment:debit_cards" v="yes"/>
    <tag k="source" v="website"/>
    <tag k="source:date" v="2018-07-18"/>
    <tag k="website" v="https://www.kulcspatika.hupatikak/korona-gyogyszertar-p59"/>
  </way>
  <!-- OSM link: https://osm.org/way/245817217 -->
  <!-- Original coordinates: POINT (46.361546967733 20.098366141319) -->
  <!-- OSM <-> POI distance: 1.42274522 m-->
  <!-- Checker good: {not_in_water}; bad {}-->
  <!-- Original tags: 'amenity':'pharmacy'; 'building':'yes'; 'dispensing':'yes'; 'name':'Fagyöngy Gyógyszertár';  -->
  <way action="modify" changeset="1" id="245817217" timestamp="2013-11-13T10:28:34Z" uid="4579407" user="KAMI" version="2">
    <nd ref="2529336355"/>
    <nd ref="2529336353"/>
    <nd ref="2529336354"/>
    <nd ref="2529336356"/>
    <nd ref="2529336355"/>
    <tag k="addr:city" v="Sándorfalva"/>
    <tag k="addr:country" v="HU"/>
    <tag k="addr:housenumber" v="13"/>
    <tag k="addr:postcode" v="6762"/>
    <tag k="addr:street" v="Széchenyi utca"/>
    <tag k="amenity" v="pharmacy"/>
    <tag k="building" v="yes"/>
    <tag k="dispensing" v="yes"/>
    <tag k="import" v="osm_poi_matchmaker"/>
    <tag k="name" v="Kulcs Patika"/>
    <tag k="payment:cash" v="yes"/>
    <tag k="payment:debit_cards" v="yes"/>
    <tag k="source" v="website"/>
    <tag k="source:date" v="2018-07-18"/>
    <tag k="website" v="https://www.kulcspatika.hupatikak/fagyongy-patika-p32"/>
  </way>
  <!-- Original coordinates: POINT (46.794463483604 20.716844683456) -->
  <!-- OSM <-> POI distance: None m-->
  <!-- Checker good: {not_in_water}; bad {}-->
  <!-- Original tags:  -->
  <node action="modify" changeset="99999" id="-39" lat="46.794463483604" lon="20.716844683456" timestamp="" uid="4579407" user="KAMI" version="99999">
    <tag k="addr:city" v="Kardos"/>
    <tag k="addr:country" v="HU"/>
    <tag k="addr:housenumber" v="22"/>
    <tag k="addr:postcode" v="5552"/>
    <tag k="addr:street" v="Gyomai út"/>
    <tag k="amenity" v="pharmacy"/>
    <tag k="dispensing" v="yes"/>
    <tag k="import" v="osm_poi_matchmaker"/>
    <tag k="name" v="Kulcs Patika"/>
    <tag k="payment:cash" v="yes"/>
    <tag k="payment:debit_cards" v="yes"/>
    <tag k="source" v="website"/>
    <tag k="source:date" v="2018-07-18"/>
    <tag k="website" v="https://www.kulcspatika.hupatikak/kardosi-fiokgyogyszertar-p126"/>
  </node>
  <!-- OSM link: https://osm.org/node/2510447173 -->
  <!-- Original coordinates: POINT (46.165537857637 18.955113588955) -->
  <!-- OSM <-> POI distance: 7.47102567 m-->
  <!-- Checker good: {not_in_water}; bad {}-->
  <!-- Original tags: 'amenity':'pharmacy'; 'name':'Forrás Patika';  -->
  <node action="modify" changeset="1" id="2510447173" lat="46.165563094971" lon="18.9552034973614" timestamp="2013-10-27T15:24:51Z" uid="4579407" user="KAMI" version="1">
    <tag k="addr:city" v="Baja"/>
    <tag k="addr:country" v="HU"/>
    <tag k="addr:housenumber" v="1/I"/>
    <tag k="addr:postcode" v="6500"/>
    <tag k="addr:street" v="Lőkert sor"/>
    <tag k="amenity" v="pharmacy"/>
    <tag k="dispensing" v="yes"/>
    <tag k="import" v="osm_poi_matchmaker"/>
    <tag k="name" v="Kulcs Patika"/>
    <tag k="payment:cash" v="yes"/>
    <tag k="payment:debit_cards" v="yes"/>
    <tag k="source" v="website"/>
    <tag k="source:date" v="2018-07-18"/>
    <tag k="website" v="https://www.kulcspatika.hupatikak/forras-patika-p37"/>
  </node>
  <!-- Original coordinates: POINT (46.20851 19.536371) -->
  <!-- OSM <-> POI distance: None m-->
  <!-- Checker good: {not_in_water}; bad {}-->
  <!-- Original tags:  -->
  <node action="modify" changeset="99999" id="-41" lat="46.20851" lon="19.536371" timestamp="" uid="4579407" user="KAMI" version="99999">
    <tag k="addr:city" v="Tompa"/>
    <tag k="addr:country" v="HU"/>
    <tag k="addr:housenumber" v="22"/>
    <tag k="addr:postcode" v="6422"/>
    <tag k="addr:street" v="Kossuth utca"/>
    <tag k="amenity" v="pharmacy"/>
    <tag k="dispensing" v="yes"/>
    <tag k="import" v="osm_poi_matchmaker"/>
    <tag k="name" v="Kulcs Patika"/>
    <tag k="payment:cash" v="yes"/>
    <tag k="payment:debit_cards" v="yes"/>
    <tag k="source" v="website"/>
    <tag k="source:date" v="2018-07-18"/>
    <tag k="website" v="https://www.kulcspatika.hupatikak/hovirag-gyogyszertar-p50"/>
  </node>
  <!-- Original coordinates: POINT (46.273698415925 18.377264542328) -->
  <!-- OSM <-> POI distance: None m-->
  <!-- Checker good: {not_in_water}; bad {}-->
  <!-- Original tags:  -->
  <node action="modify" changeset="99999" id="-42" lat="46.273698415925" lon="18.377264542328" timestamp="" uid="4579407" user="KAMI" version="99999">
    <tag k="addr:city" v="Szászvár"/>
    <tag k="addr:country" v="HU"/>
    <tag k="addr:housenumber" v="3"/>
    <tag k="addr:postcode" v="7349"/>
    <tag k="addr:street" v="Május 1. tér"/>
    <tag k="amenity" v="pharmacy"/>
    <tag k="dispensing" v="yes"/>
    <tag k="import" v="osm_poi_matchmaker"/>
    <tag k="name" v="Kulcs Patika"/>
    <tag k="payment:cash" v="yes"/>
    <tag k="payment:debit_cards" v="yes"/>
    <tag k="source" v="website"/>
    <tag k="source:date" v="2018-07-18"/>
    <tag k="website" v="https://www.kulcspatika.hupatikak/szentharomsag-gyogyszertar-p110"/>
  </node>
  <!-- OSM link: https://osm.org/node/3628183931 -->
  <!-- Original coordinates: POINT (46.288989452273 19.745244474869) -->
  <!-- OSM <-> POI distance: 6.73831952 m-->
  <!-- Checker good: {not_in_water}; bad {}-->
  <!-- Original tags: 'addr:city':'Ruzsa'; 'addr:postcode':'6786'; 'amenity':'pharmacy';  -->
  <node action="modify" changeset="1" id="3628183931" lat="46.2889990949651" lon="19.7451578972514" timestamp="2015-07-01T05:54:47Z" uid="4579407" user="KAMI" version="1">
    <tag k="addr:city" v="Ruzsa"/>
    <tag k="addr:country" v="HU"/>
    <tag k="addr:housenumber" v="8-9"/>
    <tag k="addr:postcode" v="6786"/>
    <tag k="addr:street" v="Tömörkény tér"/>
    <tag k="amenity" v="pharmacy"/>
    <tag k="dispensing" v="yes"/>
    <tag k="import" v="osm_poi_matchmaker"/>
    <tag k="name" v="Kulcs Patika"/>
    <tag k="payment:cash" v="yes"/>
    <tag k="payment:debit_cards" v="yes"/>
    <tag k="source" v="website"/>
    <tag k="source:date" v="2018-07-18"/>
    <tag k="website" v="https://www.kulcspatika.hupatikak/hars-gyogyszertar-p46"/>
  </node>
  <!-- Original coordinates: POINT (47.821687874538 20.903302766383) -->
  <!-- OSM <-> POI distance: None m-->
  <!-- Checker good: {not_in_water}; bad {}-->
  <!-- Original tags:  -->
  <node action="modify" changeset="99999" id="-44" lat="47.821687874538" lon="20.903302766383" timestamp="" uid="4579407" user="KAMI" version="99999">
    <tag k="addr:city" v="Mezőcsát"/>
    <tag k="addr:country" v="HU"/>
    <tag k="addr:housenumber" v="33"/>
    <tag k="addr:postcode" v="3450"/>
    <tag k="addr:street" v="Hősök tere"/>
    <tag k="amenity" v="pharmacy"/>
    <tag k="dispensing" v="yes"/>
    <tag k="import" v="osm_poi_matchmaker"/>
    <tag k="name" v="Kulcs Patika"/>
    <tag k="payment:cash" v="yes"/>
    <tag k="payment:debit_cards" v="yes"/>
    <tag k="source" v="website"/>
    <tag k="source:date" v="2018-07-18"/>
    <tag k="website" v="https://www.kulcspatika.hupatikak/primus-patika-p185"/>
  </node>
  <!-- Original coordinates: POINT (47.316143005047 20.924649813492) -->
  <!-- OSM <-> POI distance: None m-->
  <!-- Checker good: {not_in_water}; bad {}-->
  <!-- Original tags:  -->
  <node action="modify" changeset="99999" id="-45" lat="47.316143005047" lon="20.924649813492" timestamp="" uid="4579407" user="KAMI" version="99999">
    <tag k="addr:city" v="Karcag"/>
    <tag k="addr:country" v="HU"/>
    <tag k="addr:housenumber" v="3"/>
    <tag k="addr:postcode" v="5300"/>
    <tag k="addr:street" v="Kiss Antal utca"/>
    <tag k="amenity" v="pharmacy"/>
    <tag k="dispensing" v="yes"/>
    <tag k="import" v="osm_poi_matchmaker"/>
    <tag k="name" v="Kulcs Patika"/>
    <tag k="payment:cash" v="yes"/>
    <tag k="payment:debit_cards" v="yes"/>
    <tag k="source" v="website"/>
    <tag k="source:date" v="2018-07-18"/>
    <tag k="website" v="https://www.kulcspatika.hupatikak/berek-patika-p18"/>
  </node>
  <!-- OSM link: https://osm.org/node/4397939500 -->
  <!-- Original coordinates: POINT (46.82746450491 20.648433589935) -->
  <!-- OSM <-> POI distance: 10.93585811 m-->
  <!-- Checker good: {not_in_water}; bad {}-->
  <!-- Original tags: 'addr:city':'Csabacsűd'; 'addr:housenumber':'46'; 'addr:postcode':'5551'; 'addr:street':'Szabadság utca'; 'amenity':'pharmacy'; 'name':'Korall gyógyszertár';  -->
  <node action="modify" changeset="1" id="4397939500" lat="46.8274689949402" lon="20.6482899971257" timestamp="2016-09-12T18:54:29Z" uid="4579407" user="KAMI" version="2">
    <tag k="addr:city" v="Csabacsűd"/>
    <tag k="addr:country" v="HU"/>
    <tag k="addr:housenumber" v="46"/>
    <tag k="addr:postcode" v="5551"/>
    <tag k="addr:street" v="Szabadság utca"/>
    <tag k="amenity" v="pharmacy"/>
    <tag k="dispensing" v="yes"/>
    <tag k="import" v="osm_poi_matchmaker"/>
    <tag k="name" v="Kulcs Patika"/>
    <tag k="payment:cash" v="yes"/>
    <tag k="payment:debit_cards" v="yes"/>
    <tag k="source" v="website"/>
    <tag k="source:date" v="2018-07-18"/>
    <tag k="website" v="https://www.kulcspatika.hupatikak/korall-fiokgyogyszertar-p127"/>
  </node>
  <!-- Original coordinates: POINT (47.308713021608 20.910308104324) -->
  <!-- OSM <-> POI distance: None m-->
  <!-- Checker good: {not_in_water}; bad {}-->
  <!-- Original tags:  -->
  <node action="modify" changeset="99999" id="-47" lat="47.308713021608" lon="20.910308104324" timestamp="" uid="4579407" user="KAMI" version="99999">
    <tag k="addr:city" v="Karcag"/>
    <tag k="addr:country" v="HU"/>
    <tag k="addr:housenumber" v="34"/>
    <tag k="addr:postcode" v="5300"/>
    <tag k="addr:street" v="Kisújszállási út"/>
    <tag k="amenity" v="pharmacy"/>
    <tag k="dispensing" v="yes"/>
    <tag k="import" v="osm_poi_matchmaker"/>
    <tag k="name" v="Kulcs Patika"/>
    <tag k="payment:cash" v="yes"/>
    <tag k="payment:debit_cards" v="yes"/>
    <tag k="source" v="website"/>
    <tag k="source:date" v="2018-07-18"/>
    <tag k="website" v="https://www.kulcspatika.hupatikak/kulcs-gyogyszertar-tesco-p171"/>
  </node>
  <!-- Original coordinates: POINT (46.280835974357 19.489727071381) -->
  <!-- OSM <-> POI distance: None m-->
  <!-- Checker good: {not_in_water}; bad {}-->
  <!-- Original tags:  -->
  <node action="modify" changeset="99999" id="-48" lat="46.280835974357" lon="19.489727071381" timestamp="" uid="4579407" user="KAMI" version="99999">
    <tag k="addr:city" v="Kisszállás"/>
    <tag k="addr:country" v="HU"/>
    <tag k="addr:housenumber" v="40"/>
    <tag k="addr:postcode" v="6421"/>
    <tag k="addr:street" v="Felszabadulás utca"/>
    <tag k="amenity" v="pharmacy"/>
    <tag k="dispensing" v="yes"/>
    <tag k="import" v="osm_poi_matchmaker"/>
    <tag k="name" v="Kulcs Patika"/>
    <tag k="payment:cash" v="yes"/>
    <tag k="payment:debit_cards" v="yes"/>
    <tag k="source" v="website"/>
    <tag k="source:date" v="2018-07-18"/>
    <tag k="website" v="https://www.kulcspatika.hupatikak/aranykehely-hovirag-fiokgyogyszertara-p146"/>
  </node>
  <!-- Original coordinates: POINT (47.876339432121 17.268787808529) -->
  <!-- OSM <-> POI distance: None m-->
  <!-- Checker good: {not_in_water}; bad {}-->
  <!-- Original tags:  -->
  <node action="modify" changeset="99999" id="-49" lat="47.876339432121" lon="17.268787808529" timestamp="" uid="4579407" user="KAMI" version="99999">
    <tag k="addr:city" v="Mosonmagyaróvár"/>
    <tag k="addr:country" v="HU"/>
    <tag k="addr:housenumber" v="9"/>
    <tag k="addr:postcode" v="9200"/>
    <tag k="addr:street" v="Honvéd utca"/>
    <tag k="amenity" v="pharmacy"/>
    <tag k="dispensing" v="yes"/>
    <tag k="import" v="osm_poi_matchmaker"/>
    <tag k="name" v="Kulcs Patika"/>
    <tag k="payment:cash" v="yes"/>
    <tag k="payment:debit_cards" v="yes"/>
    <tag k="source" v="website"/>
    <tag k="source:date" v="2018-07-18"/>
    <tag k="website" v="https://www.kulcspatika.hupatikak/belvarosi-patika-p17"/>
  </node>
  <!-- Original coordinates: POINT (46.288777293058 18.992964364418) -->
  <!-- OSM <-> POI distance: None m-->
  <!-- Checker good: {not_in_water}; bad {}-->
  <!-- Original tags:  -->
  <node action="modify" changeset="99999" id="-50" lat="46.288777293058" lon="18.992964364418" timestamp="" uid="4579407" user="KAMI" version="99999">
    <tag k="addr:city" v="Sükösd"/>
    <tag k="addr:country" v="HU"/>
    <tag k="addr:housenumber" v="162"/>
    <tag k="addr:postcode" v="6346"/>
    <tag k="addr:street" v="Dózsa György út"/>
    <tag k="amenity" v="pharmacy"/>
    <tag k="dispensing" v="yes"/>
    <tag k="import" v="osm_poi_matchmaker"/>
    <tag k="name" v="Kulcs Patika"/>
    <tag k="payment:cash" v="yes"/>
    <tag k="payment:debit_cards" v="yes"/>
    <tag k="source" v="website"/>
    <tag k="source:date" v="2018-07-18"/>
    <tag k="website" v="https://www.kulcspatika.hupatikak/borostyan-gyogyszertar-p187"/>
  </node>
  <!-- OSM link: https://osm.org/node/3462189528 -->
  <!-- Original coordinates: POINT (46.357000559931 18.703305192261) -->
  <!-- OSM <-> POI distance: 9.3074146 m-->
  <!-- Checker good: {not_in_water}; bad {}-->
  <!-- Original tags: 'amenity':'pharmacy'; 'name':'Újvárosi gyógyszertár'; 'source':'turistautak.hu'; 'source:date':'2011-11-14'; 'url':'http://turistautak.hu/poi.php?id=127711';  -->
  <node action="modify" changeset="1" id="3462189528" lat="46.3570329949619" lon="18.7034169973965" timestamp="2015-04-17T20:53:06Z" uid="4579407" user="KAMI" version="1">
    <tag k="addr:city" v="Szekszárd"/>
    <tag k="addr:country" v="HU"/>
    <tag k="addr:housenumber" v="66"/>
    <tag k="addr:postcode" v="7100"/>
    <tag k="addr:street" v="Kossuth Lajos utca"/>
    <tag k="amenity" v="pharmacy"/>
    <tag k="dispensing" v="yes"/>
    <tag k="import" v="osm_poi_matchmaker"/>
    <tag k="name" v="Kulcs Patika"/>
    <tag k="payment:cash" v="yes"/>
    <tag k="payment:debit_cards" v="yes"/>
    <tag k="source" v="website"/>
    <tag k="source:date" v="2018-07-18"/>
    <tag k="url" v="http://turistautak.hu/poi.php?id=127711"/>
    <tag k="website" v="https://www.kulcspatika.hupatikak/ujvarosi-gyogyszertar-p190"/>
  </node>
  <!-- Original coordinates: POINT (46.491895433706 19.737307280302) -->
  <!-- OSM <-> POI distance: None m-->
  <!-- Checker good: {not_in_water}; bad {}-->
  <!-- Original tags:  -->
  <node action="modify" changeset="99999" id="-52" lat="46.491895433706" lon="19.737307280302" timestamp="" uid="4579407" user="KAMI" version="99999">
    <tag k="addr:city" v="Kiskunmajsa"/>
    <tag k="addr:country" v="HU"/>
    <tag k="addr:housenumber" v="3"/>
    <tag k="addr:postcode" v="6120"/>
    <tag k="addr:street" v="Hősök tere"/>
    <tag k="amenity" v="pharmacy"/>
    <tag k="dispensing" v="yes"/>
    <tag k="import" v="osm_poi_matchmaker"/>
    <tag k="name" v="Kulcs Patika"/>
    <tag k="payment:cash" v="yes"/>
    <tag k="payment:debit_cards" v="yes"/>
    <tag k="source" v="website"/>
    <tag k="source:date" v="2018-07-18"/>
    <tag k="website" v="https://www.kulcspatika.hupatikak/balzsam-patika-p14"/>
  </node>
  <!-- OSM link: https://osm.org/node/2337845625 -->
  <!-- Original coordinates: POINT (46.431443 19.479856) -->
  <!-- OSM <-> POI distance: 13.22648677 m-->
  <!-- Checker good: {not_in_water}; bad {}-->
  <!-- Original tags: 'amenity':'pharmacy';  -->
  <node action="modify" changeset="1" id="2337845625" lat="46.4313323949584" lon="19.4799194972884" timestamp="2018-04-11T15:10:39Z" uid="4579407" user="KAMI" version="2">
    <tag k="addr:city" v="Kiskunhalas"/>
    <tag k="addr:country" v="HU"/>
    <tag k="addr:housenumber" v="3"/>
    <tag k="addr:postcode" v="6400"/>
    <tag k="addr:street" v="Eötvös utca"/>
    <tag k="amenity" v="pharmacy"/>
    <tag k="dispensing" v="yes"/>
    <tag k="import" v="osm_poi_matchmaker"/>
    <tag k="name" v="Kulcs Patika"/>
    <tag k="payment:cash" v="yes"/>
    <tag k="payment:debit_cards" v="yes"/>
    <tag k="source" v="website"/>
    <tag k="source:date" v="2018-07-18"/>
    <tag k="website" v="https://www.kulcspatika.hupatikak/prima-patika-p88"/>
  </node>
  <!-- Original coordinates: POINT (47.330035540733 17.46218919754) -->
  <!-- OSM <-> POI distance: None m-->
  <!-- Checker good: {not_in_water}; bad {}-->
  <!-- Original tags:  -->
  <node action="modify" changeset="99999" id="-54" lat="47.330035540733" lon="17.46218919754" timestamp="" uid="4579407" user="KAMI" version="99999">
    <tag k="addr:city" v="Pápa"/>
    <tag k="addr:country" v="HU"/>
    <tag k="addr:housenumber" v="6"/>
    <tag k="addr:postcode" v="8500"/>
    <tag k="addr:street" v="Szentilonay József utca"/>
    <tag k="amenity" v="pharmacy"/>
    <tag k="dispensing" v="yes"/>
    <tag k="import" v="osm_poi_matchmaker"/>
    <tag k="name" v="Kulcs Patika"/>
    <tag k="payment:cash" v="yes"/>
    <tag k="payment:debit_cards" v="yes"/>
    <tag k="source" v="website"/>
    <tag k="source:date" v="2018-07-18"/>
    <tag k="website" v="https://www.kulcspatika.hupatikak/orangyal-piatsek-vagy-kis-teri-gyogyszertar-p78"/>
  </node>
  <!-- Original coordinates: POINT (47.806871 20.565354) -->
  <!-- OSM <-> POI distance: None m-->
  <!-- Checker good: {not_in_water}; bad {}-->
  <!-- Original tags:  -->
  <node action="modify" changeset="99999" id="-55" lat="47.806871" lon="20.565354" timestamp="" uid="4579407" user="KAMI" version="99999">
    <tag k="addr:city" v="Mezőkövesd"/>
    <tag k="addr:country" v="HU"/>
    <tag k="addr:housenumber" v="75"/>
    <tag k="addr:postcode" v="3400"/>
    <tag k="addr:street" v="Mátyás király út"/>
    <tag k="amenity" v="pharmacy"/>
    <tag k="dispensing" v="yes"/>
    <tag k="import" v="osm_poi_matchmaker"/>
    <tag k="name" v="Kulcs Patika"/>
    <tag k="payment:cash" v="yes"/>
    <tag k="payment:debit_cards" v="yes"/>
    <tag k="source" v="website"/>
    <tag k="source:date" v="2018-07-18"/>
    <tag k="website" v="https://www.kulcspatika.hupatikak/forras-gyogyszertar-p36"/>
  </node>
  <!-- OSM link: https://osm.org/node/3466274056 -->
  <!-- Original coordinates: POINT (47.105375862721 17.570617496967) -->
  <!-- OSM <-> POI distance: 17.26917779 m-->
  <!-- Checker good: {not_in_water}; bad {}-->
  <!-- Original tags: 'amenity':'pharmacy'; 'name':'Hárs-Kőris patika'; 'source':'turistautak.hu'; 'source:date':'2011-05-26'; 'url':'http://turistautak.hu/poi.php?id=20007';  -->
  <node action="modify" changeset="1" id="3466274056" lat="47.1054499949278" lon="17.5704169975542" timestamp="2015-04-19T21:05:30Z" uid="4579407" user="KAMI" version="1">
    <tag k="addr:city" v="Ajka"/>
    <tag k="addr:country" v="HU"/>
    <tag k="addr:housenumber" v="20"/>
    <tag k="addr:postcode" v="8400"/>
    <tag k="addr:street" v="Alkotmány utca"/>
    <tag k="amenity" v="pharmacy"/>
    <tag k="dispensing" v="yes"/>
    <tag k="import" v="osm_poi_matchmaker"/>
    <tag k="name" v="Kulcs Patika"/>
    <tag k="payment:cash" v="yes"/>
    <tag k="payment:debit_cards" v="yes"/>
    <tag k="source" v="website"/>
    <tag k="source:date" v="2018-07-18"/>
    <tag k="url" v="http://turistautak.hu/poi.php?id=20007"/>
    <tag k="website" v="https://www.kulcspatika.hupatikak/gyorgy-gyogyszertar-p164"/>
  </node>
  <!-- Original coordinates: POINT (47.919279 20.372364) -->
  <!-- OSM <-> POI distance: None m-->
  <!-- Checker good: {not_in_water}; bad {}-->
  <!-- Original tags:  -->
  <node action="modify" changeset="99999" id="-57" lat="47.919279" lon="20.372364" timestamp="" uid="4579407" user="KAMI" version="99999">
    <tag k="addr:city" v="Eger"/>
    <tag k="addr:country" v="HU"/>
    <tag k="addr:housenumber" v="4"/>
    <tag k="addr:postcode" v="3300"/>
    <tag k="addr:street" v="Vallon utca"/>
    <tag k="amenity" v="pharmacy"/>
    <tag k="dispensing" v="yes"/>
    <tag k="import" v="osm_poi_matchmaker"/>
    <tag k="name" v="Kulcs Patika"/>
    <tag k="payment:cash" v="yes"/>
    <tag k="payment:debit_cards" v="yes"/>
    <tag k="source" v="website"/>
    <tag k="source:date" v="2018-07-18"/>
    <tag k="website" v="https://www.kulcspatika.hupatikak/platan-patika-p87"/>
  </node>
  <!-- OSM link: https://osm.org/node/1907522719 -->
  <!-- Original coordinates: POINT (47.179869 20.412993) -->
  <!-- OSM <-> POI distance: 9.92969224 m-->
  <!-- Checker good: {not_in_water}; bad {}-->
  <!-- Original tags: 'amenity':'pharmacy';  -->
  <node action="modify" changeset="1" id="1907522719" lat="47.1798133949246" lon="20.4128901971585" timestamp="2018-05-08T12:40:41Z" uid="4579407" user="KAMI" version="3">
    <tag k="addr:city" v="Törökszentmiklós"/>
    <tag k="addr:country" v="HU"/>
    <tag k="addr:housenumber" v="125"/>
    <tag k="addr:postcode" v="5200"/>
    <tag k="addr:street" v="Kossuth Lajos utca"/>
    <tag k="amenity" v="pharmacy"/>
    <tag k="dispensing" v="yes"/>
    <tag k="import" v="osm_poi_matchmaker"/>
    <tag k="name" v="Kulcs Patika"/>
    <tag k="payment:cash" v="yes"/>
    <tag k="payment:debit_cards" v="yes"/>
    <tag k="source" v="website"/>
    <tag k="source:date" v="2018-07-18"/>
    <tag k="website" v="https://www.kulcspatika.hupatikak/fontana-gyogyszertar-p35"/>
  </node>
  <!-- Original coordinates: POINT (46.52535971381 18.985364346067) -->
  <!-- OSM <-> POI distance: None m-->
  <!-- Checker good: {not_in_water}; bad {}-->
  <!-- Original tags:  -->
  <node action="modify" changeset="99999" id="-59" lat="46.52535971381" lon="18.985364346067" timestamp="" uid="4579407" user="KAMI" version="99999">
    <tag k="addr:city" v="Kalocsa"/>
    <tag k="addr:country" v="HU"/>
    <tag k="addr:housenumber" v="8"/>
    <tag k="addr:postcode" v="6300"/>
    <tag k="addr:street" v="Széchenyi út"/>
    <tag k="amenity" v="pharmacy"/>
    <tag k="dispensing" v="yes"/>
    <tag k="import" v="osm_poi_matchmaker"/>
    <tag k="name" v="Kulcs Patika"/>
    <tag k="payment:cash" v="yes"/>
    <tag k="payment:debit_cards" v="yes"/>
    <tag k="source" v="website"/>
    <tag k="source:date" v="2018-07-18"/>
    <tag k="website" v="https://www.kulcspatika.hupatikak/arany-kigyo-gyogyszertar-p5"/>
  </node>
  <!-- Original coordinates: POINT (47.68937 17.632839) -->
  <!-- OSM <-> POI distance: None m-->
  <!-- Checker good: {not_in_water}; bad {}-->
  <!-- Original tags:  -->
  <node action="modify" changeset="99999" id="-60" lat="47.68937" lon="17.632839" timestamp="" uid="4579407" user="KAMI" version="99999">
    <tag k="addr:city" v="Győr"/>
    <tag k="addr:country" v="HU"/>
    <tag k="addr:housenumber" v="16"/>
    <tag k="addr:postcode" v="9021"/>
    <tag k="addr:street" v="Jedlik Ányos utca"/>
    <tag k="amenity" v="pharmacy"/>
    <tag k="dispensing" v="yes"/>
    <tag k="import" v="osm_poi_matchmaker"/>
    <tag k="name" v="Kulcs Patika"/>
    <tag k="payment:cash" v="yes"/>
    <tag k="payment:debit_cards" v="yes"/>
    <tag k="source" v="website"/>
    <tag k="source:date" v="2018-07-18"/>
    <tag k="website" v="https://www.kulcspatika.hupatikak/aranyhajo-patika-p7"/>
  </node>
  <!-- OSM link: https://osm.org/node/872665166 -->
  <!-- Original coordinates: POINT (46.532119 18.98099) -->
  <!-- OSM <-> POI distance: 13.73684949 m-->
  <!-- Checker good: {not_in_water}; bad {}-->
  <!-- Original tags: 'addr:city':'Kalocsa'; 'addr:housenumber':'23'; 'addr:postcode':'6300'; 'addr:street':'Kossuth Lajos utca'; 'amenity':'pharmacy'; 'name':'Főnix Gyógyszertár';  -->
  <node action="modify" changeset="1" id="872665166" lat="46.5321244949537" lon="18.9811693973578" timestamp="2013-12-11T16:05:28Z" uid="4579407" user="KAMI" version="3">
    <tag k="addr:city" v="Kalocsa"/>
    <tag k="addr:country" v="HU"/>
    <tag k="addr:housenumber" v="23"/>
    <tag k="addr:postcode" v="6300"/>
    <tag k="addr:street" v="Kossuth Lajos utca"/>
    <tag k="amenity" v="pharmacy"/>
    <tag k="dispensing" v="yes"/>
    <tag k="import" v="osm_poi_matchmaker"/>
    <tag k="name" v="Kulcs Patika"/>
    <tag k="payment:cash" v="yes"/>
    <tag k="payment:debit_cards" v="yes"/>
    <tag k="source" v="website"/>
    <tag k="source:date" v="2018-07-18"/>
    <tag k="website" v="https://www.kulcspatika.hupatikak/fonix-gyogyszertar-p38"/>
  </node>
  <!-- Original coordinates: POINT (47.116096893771 17.730792313814) -->
  <!-- OSM <-> POI distance: None m-->
  <!-- Checker good: {not_in_water}; bad {}-->
  <!-- Original tags:  -->
  <node action="modify" changeset="99999" id="-62" lat="47.116096893771" lon="17.730792313814" timestamp="" uid="4579407" user="KAMI" version="99999">
    <tag k="addr:city" v="Szentgál"/>
    <tag k="addr:country" v="HU"/>
    <tag k="addr:housenumber" v="5"/>
    <tag k="addr:postcode" v="8444"/>
    <tag k="addr:street" v="Fő utca"/>
    <tag k="amenity" v="pharmacy"/>
    <tag k="dispensing" v="yes"/>
    <tag k="import" v="osm_poi_matchmaker"/>
    <tag k="name" v="Kulcs Patika"/>
    <tag k="payment:cash" v="yes"/>
    <tag k="payment:debit_cards" v="yes"/>
    <tag k="source" v="website"/>
    <tag k="source:date" v="2018-07-18"/>
    <tag k="website" v="https://www.kulcspatika.hupatikak/szentgali-patika-p155"/>
  </node>
  <!-- OSM link: https://osm.org/node/2213003702 -->
  <!-- Original coordinates: POINT (46.710339209653 19.843642067459) -->
  <!-- OSM <-> POI distance: 24.26799303 m-->
  <!-- Checker good: {not_in_water}; bad {}-->
  <!-- Original tags: 'amenity':'pharmacy';  -->
  <node action="modify" changeset="1" id="2213003702" lat="46.7101317949456" lon="19.8437410972377" timestamp="2013-03-21T14:10:23Z" uid="4579407" user="KAMI" version="1">
    <tag k="addr:city" v="Kiskunfélegyháza"/>
    <tag k="addr:country" v="HU"/>
    <tag k="addr:housenumber" v="1"/>
    <tag k="addr:postcode" v="6100"/>
    <tag k="addr:street" v="Attila utca"/>
    <tag k="amenity" v="pharmacy"/>
    <tag k="dispensing" v="yes"/>
    <tag k="import" v="osm_poi_matchmaker"/>
    <tag k="name" v="Kulcs Patika"/>
    <tag k="payment:cash" v="yes"/>
    <tag k="payment:debit_cards" v="yes"/>
    <tag k="source" v="website"/>
    <tag k="source:date" v="2018-07-18"/>
    <tag k="website" v="https://www.kulcspatika.hupatikak/korpatika-felegyhaza-p62"/>
  </node>
  <!-- Original coordinates: POINT (46.711576928294 19.838165044785) -->
  <!-- OSM <-> POI distance: None m-->
  <!-- Checker good: {not_in_water}; bad {}-->
  <!-- Original tags:  -->
  <node action="modify" changeset="99999" id="-64" lat="46.711576928294" lon="19.838165044785" timestamp="" uid="4579407" user="KAMI" version="99999">
    <tag k="addr:city" v="Kiskunfélegyháza"/>
    <tag k="addr:country" v="HU"/>
    <tag k="addr:housenumber" v="4"/>
    <tag k="addr:postcode" v="6100"/>
    <tag k="addr:street" v="Fadrusz János utca"/>
    <tag k="amenity" v="pharmacy"/>
    <tag k="dispensing" v="yes"/>
    <tag k="import" v="osm_poi_matchmaker"/>
    <tag k="name" v="Kulcs Patika"/>
    <tag k="payment:cash" v="yes"/>
    <tag k="payment:debit_cards" v="yes"/>
    <tag k="source" v="website"/>
    <tag k="source:date" v="2018-07-18"/>
    <tag k="website" v="https://www.kulcspatika.hupatikak/korhazi-patika-p58"/>
  </node>
  <!-- Original coordinates: POINT (46.721795862778 19.849913519014) -->
  <!-- OSM <-> POI distance: None m-->
  <!-- Checker good: {not_in_water}; bad {}-->
  <!-- Original tags:  -->
  <node action="modify" changeset="99999" id="-65" lat="46.721795862778" lon="19.849913519014" timestamp="" uid="4579407" user="KAMI" version="99999">
    <tag k="addr:city" v="Kiskunfélegyháza"/>
    <tag k="addr:country" v="HU"/>
    <tag k="addr:housenumber" v="2"/>
    <tag k="addr:postcode" v="6100"/>
    <tag k="addr:street" v="Darvas József tér"/>
    <tag k="amenity" v="pharmacy"/>
    <tag k="dispensing" v="yes"/>
    <tag k="import" v="osm_poi_matchmaker"/>
    <tag k="name" v="Kulcs Patika"/>
    <tag k="payment:cash" v="yes"/>
    <tag k="payment:debit_cards" v="yes"/>
    <tag k="source" v="website"/>
    <tag k="source:date" v="2018-07-18"/>
    <tag k="website" v="https://www.kulcspatika.hupatikak/petofi-patika-p85"/>
  </node>
  <!-- OSM link: https://osm.org/node/2231916014 -->
  <!-- Original coordinates: POINT (47.087700624736 17.907945513725) -->
  <!-- OSM <-> POI distance: 7.00164563 m-->
  <!-- Checker good: {not_in_water}; bad {}-->
  <!-- Original tags: 'amenity':'pharmacy'; 'dispensing':'no'; 'name':'Egyetem gyógyszertár'; 'wheelchair':'yes';  -->
  <node action="modify" changeset="1" id="2231916014" lat="47.0876664949286" lon="17.9078677975072" timestamp="2015-11-22T17:04:07Z" uid="4579407" user="KAMI" version="3">
    <tag k="addr:city" v="Veszprém"/>
    <tag k="addr:country" v="HU"/>
    <tag k="addr:housenumber" v="7"/>
    <tag k="addr:postcode" v="8200"/>
    <tag k="addr:street" v="Egyetem utca"/>
    <tag k="amenity" v="pharmacy"/>
    <tag k="dispensing" v="yes"/>
    <tag k="import" v="osm_poi_matchmaker"/>
    <tag k="name" v="Kulcs Patika"/>
    <tag k="payment:cash" v="yes"/>
    <tag k="payment:debit_cards" v="yes"/>
    <tag k="source" v="website"/>
    <tag k="source:date" v="2018-07-18"/>
    <tag k="website" v="https://www.kulcspatika.hupatikak/egyetem-gyogyszertar-p148"/>
    <tag k="wheelchair" v="yes"/>
  </node>
  <!-- Original coordinates: POINT (47.175176 20.196191) -->
  <!-- OSM <-> POI distance: None m-->
  <!-- Checker good: {not_in_water}; bad {}-->
  <!-- Original tags:  -->
  <node action="modify" changeset="99999" id="-67" lat="47.175176" lon="20.196191" timestamp="" uid="4579407" user="KAMI" version="99999">
    <tag k="addr:city" v="Szolnok"/>
    <tag k="addr:country" v="HU"/>
    <tag k="addr:housenumber" v="7-8"/>
    <tag k="addr:postcode" v="5000"/>
    <tag k="addr:street" v="Kossuth tér"/>
    <tag k="amenity" v="pharmacy"/>
    <tag k="dispensing" v="yes"/>
    <tag k="import" v="osm_poi_matchmaker"/>
    <tag k="name" v="Kulcs Patika"/>
    <tag k="payment:cash" v="yes"/>
    <tag k="payment:debit_cards" v="yes"/>
    <tag k="source" v="website"/>
    <tag k="source:date" v="2018-07-18"/>
    <tag k="website" v="https://www.kulcspatika.hupatikak/kossuth-gyogyszertar-p61"/>
  </node>
  <!-- OSM link: https://osm.org/node/2418353910 -->
  <!-- Original coordinates: POINT (47.03049 18.011578) -->
  <!-- OSM <-> POI distance: 7.98617988 m-->
  <!-- Checker good: {not_in_water}; bad {}-->
  <!-- Original tags: 'amenity':'pharmacy'; 'name':'György Patika'; 'wheelchair':'yes';  -->
  <node action="modify" changeset="1" id="2418353910" lat="47.0305345949312" lon="18.0116605974928" timestamp="2015-11-30T21:57:40Z" uid="4579407" user="KAMI" version="4">
    <tag k="addr:city" v="Balatonalmádi"/>
    <tag k="addr:country" v="HU"/>
    <tag k="addr:housenumber" v="25"/>
    <tag k="addr:postcode" v="8220"/>
    <tag k="addr:street" v="Baross Gábor utca"/>
    <tag k="amenity" v="pharmacy"/>
    <tag k="dispensing" v="yes"/>
    <tag k="import" v="osm_poi_matchmaker"/>
    <tag k="name" v="Kulcs Patika"/>
    <tag k="payment:cash" v="yes"/>
    <tag k="payment:debit_cards" v="yes"/>
    <tag k="source" v="website"/>
    <tag k="source:date" v="2018-07-18"/>
    <tag k="website" v="https://www.kulcspatika.hupatikak/dr-gyorgy-gyogyszertar-p28"/>
    <tag k="wheelchair" v="yes"/>
  </node>
  <!-- Original coordinates: POINT (47.078057112909 18.027448654175) -->
  <!-- OSM <-> POI distance: None m-->
  <!-- Checker good: {not_in_water}; bad {}-->
  <!-- Original tags:  -->
  <node action="modify" changeset="99999" id="-69" lat="47.078057112909" lon="18.027448654175" timestamp="" uid="4579407" user="KAMI" version="99999">
    <tag k="addr:city" v="Balatonfűzfő"/>
    <tag k="addr:country" v="HU"/>
    <tag k="addr:housenumber" v="20"/>
    <tag k="addr:postcode" v="8184"/>
    <tag k="addr:street" v="Bugyogóforrás utca"/>
    <tag k="amenity" v="pharmacy"/>
    <tag k="dispensing" v="yes"/>
    <tag k="import" v="osm_poi_matchmaker"/>
    <tag k="name" v="Kulcs Patika"/>
    <tag k="payment:cash" v="yes"/>
    <tag k="payment:debit_cards" v="yes"/>
    <tag k="source" v="website"/>
    <tag k="source:date" v="2018-07-18"/>
    <tag k="website" v="https://www.kulcspatika.hupatikak/balaton-gyogyszertar-p13"/>
  </node>
  <!-- Original coordinates: POINT (46.895994 19.721676) -->
  <!-- OSM <-> POI distance: None m-->
  <!-- Checker good: {not_in_water}; bad {}-->
  <!-- Original tags:  -->
  <node action="modify" changeset="99999" id="-70" lat="46.895994" lon="19.721676" timestamp="" uid="4579407" user="KAMI" version="99999">
    <tag k="addr:city" v="Kecskemét"/>
    <tag k="addr:country" v="HU"/>
    <tag k="addr:housenumber" v="5"/>
    <tag k="addr:postcode" v="6000"/>
    <tag k="addr:street" v="Irányi István utca"/>
    <tag k="amenity" v="pharmacy"/>
    <tag k="dispensing" v="yes"/>
    <tag k="import" v="osm_poi_matchmaker"/>
    <tag k="name" v="Kulcs Patika"/>
    <tag k="payment:cash" v="yes"/>
    <tag k="payment:debit_cards" v="yes"/>
    <tag k="source" v="website"/>
    <tag k="source:date" v="2018-07-18"/>
    <tag k="website" v="https://www.kulcspatika.hupatikak/mukerti-patika-p75"/>
  </node>
  <!-- OSM link: https://osm.org/node/4263364260 -->
  <!-- Original coordinates: POINT (46.902834 19.69597) -->
  <!-- OSM <-> POI distance: 11.71072495 m-->
  <!-- Checker good: {not_in_water}; bad {}-->
  <!-- Original tags: 'addr:city':'Kecskemét'; 'addr:country':'HU'; 'addr:housenumber':'5'; 'addr:postcode':'6000'; 'addr:street':'Czollner tér'; 'amenity':'pharmacy'; 'name':'Műemlék Patika'; 'opening_hours':'Mo-Fr 08:00-18:00; PH closed'; 'phone':'+36 76 325 155'; 'website':'http://www.muemlekpatika.hu/';  -->
  <node action="modify" changeset="1" id="4263364260" lat="46.9028168949368" lon="19.6961220972583" timestamp="2018-02-17T20:51:48Z" uid="4579407" user="KAMI" version="2">
    <tag k="addr:city" v="Kecskemét"/>
    <tag k="addr:country" v="HU"/>
    <tag k="addr:housenumber" v="5"/>
    <tag k="addr:postcode" v="6000"/>
    <tag k="addr:street" v="Czollner tér"/>
    <tag k="amenity" v="pharmacy"/>
    <tag k="dispensing" v="yes"/>
    <tag k="import" v="osm_poi_matchmaker"/>
    <tag k="name" v="Kulcs Patika"/>
    <tag k="opening_hours" v="Mo-Fr 08:00-18:00; PH closed"/>
    <tag k="payment:cash" v="yes"/>
    <tag k="payment:debit_cards" v="yes"/>
    <tag k="phone" v="+36 76 325 155"/>
    <tag k="source" v="website"/>
    <tag k="source:date" v="2018-07-18"/>
    <tag k="website" v="https://www.kulcspatika.hupatikak/muemlek-patika-p74"/>
  </node>
  <!-- OSM link: https://osm.org/node/3439444544 -->
  <!-- Original coordinates: POINT (46.903908 19.684563) -->
  <!-- OSM <-> POI distance: 18.38440177 m-->
  <!-- Checker good: {not_in_water}; bad {}-->
  <!-- Original tags: 'amenity':'pharmacy'; 'name':'Írisz gyógyszertár'; 'source':'turistautak.hu'; 'source:date':'2011-06-24'; 'url':'http://turistautak.hu/poi.php?id=61217';  -->
  <node action="modify" changeset="1" id="3439444544" lat="46.9037959949368" lon="19.6843849972599" timestamp="2015-04-05T16:03:41Z" uid="4579407" user="KAMI" version="1">
    <tag k="addr:city" v="Kecskemét"/>
    <tag k="addr:country" v="HU"/>
    <tag k="addr:housenumber" v="2"/>
    <tag k="addr:postcode" v="6000"/>
    <tag k="addr:street" v="Vágó utca"/>
    <tag k="amenity" v="pharmacy"/>
    <tag k="dispensing" v="yes"/>
    <tag k="import" v="osm_poi_matchmaker"/>
    <tag k="name" v="Kulcs Patika"/>
    <tag k="payment:cash" v="yes"/>
    <tag k="payment:debit_cards" v="yes"/>
    <tag k="source" v="website"/>
    <tag k="source:date" v="2018-07-18"/>
    <tag k="url" v="http://turistautak.hu/poi.php?id=61217"/>
    <tag k="website" v="https://www.kulcspatika.hupatikak/szalaghazi-irisz-gyogyszertar-p97"/>
  </node>
  <!-- OSM link: https://osm.org/node/3439444176 -->
  <!-- Original coordinates: POINT (46.913781 19.689548) -->
  <!-- OSM <-> POI distance: 41.61282203 m-->
  <!-- Checker good: {not_in_water}; bad {}-->
  <!-- Original tags: 'amenity':'pharmacy'; 'name':'Szent István gyógyszertár'; 'source':'turistautak.hu'; 'source:date':'2011-06-24'; 'url':'http://turistautak.hu/poi.php?id=59974';  -->
  <node action="modify" changeset="1" id="3439444176" lat="46.9141139949363" lon="19.6892979972592" timestamp="2015-04-05T16:03:06Z" uid="4579407" user="KAMI" version="1">
    <tag k="addr:city" v="Kecskemét"/>
    <tag k="addr:country" v="HU"/>
    <tag k="addr:housenumber" v="27"/>
    <tag k="addr:postcode" v="6000"/>
    <tag k="addr:street" v="Jókai utca"/>
    <tag k="amenity" v="pharmacy"/>
    <tag k="dispensing" v="yes"/>
    <tag k="import" v="osm_poi_matchmaker"/>
    <tag k="name" v="Kulcs Patika"/>
    <tag k="payment:cash" v="yes"/>
    <tag k="payment:debit_cards" v="yes"/>
    <tag k="source" v="website"/>
    <tag k="source:date" v="2018-07-18"/>
    <tag k="url" v="http://turistautak.hu/poi.php?id=59974"/>
    <tag k="website" v="https://www.kulcspatika.hupatikak/szent-istvan-kiraly-gyogyszertar-p105"/>
  </node>
  <!-- OSM link: https://osm.org/node/2985533610 -->
  <!-- Original coordinates: POINT (47.29486 20.074068) -->
  <!-- OSM <-> POI distance: 18.26092511 m-->
  <!-- Checker good: {not_in_water}; bad {}-->
  <!-- Original tags: 'amenity':'pharmacy';  -->
  <node action="modify" changeset="1" id="2985533610" lat="47.2947029949196" lon="20.0739969972057" timestamp="2014-07-29T05:40:59Z" uid="4579407" user="KAMI" version="1">
    <tag k="addr:city" v="Újszász"/>
    <tag k="addr:country" v="HU"/>
    <tag k="addr:housenumber" v="14"/>
    <tag k="addr:postcode" v="5052"/>
    <tag k="addr:street" v="Damjanich út"/>
    <tag k="amenity" v="pharmacy"/>
    <tag k="dispensing" v="yes"/>
    <tag k="import" v="osm_poi_matchmaker"/>
    <tag k="name" v="Kulcs Patika"/>
    <tag k="payment:cash" v="yes"/>
    <tag k="payment:debit_cards" v="yes"/>
    <tag k="source" v="website"/>
    <tag k="source:date" v="2018-07-18"/>
    <tag k="website" v="https://www.kulcspatika.hupatikak/szent-istvan-kiraly-gyogyszertar-p106"/>
  </node>
  <!-- Original coordinates: POINT (46.910538 19.674458) -->
  <!-- OSM <-> POI distance: None m-->
  <!-- Checker good: {not_in_water}; bad {}-->
  <!-- Original tags:  -->
  <node action="modify" changeset="99999" id="-75" lat="46.910538" lon="19.674458" timestamp="" uid="4579407" user="KAMI" version="99999">
    <tag k="addr:city" v="Kecskemét"/>
    <tag k="addr:country" v="HU"/>
    <tag k="addr:housenumber" v="38/A"/>
    <tag k="addr:postcode" v="6000"/>
    <tag k="addr:street" v="Nyíri út"/>
    <tag k="amenity" v="pharmacy"/>
    <tag k="dispensing" v="yes"/>
    <tag k="import" v="osm_poi_matchmaker"/>
    <tag k="name" v="Kulcs Patika"/>
    <tag k="payment:cash" v="yes"/>
    <tag k="payment:debit_cards" v="yes"/>
    <tag k="source" v="website"/>
    <tag k="source:date" v="2018-07-18"/>
    <tag k="website" v="https://www.kulcspatika.hupatikak/korona-patika-p60"/>
  </node>
  <!-- OSM link: https://osm.org/node/3487784315 -->
  <!-- Original coordinates: POINT (46.927024 19.689248) -->
  <!-- OSM <-> POI distance: 12.5685572 m-->
  <!-- Checker good: {not_in_water}; bad {}-->
  <!-- Original tags: 'amenity':'pharmacy'; 'name':'Körpatika';  -->
  <node action="modify" changeset="1" id="3487784315" lat="46.9269721949358" lon="19.6891008972593" timestamp="2015-04-29T23:29:59Z" uid="4579407" user="KAMI" version="1">
    <tag k="addr:city" v="Kecskemét"/>
    <tag k="addr:country" v="HU"/>
    <tag k="addr:housenumber" v="27"/>
    <tag k="addr:postcode" v="6000"/>
    <tag k="addr:street" v="Rózsavölgyi tér"/>
    <tag k="amenity" v="pharmacy"/>
    <tag k="dispensing" v="yes"/>
    <tag k="import" v="osm_poi_matchmaker"/>
    <tag k="name" v="Kulcs Patika"/>
    <tag k="payment:cash" v="yes"/>
    <tag k="payment:debit_cards" v="yes"/>
    <tag k="source" v="website"/>
    <tag k="source:date" v="2018-07-18"/>
    <tag k="website" v="https://www.kulcspatika.hupatikak/korpatika-kecskemet-p63"/>
  </node>
  <!-- OSM link: https://osm.org/node/3454580720 -->
  <!-- Original coordinates: POINT (47.118924 19.92966) -->
  <!-- OSM <-> POI distance: 7.66672766 m-->
  <!-- Checker good: {not_in_water}; bad {}-->
  <!-- Original tags: 'amenity':'pharmacy'; 'fixme':'resurvey (source was old)'; 'source':'turistautak.hu'; 'source:date':'2008-06-11'; 'url':'http://turistautak.hu/poi.php?id=30088';  -->
  <node action="modify" changeset="1" id="3454580720" lat="47.1188669949273" lon="19.9297169972258" timestamp="2015-04-13T20:06:32Z" uid="4579407" user="KAMI" version="1">
    <tag k="addr:city" v="Törtel"/>
    <tag k="addr:country" v="HU"/>
    <tag k="addr:housenumber" v="7/A"/>
    <tag k="addr:postcode" v="2747"/>
    <tag k="addr:street" v="Szent István út"/>
    <tag k="amenity" v="pharmacy"/>
    <tag k="dispensing" v="yes"/>
    <tag k="fixme" v="resurvey (source was old)"/>
    <tag k="import" v="osm_poi_matchmaker"/>
    <tag k="name" v="Kulcs Patika"/>
    <tag k="payment:cash" v="yes"/>
    <tag k="payment:debit_cards" v="yes"/>
    <tag k="source" v="website"/>
    <tag k="source:date" v="2018-07-18"/>
    <tag k="url" v="http://turistautak.hu/poi.php?id=30088"/>
    <tag k="website" v="https://www.kulcspatika.hupatikak/szent-margit-gyogyszertar-p108"/>
  </node>
  <!-- Original coordinates: POINT (46.800477768414 19.000821863754) -->
  <!-- OSM <-> POI distance: None m-->
  <!-- Checker good: {not_in_water}; bad {}-->
  <!-- Original tags:  -->
  <node action="modify" changeset="99999" id="-78" lat="46.800477768414" lon="19.000821863754" timestamp="" uid="4579407" user="KAMI" version="99999">
    <tag k="addr:city" v="Solt"/>
    <tag k="addr:country" v="HU"/>
    <tag k="addr:housenumber" v="6"/>
    <tag k="addr:postcode" v="6320"/>
    <tag k="addr:street" v="Béke tér"/>
    <tag k="amenity" v="pharmacy"/>
    <tag k="dispensing" v="yes"/>
    <tag k="import" v="osm_poi_matchmaker"/>
    <tag k="name" v="Kulcs Patika"/>
    <tag k="payment:cash" v="yes"/>
    <tag k="payment:debit_cards" v="yes"/>
    <tag k="source" v="website"/>
    <tag k="source:date" v="2018-07-18"/>
    <tag k="website" v="https://www.kulcspatika.hupatikak/beke-patika-p15"/>
  </node>
  <!-- OSM link: https://osm.org/node/4357472025 -->
  <!-- Original coordinates: POINT (47.037122236854 19.784978181124) -->
  <!-- OSM <-> POI distance: 29.93634194 m-->
  <!-- Checker good: {not_in_water}; bad {}-->
  <!-- Original tags: 'amenity':'pharmacy'; 'name':'kulcs Patika'; 'name:hu':'kulcs Patika';  -->
  <node action="modify" changeset="1" id="4357472025" lat="47.0373705949308" lon="19.7848256972459" timestamp="2016-08-19T14:23:20Z" uid="4579407" user="KAMI" version="1">
    <tag k="addr:city" v="Nagykőrös"/>
    <tag k="addr:country" v="HU"/>
    <tag k="addr:housenumber" v="7/A"/>
    <tag k="addr:postcode" v="2750"/>
    <tag k="addr:street" v="Ceglédi út"/>
    <tag k="amenity" v="pharmacy"/>
    <tag k="dispensing" v="yes"/>
    <tag k="import" v="osm_poi_matchmaker"/>
    <tag k="name" v="Kulcs Patika"/>
    <tag k="name:hu" v="kulcs Patika"/>
    <tag k="payment:cash" v="yes"/>
    <tag k="payment:debit_cards" v="yes"/>
    <tag k="source" v="website"/>
    <tag k="source:date" v="2018-07-18"/>
    <tag k="website" v="https://www.kulcspatika.hupatikak/korisfa-gyogyszertar-p150"/>
  </node>
  <!-- Original coordinates: POINT (47.199984528304 18.139924407005) -->
  <!-- OSM <-> POI distance: None m-->
  <!-- Checker good: {not_in_water}; bad {}-->
  <!-- Original tags:  -->
  <node action="modify" changeset="99999" id="-80" lat="47.199984528304" lon="18.139924407005" timestamp="" uid="4579407" user="KAMI" version="99999">
    <tag k="addr:city" v="Várpalota"/>
    <tag k="addr:country" v="HU"/>
    <tag k="addr:housenumber" v="4"/>
    <tag k="addr:postcode" v="8100"/>
    <tag k="addr:street" v="Szabadság tér"/>
    <tag k="amenity" v="pharmacy"/>
    <tag k="dispensing" v="yes"/>
    <tag k="import" v="osm_poi_matchmaker"/>
    <tag k="name" v="Kulcs Patika"/>
    <tag k="payment:cash" v="yes"/>
    <tag k="payment:debit_cards" v="yes"/>
    <tag k="source" v="website"/>
    <tag k="source:date" v="2018-07-18"/>
    <tag k="website" v="https://www.kulcspatika.hupatikak/szent-gyorgy-patika-p101"/>
  </node>
  <!-- OSM link: https://osm.org/node/5300650702 -->
  <!-- Original coordinates: POINT (47.201100283496 18.14099997282) -->
  <!-- OSM <-> POI distance: 13.14532225 m-->
  <!-- Checker good: {not_in_water}; bad {}-->
  <!-- Original tags: 'amenity':'pharmacy';  -->
  <node action="modify" changeset="1" id="5300650702" lat="47.2009995949237" lon="18.1409087974748" timestamp="2017-12-23T12:26:33Z" uid="4579407" user="KAMI" version="1">
    <tag k="addr:city" v="Várpalota"/>
    <tag k="addr:country" v="HU"/>
    <tag k="addr:housenumber" v="2"/>
    <tag k="addr:postcode" v="8100"/>
    <tag k="addr:street" v="Szent István utca"/>
    <tag k="amenity" v="pharmacy"/>
    <tag k="dispensing" v="yes"/>
    <tag k="import" v="osm_poi_matchmaker"/>
    <tag k="name" v="Kulcs Patika"/>
    <tag k="payment:cash" v="yes"/>
    <tag k="payment:debit_cards" v="yes"/>
    <tag k="source" v="website"/>
    <tag k="source:date" v="2018-07-18"/>
    <tag k="website" v="https://www.kulcspatika.hupatikak/belvarosi-gyogyszertar-p177"/>
  </node>
  <!-- Original coordinates: POINT (47.642467 19.98151) -->
  <!-- OSM <-> POI distance: None m-->
  <!-- Checker good: {not_in_water}; bad {}-->
  <!-- Original tags:  -->
  <node action="modify" changeset="99999" id="-82" lat="47.642467" lon="19.98151" timestamp="" uid="4579407" user="KAMI" version="99999">
    <tag k="addr:city" v="Jászárokszállás"/>
    <tag k="addr:country" v="HU"/>
    <tag k="addr:housenumber" v="9"/>
    <tag k="addr:postcode" v="5123"/>
    <tag k="addr:street" v="Rákóczi Ferenc utca"/>
    <tag k="amenity" v="pharmacy"/>
    <tag k="dispensing" v="yes"/>
    <tag k="import" v="osm_poi_matchmaker"/>
    <tag k="name" v="Kulcs Patika"/>
    <tag k="payment:cash" v="yes"/>
    <tag k="payment:debit_cards" v="yes"/>
    <tag k="source" v="website"/>
    <tag k="source:date" v="2018-07-18"/>
    <tag k="website" v="https://www.kulcspatika.hupatikak/szent-margit-gyogyszertar-p109"/>
  </node>
  <!-- Original coordinates: POINT (47.736076391387 18.156644513878) -->
  <!-- OSM <-> POI distance: None m-->
  <!-- Checker good: {not_in_water}; bad {}-->
  <!-- Original tags:  -->
  <node action="modify" changeset="99999" id="-83" lat="47.736076391387" lon="18.156644513878" timestamp="" uid="4579407" user="KAMI" version="99999">
    <tag k="addr:city" v="Komárom"/>
    <tag k="addr:country" v="HU"/>
    <tag k="addr:housenumber" v="81"/>
    <tag k="addr:postcode" v="2921"/>
    <tag k="addr:street" v="Széchenyi utca"/>
    <tag k="amenity" v="pharmacy"/>
    <tag k="dispensing" v="yes"/>
    <tag k="import" v="osm_poi_matchmaker"/>
    <tag k="name" v="Kulcs Patika"/>
    <tag k="payment:cash" v="yes"/>
    <tag k="payment:debit_cards" v="yes"/>
    <tag k="source" v="website"/>
    <tag k="source:date" v="2018-07-18"/>
    <tag k="website" v="https://www.kulcspatika.hupatikak/vasarter-patika-p113"/>
  </node>
  <!-- OSM link: https://osm.org/way/578174411 -->
  <!-- Original coordinates: POINT (46.937164667558 19.478809386492) -->
  <!-- OSM <-> POI distance: 0.0 m-->
  <!-- Checker good: {not_in_water}; bad {}-->
  <!-- Original tags: 'amenity':'pharmacy'; 'building':'yes'; 'dispensing':'yes';  -->
  <way action="modify" changeset="1" id="578174411" timestamp="2018-04-09T16:37:32Z" uid="4579407" user="KAMI" version="1">
    <nd ref="5540704061"/>
    <nd ref="5540704058"/>
    <nd ref="5540704059"/>
    <nd ref="5540704060"/>
    <nd ref="5540704061"/>
    <tag k="addr:city" v="Kerekegyháza"/>
    <tag k="addr:country" v="HU"/>
    <tag k="addr:housenumber" v="15"/>
    <tag k="addr:postcode" v="6041"/>
    <tag k="addr:street" v="Szent István tér"/>
    <tag k="amenity" v="pharmacy"/>
    <tag k="building" v="yes"/>
    <tag k="dispensing" v="yes"/>
    <tag k="import" v="osm_poi_matchmaker"/>
    <tag k="name" v="Kulcs Patika"/>
    <tag k="payment:cash" v="yes"/>
    <tag k="payment:debit_cards" v="yes"/>
    <tag k="source" v="website"/>
    <tag k="source:date" v="2018-07-18"/>
    <tag k="website" v="https://www.kulcspatika.hupatikak/szent-istvan-gyogyszertar-p103"/>
  </way>
  <!-- OSM link: https://osm.org/node/3446873489 -->
  <!-- Original coordinates: POINT (47.919047092816 19.692880364418) -->
  <!-- OSM <-> POI distance: 8.3012747 m-->
  <!-- Checker good: {not_in_water}; bad {}-->
  <!-- Original tags: 'amenity':'pharmacy'; 'name':'Gyógyír patika'; 'source':'turistautak.hu'; 'source:date':'2011-08-21'; 'url':'http://turistautak.hu/poi.php?id=100688';  -->
  <node action="modify" changeset="1" id="3446873489" lat="47.9189739948935" lon="19.6929029972587" timestamp="2015-04-09T15:25:17Z" uid="4579407" user="KAMI" version="1">
    <tag k="addr:city" v="Pásztó"/>
    <tag k="addr:country" v="HU"/>
    <tag k="addr:housenumber" v="9"/>
    <tag k="addr:postcode" v="3060"/>
    <tag k="addr:street" v="Semmelweis utca"/>
    <tag k="amenity" v="pharmacy"/>
    <tag k="dispensing" v="yes"/>
    <tag k="import" v="osm_poi_matchmaker"/>
    <tag k="name" v="Kulcs Patika"/>
    <tag k="payment:cash" v="yes"/>
    <tag k="payment:debit_cards" v="yes"/>
    <tag k="source" v="website"/>
    <tag k="source:date" v="2018-07-18"/>
    <tag k="url" v="http://turistautak.hu/poi.php?id=100688"/>
    <tag k="website" v="https://www.kulcspatika.hupatikak/gyogyir-patika-p43"/>
  </node>
  <!-- Original coordinates: POINT (46.931941631832 18.780484171164) -->
  <!-- OSM <-> POI distance: None m-->
  <!-- Checker good: {not_in_water}; bad {}-->
  <!-- Original tags:  -->
  <node action="modify" changeset="99999" id="-86" lat="46.931941631832" lon="18.780484171164" timestamp="" uid="4579407" user="KAMI" version="99999">
    <tag k="addr:city" v="Mezőfalva"/>
    <tag k="addr:country" v="HU"/>
    <tag k="addr:housenumber" v="5"/>
    <tag k="addr:postcode" v="2422"/>
    <tag k="addr:street" v="Semmelweis I utca"/>
    <tag k="amenity" v="pharmacy"/>
    <tag k="dispensing" v="yes"/>
    <tag k="import" v="osm_poi_matchmaker"/>
    <tag k="name" v="Kulcs Patika"/>
    <tag k="payment:cash" v="yes"/>
    <tag k="payment:debit_cards" v="yes"/>
    <tag k="source" v="website"/>
    <tag k="source:date" v="2018-07-18"/>
    <tag k="website" v="https://www.kulcspatika.hupatikak/nador-gogyszertar-p179"/>
  </node>
  <!-- OSM link: https://osm.org/node/3204480902 -->
  <!-- Original coordinates: POINT (47.331359057749 19.873796042328) -->
  <!-- OSM <-> POI distance: 4.75018087 m-->
  <!-- Checker good: {not_in_water}; bad {}-->
  <!-- Original tags: 'amenity':'pharmacy';  -->
  <node action="modify" changeset="1" id="3204480902" lat="47.331341794918" lon="19.8738536972335" timestamp="2014-11-25T11:54:28Z" uid="4579407" user="KAMI" version="1">
    <tag k="addr:city" v="Tápiószele"/>
    <tag k="addr:country" v="HU"/>
    <tag k="addr:housenumber" v="8"/>
    <tag k="addr:postcode" v="2766"/>
    <tag k="addr:street" v="Kossuth Lajos út"/>
    <tag k="amenity" v="pharmacy"/>
    <tag k="dispensing" v="yes"/>
    <tag k="import" v="osm_poi_matchmaker"/>
    <tag k="name" v="Kulcs Patika"/>
    <tag k="payment:cash" v="yes"/>
    <tag k="payment:debit_cards" v="yes"/>
    <tag k="source" v="website"/>
    <tag k="source:date" v="2018-07-18"/>
    <tag k="website" v="https://www.kulcspatika.hupatikak/segito-maria-gyogyszertar-p186"/>
  </node>
  <!-- OSM link: https://osm.org/node/3469211081 -->
  <!-- Original coordinates: POINT (47.168469177256 18.407403898148) -->
  <!-- OSM <-> POI distance: 29.32151803 m-->
  <!-- Checker good: {not_in_water}; bad {}-->
  <!-- Original tags: 'amenity':'pharmacy'; 'name':'Sóstó Gyógyszertár'; 'source':'survey'; 'wheelchair':'yes';  -->
  <node action="modify" changeset="1" id="3469211081" lat="47.1683812949251" lon="18.4077695974376" timestamp="2015-11-21T19:00:09Z" uid="4579407" user="KAMI" version="3">
    <tag k="addr:city" v="Székesfehérvár"/>
    <tag k="addr:country" v="HU"/>
    <tag k="addr:housenumber" v="12"/>
    <tag k="addr:postcode" v="8000"/>
    <tag k="addr:street" v="Batthyányi utca"/>
    <tag k="amenity" v="pharmacy"/>
    <tag k="dispensing" v="yes"/>
    <tag k="import" v="osm_poi_matchmaker"/>
    <tag k="name" v="Kulcs Patika"/>
    <tag k="payment:cash" v="yes"/>
    <tag k="payment:debit_cards" v="yes"/>
    <tag k="source" v="website"/>
    <tag k="source:date" v="2018-07-18"/>
    <tag k="website" v="https://www.kulcspatika.hupatikak/sosto-gyogyszertar-p96"/>
    <tag k="wheelchair" v="yes"/>
  </node>
  <!-- OSM link: https://osm.org/node/2114336720 -->
  <!-- Original coordinates: POINT (47.205375 18.459766) -->
  <!-- OSM <-> POI distance: 37.44130949 m-->
  <!-- Checker good: {not_in_water}; bad {}-->
  <!-- Original tags: 'amenity':'pharmacy'; 'name':'Öreghegyi gyógyszertár'; 'wheelchair':'no';  -->
  <node action="modify" changeset="1" id="2114336720" lat="47.2052625949235" lon="18.4602331974303" timestamp="2015-11-21T19:06:21Z" uid="4579407" user="KAMI" version="4">
    <tag k="addr:city" v="Székesfehérvár"/>
    <tag k="addr:country" v="HU"/>
    <tag k="addr:housenumber" v="99/A"/>
    <tag k="addr:postcode" v="8000"/>
    <tag k="addr:street" v="Pozsonyi út"/>
    <tag k="amenity" v="pharmacy"/>
    <tag k="dispensing" v="yes"/>
    <tag k="import" v="osm_poi_matchmaker"/>
    <tag k="name" v="Kulcs Patika"/>
    <tag k="payment:cash" v="yes"/>
    <tag k="payment:debit_cards" v="yes"/>
    <tag k="source" v="website"/>
    <tag k="source:date" v="2018-07-18"/>
    <tag k="website" v="https://www.kulcspatika.hupatikak/oreghegyi-patika-p80"/>
    <tag k="wheelchair" v="no"/>
  </node>
  <!-- Original coordinates: POINT (47.414273 19.737764) -->
  <!-- OSM <-> POI distance: None m-->
  <!-- Checker good: {not_in_water}; bad {}-->
  <!-- Original tags:  -->
  <node action="modify" changeset="99999" id="-90" lat="47.414273" lon="19.737764" timestamp="" uid="4579407" user="KAMI" version="99999">
    <tag k="addr:city" v="Nagykáta"/>
    <tag k="addr:country" v="HU"/>
    <tag k="addr:housenumber" v="27"/>
    <tag k="addr:postcode" v="2760"/>
    <tag k="addr:street" v="Dózsa György utca"/>
    <tag k="amenity" v="pharmacy"/>
    <tag k="dispensing" v="yes"/>
    <tag k="import" v="osm_poi_matchmaker"/>
    <tag k="name" v="Kulcs Patika"/>
    <tag k="payment:cash" v="yes"/>
    <tag k="payment:debit_cards" v="yes"/>
    <tag k="source" v="website"/>
    <tag k="source:date" v="2018-07-18"/>
    <tag k="website" v="https://www.kulcspatika.hupatikak/bonsu-patika-p19"/>
  </node>
  <!-- OSM link: https://osm.org/node/5261774921 -->
  <!-- Original coordinates: POINT (47.138746 18.760136) -->
  <!-- OSM <-> POI distance: 32.82948502 m-->
  <!-- Checker good: {not_in_water}; bad {}-->
  <!-- Original tags: 'amenity':'pharmacy';  -->
  <node action="modify" changeset="1" id="5261774921" lat="47.1384667949264" lon="18.7599948973886" timestamp="2017-12-03T11:21:31Z" uid="4579407" user="KAMI" version="1">
    <tag k="addr:city" v="Pusztaszabolcs"/>
    <tag k="addr:country" v="HU"/>
    <tag k="addr:housenumber" v="6"/>
    <tag k="addr:postcode" v="2490"/>
    <tag k="addr:street" v="Sport utca"/>
    <tag k="amenity" v="pharmacy"/>
    <tag k="dispensing" v="yes"/>
    <tag k="import" v="osm_poi_matchmaker"/>
    <tag k="name" v="Kulcs Patika"/>
    <tag k="payment:cash" v="yes"/>
    <tag k="payment:debit_cards" v="yes"/>
    <tag k="source" v="website"/>
    <tag k="source:date" v="2018-07-18"/>
    <tag k="website" v="https://www.kulcspatika.hupatikak/irisz-gyogyszertar-p51"/>
  </node>
  <!-- Original coordinates: POINT (47.259412107478 19.502666115761) -->
  <!-- OSM <-> POI distance: None m-->
  <!-- Checker good: {not_in_water}; bad {}-->
  <!-- Original tags:  -->
  <node action="modify" changeset="99999" id="-92" lat="47.259412107478" lon="19.502666115761" timestamp="" uid="4579407" user="KAMI" version="99999">
    <tag k="addr:city" v="Nyáregyháza"/>
    <tag k="addr:country" v="HU"/>
    <tag k="addr:housenumber" v="11"/>
    <tag k="addr:postcode" v="2723"/>
    <tag k="addr:street" v="Diófasor út"/>
    <tag k="amenity" v="pharmacy"/>
    <tag k="dispensing" v="yes"/>
    <tag k="import" v="osm_poi_matchmaker"/>
    <tag k="name" v="Kulcs Patika"/>
    <tag k="payment:cash" v="yes"/>
    <tag k="payment:debit_cards" v="yes"/>
    <tag k="source" v="website"/>
    <tag k="source:date" v="2018-07-18"/>
    <tag k="website" v="https://www.kulcspatika.hupatikak/diofa-gyogyszertar-p154"/>
  </node>
  <!-- OSM link: https://osm.org/node/5111733668 -->
  <!-- Original coordinates: POINT (47.794119366143 18.740285933018) -->
  <!-- OSM <-> POI distance: 15.26717421 m-->
  <!-- Checker good: {not_in_water}; bad {}-->
  <!-- Original tags: 'amenity':'pharmacy'; 'name':'Kisduna Patika';  -->
  <node action="modify" changeset="1" id="5111733668" lat="47.7942562948986" lon="18.7402708973913" timestamp="2018-04-05T19:41:36Z" uid="4579407" user="KAMI" version="2">
    <tag k="addr:city" v="Esztergom"/>
    <tag k="addr:country" v="HU"/>
    <tag k="addr:housenumber" v="2/C"/>
    <tag k="addr:postcode" v="2500"/>
    <tag k="addr:street" v="Aradi tér"/>
    <tag k="amenity" v="pharmacy"/>
    <tag k="dispensing" v="yes"/>
    <tag k="import" v="osm_poi_matchmaker"/>
    <tag k="name" v="Kulcs Patika"/>
    <tag k="payment:cash" v="yes"/>
    <tag k="payment:debit_cards" v="yes"/>
    <tag k="source" v="website"/>
    <tag k="source:date" v="2018-07-18"/>
    <tag k="website" v="https://www.kulcspatika.hupatikak/kis-duna-patika-p166"/>
  </node>
  <!-- OSM link: https://osm.org/node/3454423004 -->
  <!-- Original coordinates: POINT (47.788748998269 18.740789294243) -->
  <!-- OSM <-> POI distance: 4.25024553 m-->
  <!-- Checker good: {not_in_water}; bad {}-->
  <!-- Original tags: 'amenity':'pharmacy'; 'description':'Kerschbanmayer Patika Esztergom, Kossuth L. 41.'; 'name':'Kerschbanmayer patika'; 'opening_hours':'Mo-Fr 08:00-16:00'; 'phone':'+36 (33) 411 145'; 'source':'turistautak.hu'; 'source:date':'2011-02-24'; 'url':'http://turistautak.hu/poi.php?id=19031'; 'website':'http://www.medigen.hu/patikakereso/905_kerschbaummayer-gyogyszertar';  -->
  <node action="modify" changeset="1" id="3454423004" lat="47.7887402948988" lon="18.7407338973913" timestamp="2018-04-08T01:41:31Z" uid="4579407" user="KAMI" version="4">
    <tag k="addr:city" v="Esztergom"/>
    <tag k="addr:country" v="HU"/>
    <tag k="addr:housenumber" v="41"/>
    <tag k="addr:postcode" v="2500"/>
    <tag k="addr:street" v="Kossuth Lajos utca"/>
    <tag k="amenity" v="pharmacy"/>
    <tag k="description" v="Kerschbanmayer Patika Esztergom, Kossuth L. 41."/>
    <tag k="dispensing" v="yes"/>
    <tag k="import" v="osm_poi_matchmaker"/>
    <tag k="name" v="Kulcs Patika"/>
    <tag k="opening_hours" v="Mo-Fr 08:00-16:00"/>
    <tag k="payment:cash" v="yes"/>
    <tag k="payment:debit_cards" v="yes"/>
    <tag k="phone" v="+36 (33) 411 145"/>
    <tag k="source" v="website"/>
    <tag k="source:date" v="2018-07-18"/>
    <tag k="url" v="http://turistautak.hu/poi.php?id=19031"/>
    <tag k="website" v="https://www.kulcspatika.hupatikak/kersi-patika-p165"/>
  </node>
  <!-- OSM link: https://osm.org/node/3446927885 -->
  <!-- Original coordinates: POINT (47.452389627434 19.524404626984) -->
  <!-- OSM <-> POI distance: 6.93518339 m-->
  <!-- Checker good: {not_in_water}; bad {}-->
  <!-- Original tags: 'amenity':'pharmacy'; 'source':'turistautak.hu'; 'source:date':'2011-05-16'; 'url':'http://turistautak.hu/poi.php?id=77525';  -->
  <node action="modify" changeset="1" id="3446927885" lat="47.4524189949129" lon="19.5244859972822" timestamp="2015-04-09T15:37:03Z" uid="4579407" user="KAMI" version="1">
    <tag k="addr:city" v="Sülysáp"/>
    <tag k="addr:country" v="HU"/>
    <tag k="addr:housenumber" v="26"/>
    <tag k="addr:postcode" v="2242"/>
    <tag k="addr:street" v="Vasút utca"/>
    <tag k="amenity" v="pharmacy"/>
    <tag k="dispensing" v="yes"/>
    <tag k="import" v="osm_poi_matchmaker"/>
    <tag k="name" v="Kulcs Patika"/>
    <tag k="payment:cash" v="yes"/>
    <tag k="payment:debit_cards" v="yes"/>
    <tag k="source" v="website"/>
    <tag k="source:date" v="2018-07-18"/>
    <tag k="url" v="http://turistautak.hu/poi.php?id=77525"/>
    <tag k="website" v="https://www.kulcspatika.hupatikak/levendula-patika-p69"/>
  </node>
  <!-- Original coordinates: POINT (47.213278712211 19.278215589302) -->
  <!-- OSM <-> POI distance: None m-->
  <!-- Checker good: {not_in_water}; bad {}-->
  <!-- Original tags:  -->
  <node action="modify" changeset="99999" id="-96" lat="47.213278712211" lon="19.278215589302" timestamp="" uid="4579407" user="KAMI" version="99999">
    <tag k="addr:city" v="Dabas"/>
    <tag k="addr:country" v="HU"/>
    <tag k="addr:housenumber" v="154"/>
    <tag k="addr:postcode" v="2371"/>
    <tag k="addr:street" v="Szent János út"/>
    <tag k="amenity" v="pharmacy"/>
    <tag k="dispensing" v="yes"/>
    <tag k="import" v="osm_poi_matchmaker"/>
    <tag k="name" v="Kulcs Patika"/>
    <tag k="payment:cash" v="yes"/>
    <tag k="payment:debit_cards" v="yes"/>
    <tag k="source" v="website"/>
    <tag k="source:date" v="2018-07-18"/>
    <tag k="website" v="https://www.kulcspatika.hupatikak/szent-janos-gyogyszertar-p107"/>
  </node>
  <!-- OSM link: https://osm.org/node/2430419885 -->
  <!-- Original coordinates: POINT (47.822613761911 19.03510093689) -->
  <!-- OSM <-> POI distance: 8.41746581 m-->
  <!-- Checker good: {not_in_water}; bad {}-->
  <!-- Original tags: 'amenity':'pharmacy';  -->
  <node action="modify" changeset="1" id="2430419885" lat="47.8226215948974" lon="19.0349887973503" timestamp="2013-08-24T20:07:51Z" uid="4579407" user="KAMI" version="1">
    <tag k="addr:city" v="Verőce"/>
    <tag k="addr:country" v="HU"/>
    <tag k="addr:housenumber" v="3"/>
    <tag k="addr:postcode" v="2621"/>
    <tag k="addr:street" v="Rákóczi út"/>
    <tag k="amenity" v="pharmacy"/>
    <tag k="dispensing" v="yes"/>
    <tag k="import" v="osm_poi_matchmaker"/>
    <tag k="name" v="Kulcs Patika"/>
    <tag k="payment:cash" v="yes"/>
    <tag k="payment:debit_cards" v="yes"/>
    <tag k="source" v="website"/>
    <tag k="source:date" v="2018-07-18"/>
    <tag k="website" v="https://www.kulcspatika.hupatikak/dunakanyar-gyogyszertar-p160"/>
  </node>
  <!-- Original coordinates: POINT (47.539020874759 19.394731521606) -->
  <!-- OSM <-> POI distance: None m-->
  <!-- Checker good: {not_in_water}; bad {}-->
  <!-- Original tags:  -->
  <node action="modify" changeset="99999" id="-98" lat="47.539020874759" lon="19.394731521606" timestamp="" uid="4579407" user="KAMI" version="99999">
    <tag k="addr:city" v="Isaszeg"/>
    <tag k="addr:country" v="HU"/>
    <tag k="addr:housenumber" v="87"/>
    <tag k="addr:postcode" v="2117"/>
    <tag k="addr:street" v="Kossuth Lajos utca"/>
    <tag k="amenity" v="pharmacy"/>
    <tag k="dispensing" v="yes"/>
    <tag k="import" v="osm_poi_matchmaker"/>
    <tag k="name" v="Kulcs Patika"/>
    <tag k="payment:cash" v="yes"/>
    <tag k="payment:debit_cards" v="yes"/>
    <tag k="source" v="website"/>
    <tag k="source:date" v="2018-07-18"/>
    <tag k="website" v="https://www.kulcspatika.hupatikak/ezustkehely-patika-p159"/>
  </node>
  <!-- Original coordinates: POINT (47.610557 19.338002) -->
  <!-- OSM <-> POI distance: None m-->
  <!-- Checker good: {not_in_water}; bad {}-->
  <!-- Original tags:  -->
  <node action="modify" changeset="99999" id="-99" lat="47.610557" lon="19.338002" timestamp="" uid="4579407" user="KAMI" version="99999">
    <tag k="addr:city" v="Gödöllő"/>
    <tag k="addr:country" v="HU"/>
    <tag k="addr:housenumber" v="2"/>
    <tag k="addr:postcode" v="2100"/>
    <tag k="addr:street" v="Thegze Lajos utca"/>
    <tag k="amenity" v="pharmacy"/>
    <tag k="dispensing" v="yes"/>
    <tag k="import" v="osm_poi_matchmaker"/>
    <tag k="name" v="Kulcs Patika"/>
    <tag k="payment:cash" v="yes"/>
    <tag k="payment:debit_cards" v="yes"/>
    <tag k="source" v="website"/>
    <tag k="source:date" v="2018-07-18"/>
    <tag k="website" v="https://www.kulcspatika.hupatikak/sanitas-tescopatika-p112"/>
  </node>
  <!-- Original coordinates: POINT (47.4692 19.294599) -->
  <!-- OSM <-> POI distance: None m-->
  <!-- Checker good: {not_in_water}; bad {}-->
  <!-- Original tags:  -->
  <node action="modify" changeset="99999" id="-100" lat="47.4692" lon="19.294599" timestamp="" uid="4579407" user="KAMI" version="99999">
    <tag k="addr:city" v="Budapest"/>
    <tag k="addr:country" v="HU"/>
    <tag k="addr:housenumber" v="368"/>
    <tag k="addr:postcode" v="1171"/>
    <tag k="addr:street" v="Pesti út"/>
    <tag k="amenity" v="pharmacy"/>
    <tag k="dispensing" v="yes"/>
    <tag k="import" v="osm_poi_matchmaker"/>
    <tag k="name" v="Kulcs Patika"/>
    <tag k="payment:cash" v="yes"/>
    <tag k="payment:debit_cards" v="yes"/>
    <tag k="source" v="website"/>
    <tag k="source:date" v="2018-07-18"/>
    <tag k="website" v="https://www.kulcspatika.hupatikak/szent-gyorgy-gyogyszertar-p99"/>
  </node>
  <!-- Original coordinates: POINT (47.32643954805 19.002023935318) -->
  <!-- OSM <-> POI distance: None m-->
  <!-- Checker good: {not_in_water}; bad {}-->
  <!-- Original tags:  -->
  <node action="modify" changeset="99999" id="-101" lat="47.32643954805" lon="19.002023935318" timestamp="" uid="4579407" user="KAMI" version="99999">
    <tag k="addr:city" v="Szigethalom"/>
    <tag k="addr:country" v="HU"/>
    <tag k="addr:postcode" v="2315"/>
    <tag k="amenity" v="pharmacy"/>
    <tag k="dispensing" v="yes"/>
    <tag k="import" v="osm_poi_matchmaker"/>
    <tag k="name" v="Kulcs Patika"/>
    <tag k="payment:cash" v="yes"/>
    <tag k="payment:debit_cards" v="yes"/>
    <tag k="source" v="website"/>
    <tag k="source:date" v="2018-07-18"/>
    <tag k="website" v="https://www.kulcspatika.hupatikak/csillag-patika-p153"/>
  </node>
  <!-- Original coordinates: POINT (47.616311 19.193243) -->
  <!-- OSM <-> POI distance: None m-->
  <!-- Checker good: {not_in_water}; bad {}-->
  <!-- Original tags:  -->
  <node action="modify" changeset="99999" id="-102" lat="47.616311" lon="19.193243" timestamp="" uid="4579407" user="KAMI" version="99999">
    <tag k="addr:city" v="Fót"/>
    <tag k="addr:country" v="HU"/>
    <tag k="addr:housenumber" v="15"/>
    <tag k="addr:postcode" v="2151"/>
    <tag k="addr:street" v="Szent Benedek utca"/>
    <tag k="amenity" v="pharmacy"/>
    <tag k="dispensing" v="yes"/>
    <tag k="import" v="osm_poi_matchmaker"/>
    <tag k="name" v="Kulcs Patika"/>
    <tag k="payment:cash" v="yes"/>
    <tag k="payment:debit_cards" v="yes"/>
    <tag k="source" v="website"/>
    <tag k="source:date" v="2018-07-18"/>
    <tag k="website" v="https://www.kulcspatika.hupatikak/pandulia-gyogyszertar-p82"/>
  </node>
  <!-- OSM link: https://osm.org/node/3398757662 -->
  <!-- Original coordinates: POINT (47.60706 19.197127) -->
  <!-- OSM <-> POI distance: 26.53214921 m-->
  <!-- Checker good: {not_in_water}; bad {}-->
  <!-- Original tags: 'amenity':'pharmacy'; 'name':'Somlyó Gyógyszertár'; 'source':'turistautak.hu'; 'url':'http://turistautak.hu/poi.php?id=139976';  -->
  <node action="modify" changeset="1" id="3398757662" lat="47.6068399949064" lon="19.1969899973278" timestamp="2015-03-14T21:34:59Z" uid="4579407" user="KAMI" version="1">
    <tag k="addr:city" v="Fót"/>
    <tag k="addr:country" v="HU"/>
    <tag k="addr:housenumber" v="4"/>
    <tag k="addr:postcode" v="2151"/>
    <tag k="addr:street" v="Vörösmarty Mihály tér"/>
    <tag k="amenity" v="pharmacy"/>
    <tag k="dispensing" v="yes"/>
    <tag k="import" v="osm_poi_matchmaker"/>
    <tag k="name" v="Kulcs Patika"/>
    <tag k="payment:cash" v="yes"/>
    <tag k="payment:debit_cards" v="yes"/>
    <tag k="source" v="website"/>
    <tag k="source:date" v="2018-07-18"/>
    <tag k="url" v="http://turistautak.hu/poi.php?id=139976"/>
    <tag k="website" v="https://www.kulcspatika.hupatikak/somlyo-gyogyszertar-p95"/>
  </node>
  <!-- Original coordinates: POINT (47.621799808646 19.159212112427) -->
  <!-- OSM <-> POI distance: None m-->
  <!-- Checker good: {not_in_water}; bad {}-->
  <!-- Original tags:  -->
  <node action="modify" changeset="99999" id="-104" lat="47.621799808646" lon="19.159212112427" timestamp="" uid="4579407" user="KAMI" version="99999">
    <tag k="addr:city" v="Dunakeszi"/>
    <tag k="addr:country" v="HU"/>
    <tag k="addr:housenumber" v="77"/>
    <tag k="addr:postcode" v="2120"/>
    <tag k="addr:street" v="Fóti út"/>
    <tag k="amenity" v="pharmacy"/>
    <tag k="dispensing" v="yes"/>
    <tag k="import" v="osm_poi_matchmaker"/>
    <tag k="name" v="Kulcs Patika"/>
    <tag k="payment:cash" v="yes"/>
    <tag k="payment:debit_cards" v="yes"/>
    <tag k="source" v="website"/>
    <tag k="source:date" v="2018-07-18"/>
    <tag k="website" v="https://www.kulcspatika.hupatikak/agnes-gyogyszertar-p142"/>
  </node>
  <!-- Original coordinates: POINT (47.378474901543 18.925935029984) -->
  <!-- OSM <-> POI distance: None m-->
  <!-- Checker good: {not_in_water}; bad {}-->
  <!-- Original tags:  -->
  <node action="modify" changeset="99999" id="-105" lat="47.378474901543" lon="18.925935029984" timestamp="" uid="4579407" user="KAMI" version="99999">
    <tag k="addr:city" v="Érd"/>
    <tag k="addr:country" v="HU"/>
    <tag k="addr:housenumber" v="13"/>
    <tag k="addr:postcode" v="2030"/>
    <tag k="addr:street" v="Budai út"/>
    <tag k="amenity" v="pharmacy"/>
    <tag k="dispensing" v="yes"/>
    <tag k="import" v="osm_poi_matchmaker"/>
    <tag k="name" v="Kulcs Patika"/>
    <tag k="payment:cash" v="yes"/>
    <tag k="payment:debit_cards" v="yes"/>
    <tag k="source" v="website"/>
    <tag k="source:date" v="2018-07-18"/>
    <tag k="website" v="https://www.kulcspatika.hupatikak/szent-gyorgy-gyogyszertar-p168"/>
  </node>
  <!-- OSM link: https://osm.org/node/3217651161 -->
  <!-- Original coordinates: POINT (47.406548 19.188909) -->
  <!-- OSM <-> POI distance: 2.06345079 m-->
  <!-- Checker good: {not_in_water}; bad {}-->
  <!-- Original tags: 'addr:city':'Budapest'; 'addr:housenumber':'86'; 'addr:postcode':'1188'; 'addr:street':'Ady Endre utca'; 'amenity':'pharmacy'; 'name':'Pestszentimrei Gizella Gyógyszertár'; 'opening_hours':'Mo-Fr 08:00-20:00; Sa 08:00-12:00'; 'phone':'+3612970133'; 'wheelchair':'yes';  -->
  <node action="modify" changeset="1" id="3217651161" lat="47.4065378949148" lon="19.1889319973289" timestamp="2016-03-03T09:23:38Z" uid="4579407" user="KAMI" version="4">
    <tag k="addr:city" v="Budapest"/>
    <tag k="addr:country" v="HU"/>
    <tag k="addr:housenumber" v="86"/>
    <tag k="addr:postcode" v="1188"/>
    <tag k="addr:street" v="Ady Endre utca"/>
    <tag k="amenity" v="pharmacy"/>
    <tag k="dispensing" v="yes"/>
    <tag k="import" v="osm_poi_matchmaker"/>
    <tag k="name" v="Kulcs Patika"/>
    <tag k="opening_hours" v="Mo-Fr 08:00-20:00; Sa 08:00-12:00"/>
    <tag k="payment:cash" v="yes"/>
    <tag k="payment:debit_cards" v="yes"/>
    <tag k="phone" v="+3612970133"/>
    <tag k="source" v="website"/>
    <tag k="source:date" v="2018-07-18"/>
    <tag k="website" v="https://www.kulcspatika.hupatikak/pestszentimrei-gizella-gyogyszertar-p84"/>
    <tag k="wheelchair" v="yes"/>
  </node>
  <!-- OSM link: https://osm.org/way/186886489 -->
  <!-- Original coordinates: POINT (47.576062403269 18.879890396959) -->
  <!-- OSM <-> POI distance: 11.93665641 m-->
  <!-- Checker good: {not_in_water}; bad {}-->
  <!-- Original tags: 'addr:city':'Nagykovácsi'; 'addr:country':'HU'; 'addr:housenumber':'105'; 'addr:postcode':'2094'; 'addr:street':'Kossuth Lajos utca'; 'amenity':'pharmacy'; 'building':'yes'; 'name':'Cédrus Gyógyszertár'; 'opening_hours':'Mo-Fr 08:00-19:00; Sa 08:00-12:00'; 'phone':'+3626389482'; 'website':'http://cedrusnagykovacsi.novodata.hu/';  -->
  <way action="modify" changeset="1" id="186886489" timestamp="2013-05-09T09:08:50Z" uid="4579407" user="KAMI" version="2">
    <nd ref="1976334819"/>
    <nd ref="1976334821"/>
    <nd ref="1976334910"/>
    <nd ref="1976334908"/>
    <nd ref="1976334819"/>
    <tag k="addr:city" v="Nagykovácsi"/>
    <tag k="addr:country" v="HU"/>
    <tag k="addr:housenumber" v="49"/>
    <tag k="addr:postcode" v="2094"/>
    <tag k="addr:street" v="Kossuth Lajos utca"/>
    <tag k="amenity" v="pharmacy"/>
    <tag k="building" v="yes"/>
    <tag k="dispensing" v="yes"/>
    <tag k="import" v="osm_poi_matchmaker"/>
    <tag k="name" v="Kulcs Patika"/>
    <tag k="opening_hours" v="Mo-Fr 08:00-19:00; Sa 08:00-12:00"/>
    <tag k="payment:cash" v="yes"/>
    <tag k="payment:debit_cards" v="yes"/>
    <tag k="phone" v="+3626389482"/>
    <tag k="source" v="website"/>
    <tag k="source:date" v="2018-07-18"/>
    <tag k="website" v="https://www.kulcspatika.hupatikak/cedrus-gyogyszertar-p172"/>
  </way>
  <!-- Original coordinates: POINT (47.483292907705 19.227433779099) -->
  <!-- OSM <-> POI distance: None m-->
  <!-- Checker good: {not_in_water}; bad {}-->
  <!-- Original tags:  -->
  <node action="modify" changeset="99999" id="-108" lat="47.483292907705" lon="19.227433779099" timestamp="" uid="4579407" user="KAMI" version="99999">
    <tag k="addr:city" v="Budapest"/>
    <tag k="addr:country" v="HU"/>
    <tag k="addr:housenumber" v="5-7"/>
    <tag k="addr:postcode" v="1173"/>
    <tag k="addr:street" v="Pesti út"/>
    <tag k="amenity" v="pharmacy"/>
    <tag k="dispensing" v="yes"/>
    <tag k="import" v="osm_poi_matchmaker"/>
    <tag k="name" v="Kulcs Patika"/>
    <tag k="payment:cash" v="yes"/>
    <tag k="payment:debit_cards" v="yes"/>
    <tag k="source" v="website"/>
    <tag k="source:date" v="2018-07-18"/>
    <tag k="website" v="https://www.kulcspatika.hupatikak/akademia-patika-p2"/>
  </node>
  <!-- OSM link: https://osm.org/way/292305648 -->
  <!-- Original coordinates: POINT (47.40861711385 18.949314281615) -->
  <!-- OSM <-> POI distance: 0.0 m-->
  <!-- Checker good: {not_in_water}; bad {}-->
  <!-- Original tags: 'amenity':'pharmacy'; 'building':'yes';  -->
  <way action="modify" changeset="1" id="292305648" timestamp="2014-07-11T13:14:26Z" uid="4579407" user="KAMI" version="1">
    <nd ref="2958524022"/>
    <nd ref="2958524023"/>
    <nd ref="2958524028"/>
    <nd ref="2958524024"/>
    <nd ref="2958524025"/>
    <nd ref="2958524022"/>
    <tag k="addr:city" v="Diósd"/>
    <tag k="addr:country" v="HU"/>
    <tag k="addr:housenumber" v="7"/>
    <tag k="addr:postcode" v="2049"/>
    <tag k="addr:street" v="Szent István tér"/>
    <tag k="amenity" v="pharmacy"/>
    <tag k="building" v="yes"/>
    <tag k="dispensing" v="yes"/>
    <tag k="import" v="osm_poi_matchmaker"/>
    <tag k="name" v="Kulcs Patika"/>
    <tag k="payment:cash" v="yes"/>
    <tag k="payment:debit_cards" v="yes"/>
    <tag k="source" v="website"/>
    <tag k="source:date" v="2018-07-18"/>
    <tag k="website" v="https://www.kulcspatika.hupatikak/szent-gellert-gyogyszertar-p183"/>
  </way>
  <!-- OSM link: https://osm.org/way/287658540 -->
  <!-- Original coordinates: POINT (47.51696506644 19.184552067459) -->
  <!-- OSM <-> POI distance: 2.7903139 m-->
  <!-- Checker good: {not_in_water}; bad {}-->
  <!-- Original tags: 'addr:city':'Budapest'; 'addr:housenumber':'16'; 'addr:postcode':'1165'; 'addr:street':'Centenáriumi sétány'; 'amenity':'pharmacy'; 'dispensing':'no'; 'name':'Gyémánt Patika';  -->
  <way action="modify" changeset="1" id="287658540" timestamp="2016-03-04T11:53:33Z" uid="4579407" user="KAMI" version="4">
    <nd ref="2912294270"/>
    <nd ref="2912294273"/>
    <nd ref="2912294272"/>
    <nd ref="2912294271"/>
    <nd ref="2912294270"/>
    <tag k="addr:city" v="Budapest"/>
    <tag k="addr:country" v="HU"/>
    <tag k="addr:housenumber" v="16-18"/>
    <tag k="addr:postcode" v="1165"/>
    <tag k="addr:street" v="Centenáriumi sétány"/>
    <tag k="amenity" v="pharmacy"/>
    <tag k="dispensing" v="yes"/>
    <tag k="import" v="osm_poi_matchmaker"/>
    <tag k="name" v="Kulcs Patika"/>
    <tag k="payment:cash" v="yes"/>
    <tag k="payment:debit_cards" v="yes"/>
    <tag k="source" v="website"/>
    <tag k="source:date" v="2018-07-18"/>
    <tag k="website" v="https://www.kulcspatika.hupatikak/gyemant-patika-p39"/>
  </way>
  <!-- OSM link: https://osm.org/node/5378532023 -->
  <!-- Original coordinates: POINT (47.549076687692 19.148097038269) -->
  <!-- OSM <-> POI distance: 41.18667675 m-->
  <!-- Checker good: {not_in_water}; bad {}-->
  <!-- Original tags: 'addr:city':'Budapest'; 'addr:housenumber':'167-169'; 'addr:postcode':'1152'; 'addr:street':'Szentmihályi út'; 'amenity':'pharmacy'; 'drive_through':'no'; 'healthcare':'pharmacy'; 'level':'0'; 'name':'AsiaCenter Gyógyszertár'; 'opening_hours':'24/7'; 'payment:american_express':'yes'; 'payment:cards':'yes'; 'payment:cash':'yes'; 'payment:maestro':'yes'; 'payment:mastercard':'yes'; 'payment:visa':'yes'; 'payment:visa_debit':'yes'; 'payment:visa_electron':'yes'; 'phone':'+36 1 688 90 88'; 'website':'http://asiacenterpatika.hu/';  -->
  <node action="modify" changeset="1" id="5378532023" lat="47.5489673949088" lon="19.1475726973346" timestamp="2018-03-03T20:35:25Z" uid="4579407" user="KAMI" version="2">
    <tag k="addr:city" v="Budapest"/>
    <tag k="addr:country" v="HU"/>
    <tag k="addr:housenumber" v="167-169"/>
    <tag k="addr:postcode" v="1152"/>
    <tag k="addr:street" v="Szentmihályi út"/>
    <tag k="amenity" v="pharmacy"/>
    <tag k="dispensing" v="yes"/>
    <tag k="drive_through" v="no"/>
    <tag k="healthcare" v="pharmacy"/>
    <tag k="import" v="osm_poi_matchmaker"/>
    <tag k="level" v="0"/>
    <tag k="name" v="Kulcs Patika"/>
    <tag k="opening_hours" v="24/7"/>
    <tag k="payment:american_express" v="yes"/>
    <tag k="payment:cards" v="yes"/>
    <tag k="payment:cash" v="yes"/>
    <tag k="payment:debit_cards" v="yes"/>
    <tag k="payment:maestro" v="yes"/>
    <tag k="payment:mastercard" v="yes"/>
    <tag k="payment:visa" v="yes"/>
    <tag k="payment:visa_debit" v="yes"/>
    <tag k="payment:visa_electron" v="yes"/>
    <tag k="phone" v="+36 1 688 90 88"/>
    <tag k="source" v="website"/>
    <tag k="source:date" v="2018-07-18"/>
    <tag k="website" v="https://www.kulcspatika.hupatikak/kulcs-gyogyszertar-asiacenter-p184"/>
  </node>
  <!-- OSM link: https://osm.org/node/2579720793 -->
  <!-- Original coordinates: POINT (47.466369823981 19.158057188559) -->
  <!-- OSM <-> POI distance: 13.4177876 m-->
  <!-- Checker good: {not_in_water}; bad {}-->
  <!-- Original tags: 'addr:city':'Budapest'; 'addr:housenumber':'99'; 'addr:postcode':'1103'; 'addr:street':'Gyömrői út'; 'amenity':'pharmacy'; 'dispensing':'pharmacie'; 'drive_through':'no'; 'name':'Príma Gyógyszertár'; 'opening_hours':'Mo-Fr 07:30-20:00; Sa 08:00-18:00; Su 08:00-15:00'; 'phone':'+36 1 431 79 47'; 'website':'http://www.kulcspatika.hu/patikak/prima-gyogyszertar-cba-ujhegy-bevasarloudvar-p144'; 'wheelchair':'yes';  -->
  <node action="modify" changeset="1" id="2579720793" lat="47.4663708949123" lon="19.1578786973332" timestamp="2018-01-09T15:21:34Z" uid="4579407" user="KAMI" version="3">
    <tag k="addr:city" v="Budapest"/>
    <tag k="addr:country" v="HU"/>
    <tag k="addr:housenumber" v="99"/>
    <tag k="addr:postcode" v="1103"/>
    <tag k="addr:street" v="Gyömrői út"/>
    <tag k="amenity" v="pharmacy"/>
    <tag k="dispensing" v="yes"/>
    <tag k="drive_through" v="no"/>
    <tag k="import" v="osm_poi_matchmaker"/>
    <tag k="name" v="Kulcs Patika"/>
    <tag k="opening_hours" v="Mo-Fr 07:30-20:00; Sa 08:00-18:00; Su 08:00-15:00"/>
    <tag k="payment:cash" v="yes"/>
    <tag k="payment:debit_cards" v="yes"/>
    <tag k="phone" v="+36 1 431 79 47"/>
    <tag k="source" v="website"/>
    <tag k="source:date" v="2018-07-18"/>
    <tag k="website" v="https://www.kulcspatika.hupatikak/prima-gyogyszertar-ujhegy-bevasarloudvar-p144"/>
    <tag k="wheelchair" v="yes"/>
  </node>
  <!-- OSM link: https://osm.org/node/4224960792 -->
  <!-- Original coordinates: POINT (47.561954202561 19.106427580118) -->
  <!-- OSM <-> POI distance: 38.68015802 m-->
  <!-- Checker good: {not_in_water}; bad {}-->
  <!-- Original tags: 'amenity':'pharmacy';  -->
  <node action="modify" changeset="1" id="4224960792" lat="47.5617474949082" lon="19.1068421973403" timestamp="2016-06-04T05:16:13Z" uid="4579407" user="KAMI" version="1">
    <tag k="addr:city" v="Budapest"/>
    <tag k="addr:country" v="HU"/>
    <tag k="addr:housenumber" v="183-185"/>
    <tag k="addr:postcode" v="1042"/>
    <tag k="addr:street" v="Árpád út"/>
    <tag k="amenity" v="pharmacy"/>
    <tag k="dispensing" v="yes"/>
    <tag k="import" v="osm_poi_matchmaker"/>
    <tag k="name" v="Kulcs Patika"/>
    <tag k="payment:cash" v="yes"/>
    <tag k="payment:debit_cards" v="yes"/>
    <tag k="source" v="website"/>
    <tag k="source:date" v="2018-07-18"/>
    <tag k="website" v="https://www.kulcspatika.hupatikak/szent-andras-gyogyszertar-p167"/>
  </node>
  <!-- Original coordinates: POINT (47.440524771748 19.107687275463) -->
  <!-- OSM <-> POI distance: None m-->
  <!-- Checker good: {not_in_water}; bad {}-->
  <!-- Original tags:  -->
  <node action="modify" changeset="99999" id="-114" lat="47.440524771748" lon="19.107687275463" timestamp="" uid="4579407" user="KAMI" version="99999">
    <tag k="addr:city" v="Budapest"/>
    <tag k="addr:country" v="HU"/>
    <tag k="addr:housenumber" v="55"/>
    <tag k="addr:postcode" v="1203"/>
    <tag k="addr:street" v="Kossuth Lajos utca"/>
    <tag k="amenity" v="pharmacy"/>
    <tag k="dispensing" v="yes"/>
    <tag k="import" v="osm_poi_matchmaker"/>
    <tag k="name" v="Kulcs Patika"/>
    <tag k="payment:cash" v="yes"/>
    <tag k="payment:debit_cards" v="yes"/>
    <tag k="source" v="website"/>
    <tag k="source:date" v="2018-07-18"/>
    <tag k="website" v="https://www.kulcspatika.hupatikak/albatros-patika-p182"/>
  </node>
  <!-- OSM link: https://osm.org/node/2555992832 -->
  <!-- Original coordinates: POINT (47.557370497567 19.100082971828) -->
  <!-- OSM <-> POI distance: 1.62664501 m-->
  <!-- Checker good: {not_in_water}; bad {}-->
  <!-- Original tags: 'addr:city':'Budapest'; 'addr:housenumber':'16'; 'addr:postcode':'1042'; 'addr:street':'Rózsa utca'; 'amenity':'pharmacy'; 'name':'Szent Borbála Gyógyszertár'; 'opening_hours':'Mo-Fr 08:00-20:00;Sa 08:00-12:00'; 'phone':'+3613694460'; 'wheelchair':'yes';  -->
  <node action="modify" changeset="1" id="2555992832" lat="47.5573846949084" lon="19.1000881973412" timestamp="2015-04-23T03:23:56Z" uid="4579407" user="KAMI" version="5">
    <tag k="addr:city" v="Budapest"/>
    <tag k="addr:country" v="HU"/>
    <tag k="addr:housenumber" v="16-18"/>
    <tag k="addr:postcode" v="1045"/>
    <tag k="addr:street" v="Rózsa utca"/>
    <tag k="amenity" v="pharmacy"/>
    <tag k="dispensing" v="yes"/>
    <tag k="import" v="osm_poi_matchmaker"/>
    <tag k="name" v="Kulcs Patika"/>
    <tag k="opening_hours" v="Mo-Fr 08:00-20:00;Sa 08:00-12:00"/>
    <tag k="payment:cash" v="yes"/>
    <tag k="payment:debit_cards" v="yes"/>
    <tag k="phone" v="+3613694460"/>
    <tag k="source" v="website"/>
    <tag k="source:date" v="2018-07-18"/>
    <tag k="website" v="https://www.kulcspatika.hupatikak/szent-borbala-gyogyszertar-p175"/>
    <tag k="wheelchair" v="yes"/>
  </node>
  <!-- Original coordinates: POINT (47.541537724795 19.123747944832) -->
  <!-- OSM <-> POI distance: None m-->
  <!-- Checker good: {not_in_water}; bad {}-->
  <!-- Original tags:  -->
  <node action="modify" changeset="99999" id="-116" lat="47.541537724795" lon="19.123747944832" timestamp="" uid="4579407" user="KAMI" version="99999">
    <tag k="addr:city" v="Budapest"/>
    <tag k="addr:country" v="HU"/>
    <tag k="addr:housenumber" v="25/B"/>
    <tag k="addr:postcode" v="1155"/>
    <tag k="addr:street" v="Szent Korona útja"/>
    <tag k="amenity" v="pharmacy"/>
    <tag k="dispensing" v="yes"/>
    <tag k="import" v="osm_poi_matchmaker"/>
    <tag k="name" v="Kulcs Patika"/>
    <tag k="payment:cash" v="yes"/>
    <tag k="payment:debit_cards" v="yes"/>
    <tag k="source" v="website"/>
    <tag k="source:date" v="2018-07-18"/>
    <tag k="website" v="https://www.kulcspatika.hupatikak/diana-gyogyszertar-p189"/>
  </node>
  <!-- Original coordinates: POINT (47.511394856793 19.143211941139) -->
  <!-- OSM <-> POI distance: None m-->
  <!-- Checker good: {not_in_water}; bad {}-->
  <!-- Original tags:  -->
  <node action="modify" changeset="99999" id="-117" lat="47.511394856793" lon="19.143211941139" timestamp="" uid="4579407" user="KAMI" version="99999">
    <tag k="addr:city" v="Budapest"/>
    <tag k="addr:country" v="HU"/>
    <tag k="addr:housenumber" v="3/A"/>
    <tag k="addr:postcode" v="1144"/>
    <tag k="addr:street" v="Csertő park"/>
    <tag k="amenity" v="pharmacy"/>
    <tag k="dispensing" v="yes"/>
    <tag k="import" v="osm_poi_matchmaker"/>
    <tag k="name" v="Kulcs Patika"/>
    <tag k="payment:cash" v="yes"/>
    <tag k="payment:debit_cards" v="yes"/>
    <tag k="source" v="website"/>
    <tag k="source:date" v="2018-07-18"/>
    <tag k="website" v="https://www.kulcspatika.hupatikak/cserto-patika-p25"/>
  </node>
  <!-- OSM link: https://osm.org/node/1084263760 -->
  <!-- Original coordinates: POINT (47.501754 19.138827) -->
  <!-- OSM <-> POI distance: 18.25124459 m-->
  <!-- Checker good: {not_in_water}; bad {}-->
  <!-- Original tags: 'amenity':'pharmacy'; 'name':'Európa'; 'wheelchair':'no';  -->
  <node action="modify" changeset="1" id="1084263760" lat="47.5017719949108" lon="19.1390684973358" timestamp="2017-07-18T14:43:21Z" uid="4579407" user="KAMI" version="3">
    <tag k="addr:city" v="Budapest"/>
    <tag k="addr:country" v="HU"/>
    <tag k="addr:housenumber" v="4/C"/>
    <tag k="addr:postcode" v="1106"/>
    <tag k="addr:street" v="Gyakorló utca"/>
    <tag k="amenity" v="pharmacy"/>
    <tag k="dispensing" v="yes"/>
    <tag k="import" v="osm_poi_matchmaker"/>
    <tag k="name" v="Kulcs Patika"/>
    <tag k="payment:cash" v="yes"/>
    <tag k="payment:debit_cards" v="yes"/>
    <tag k="source" v="website"/>
    <tag k="source:date" v="2018-07-18"/>
    <tag k="website" v="https://www.kulcspatika.hupatikak/europa-gyogyszertar-p31"/>
    <tag k="wheelchair" v="no"/>
  </node>
  <!-- Original coordinates: POINT (47.4662 19.1135) -->
  <!-- OSM <-> POI distance: None m-->
  <!-- Checker good: {not_in_water}; bad {}-->
  <!-- Original tags:  -->
  <node action="modify" changeset="99999" id="-119" lat="47.4662" lon="19.1135" timestamp="" uid="4579407" user="KAMI" version="99999">
    <tag k="addr:city" v="Budapest"/>
    <tag k="addr:country" v="HU"/>
    <tag k="addr:housenumber" v="20"/>
    <tag k="addr:postcode" v="1098"/>
    <tag k="addr:street" v="Dési Huber utca"/>
    <tag k="amenity" v="pharmacy"/>
    <tag k="dispensing" v="yes"/>
    <tag k="import" v="osm_poi_matchmaker"/>
    <tag k="name" v="Kulcs Patika"/>
    <tag k="payment:cash" v="yes"/>
    <tag k="payment:debit_cards" v="yes"/>
    <tag k="source" v="website"/>
    <tag k="source:date" v="2018-07-18"/>
    <tag k="website" v="https://www.kulcspatika.hupatikak/pirula-gyogyszertar-p86"/>
  </node>
  <!-- OSM link: https://osm.org/node/1698366666 -->
  <!-- Original coordinates: POINT (47.536402739607 19.089152812958) -->
  <!-- OSM <-> POI distance: 15.94862177 m-->
  <!-- Checker good: {not_in_water}; bad {}-->
  <!-- Original tags: 'amenity':'pharmacy'; 'wheelchair':'yes';  -->
  <node action="modify" changeset="1" id="1698366666" lat="47.5365451949093" lon="19.0891280973428" timestamp="2015-11-19T10:42:52Z" uid="4579407" user="KAMI" version="2">
    <tag k="addr:city" v="Budapest"/>
    <tag k="addr:country" v="HU"/>
    <tag k="addr:housenumber" v="99"/>
    <tag k="addr:postcode" v="1135"/>
    <tag k="addr:street" v="Reitter Ferenc utca"/>
    <tag k="amenity" v="pharmacy"/>
    <tag k="dispensing" v="yes"/>
    <tag k="import" v="osm_poi_matchmaker"/>
    <tag k="name" v="Kulcs Patika"/>
    <tag k="payment:cash" v="yes"/>
    <tag k="payment:debit_cards" v="yes"/>
    <tag k="source" v="website"/>
    <tag k="source:date" v="2018-07-18"/>
    <tag k="website" v="https://www.kulcspatika.hupatikak/arany-korona-gyogyszertar-p170"/>
    <tag k="wheelchair" v="yes"/>
  </node>
  <!-- OSM link: https://osm.org/node/2631708075 -->
  <!-- Original coordinates: POINT (47.524211 19.098679) -->
  <!-- OSM <-> POI distance: 9.4558451 m-->
  <!-- Checker good: {not_in_water}; bad {}-->
  <!-- Original tags: 'addr:city':'Budapest'; 'addr:housenumber':'12'; 'addr:postcode':'1142'; 'addr:street':'Kassai tér'; 'amenity':'pharmacy'; 'name':'Vitál Patika'; 'wheelchair':'no';  -->
  <node action="modify" changeset="1" id="2631708075" lat="47.5242503949098" lon="19.0985673973415" timestamp="2015-10-04T22:47:51Z" uid="4579407" user="KAMI" version="6">
    <tag k="addr:city" v="Budapest"/>
    <tag k="addr:country" v="HU"/>
    <tag k="addr:housenumber" v="12"/>
    <tag k="addr:postcode" v="1142"/>
    <tag k="addr:street" v="Kassai tér"/>
    <tag k="amenity" v="pharmacy"/>
    <tag k="dispensing" v="yes"/>
    <tag k="import" v="osm_poi_matchmaker"/>
    <tag k="name" v="Kulcs Patika"/>
    <tag k="payment:cash" v="yes"/>
    <tag k="payment:debit_cards" v="yes"/>
    <tag k="source" v="website"/>
    <tag k="source:date" v="2018-07-18"/>
    <tag k="website" v="https://www.kulcspatika.hupatikak/vital-patika-p114"/>
    <tag k="wheelchair" v="no"/>
  </node>
  <!-- OSM link: https://osm.org/node/354714614 -->
  <!-- Original coordinates: POINT (47.523718198893 18.993040420624) -->
  <!-- OSM <-> POI distance: 1.95684861 m-->
  <!-- Checker good: {not_in_water}; bad {}-->
  <!-- Original tags: 'addr:city':'Budapest'; 'addr:housenumber':'100'; 'addr:postcode':'1026'; 'addr:street':'Pasaréti út'; 'amenity':'pharmacy'; 'email':'pasaret.gyogyszertar@t-online.hu'; 'name':'Pasaréti Gyógyszertár'; 'opening_hours':'Mo-Fr 08:00-19:00; Sa 08:00-12:00'; 'phone':'+3612008294'; 'website':'http://www.pasaret-gyogyszertar.hu';  -->
  <node action="modify" changeset="1" id="354714614" lat="47.5237357949098" lon="18.9930399973561" timestamp="2017-04-20T19:16:06Z" uid="4579407" user="KAMI" version="4">
    <tag k="addr:city" v="Budapest"/>
    <tag k="addr:country" v="HU"/>
    <tag k="addr:housenumber" v="100"/>
    <tag k="addr:postcode" v="1026"/>
    <tag k="addr:street" v="Pasaréti út"/>
    <tag k="amenity" v="pharmacy"/>
    <tag k="dispensing" v="yes"/>
    <tag k="email" v="pasaret.gyogyszertar@t-online.hu"/>
    <tag k="import" v="osm_poi_matchmaker"/>
    <tag k="name" v="Kulcs Patika"/>
    <tag k="opening_hours" v="Mo-Fr 08:00-19:00; Sa 08:00-12:00"/>
    <tag k="payment:cash" v="yes"/>
    <tag k="payment:debit_cards" v="yes"/>
    <tag k="phone" v="+3612008294"/>
    <tag k="source" v="website"/>
    <tag k="source:date" v="2018-07-18"/>
    <tag k="website" v="https://www.kulcspatika.hupatikak/pasaret-gyogyszertar-p83"/>
  </node>
  <!-- Original coordinates: POINT (47.536783730482 19.041267335415) -->
  <!-- OSM <-> POI distance: None m-->
  <!-- Checker good: {not_in_water}; bad {}-->
  <!-- Original tags:  -->
  <node action="modify" changeset="99999" id="-123" lat="47.536783730482" lon="19.041267335415" timestamp="" uid="4579407" user="KAMI" version="99999">
    <tag k="addr:city" v="Budapest"/>
    <tag k="addr:country" v="HU"/>
    <tag k="addr:housenumber" v="49"/>
    <tag k="addr:postcode" v="1036"/>
    <tag k="addr:street" v="Pacsirtamező utca"/>
    <tag k="amenity" v="pharmacy"/>
    <tag k="dispensing" v="yes"/>
    <tag k="import" v="osm_poi_matchmaker"/>
    <tag k="name" v="Kulcs Patika"/>
    <tag k="payment:cash" v="yes"/>
    <tag k="payment:debit_cards" v="yes"/>
    <tag k="source" v="website"/>
    <tag k="source:date" v="2018-07-18"/>
    <tag k="website" v="https://www.kulcspatika.hupatikak/pacsirta-patika-p180"/>
  </node>
  <!-- Original coordinates: POINT (47.531786811619 19.064694163195) -->
  <!-- OSM <-> POI distance: None m-->
  <!-- Checker good: {not_in_water}; bad {}-->
  <!-- Original tags:  -->
  <node action="modify" changeset="99999" id="-124" lat="47.531786811619" lon="19.064694163195" timestamp="" uid="4579407" user="KAMI" version="99999">
    <tag k="addr:city" v="Budapest"/>
    <tag k="addr:country" v="HU"/>
    <tag k="addr:housenumber" v="6"/>
    <tag k="addr:postcode" v="1133"/>
    <tag k="addr:street" v="Árbóc utca"/>
    <tag k="amenity" v="pharmacy"/>
    <tag k="dispensing" v="yes"/>
    <tag k="import" v="osm_poi_matchmaker"/>
    <tag k="name" v="Kulcs Patika"/>
    <tag k="payment:cash" v="yes"/>
    <tag k="payment:debit_cards" v="yes"/>
    <tag k="source" v="website"/>
    <tag k="source:date" v="2018-07-18"/>
    <tag k="website" v="https://www.kulcspatika.hupatikak/alfa-gyogyszertar-p3"/>
  </node>
  <!-- OSM link: https://osm.org/node/4043636223 -->
  <!-- Original coordinates: POINT (47.467985075381 19.016655385494) -->
  <!-- OSM <-> POI distance: 11.98155957 m-->
  <!-- Checker good: {not_in_water}; bad {}-->
  <!-- Original tags: 'amenity':'pharmacy'; 'name':'Bozókvár Gyógyszertár'; 'opening_hours':'Mo-Fr 08:00-20:00; Sa 08:00-13:00'; 'survey:date':'2016-02-28';  -->
  <node action="modify" changeset="1" id="4043636223" lat="47.4679552949122" lon="19.0165021973529" timestamp="2016-03-06T13:56:57Z" uid="4579407" user="KAMI" version="1">
    <tag k="addr:city" v="Budapest"/>
    <tag k="addr:country" v="HU"/>
    <tag k="addr:housenumber" v="6"/>
    <tag k="addr:postcode" v="1118"/>
    <tag k="addr:street" v="Bozókvár utca"/>
    <tag k="amenity" v="pharmacy"/>
    <tag k="dispensing" v="yes"/>
    <tag k="import" v="osm_poi_matchmaker"/>
    <tag k="name" v="Kulcs Patika"/>
    <tag k="opening_hours" v="Mo-Fr 08:00-20:00; Sa 08:00-13:00"/>
    <tag k="payment:cash" v="yes"/>
    <tag k="payment:debit_cards" v="yes"/>
    <tag k="source" v="website"/>
    <tag k="source:date" v="2018-07-18"/>
    <tag k="survey:date" v="2016-02-28"/>
    <tag k="website" v="https://www.kulcspatika.hupatikak/bozokvar-patika-p188"/>
  </node>
  <!-- OSM link: https://osm.org/node/2967880318 -->
  <!-- Original coordinates: POINT (47.492772369736 19.08296146627) -->
  <!-- OSM <-> POI distance: 14.14784682 m-->
  <!-- Checker good: {not_in_water}; bad {}-->
  <!-- Original tags: 'addr:city':'Budapest'; 'addr:housenumber':'5'; 'addr:postcode':'1086'; 'addr:street':'Teleki László tér'; 'amenity':'pharmacy'; 'name':'Gyógyhír Patika'; 'opening_hours':'Mo-Fr 07:00-18:00;Sa 07:00-14:00'; 'phone':'+36 1 31 31 614'; 'website':'http://gyogyhirpatika.hu/'; 'wheelchair':'limited';  -->
  <node action="modify" changeset="1" id="2967880318" lat="47.4926473949111" lon="19.0829967973436" timestamp="2017-12-26T23:01:46Z" uid="4579407" user="KAMI" version="3">
    <tag k="addr:city" v="Budapest"/>
    <tag k="addr:country" v="HU"/>
    <tag k="addr:housenumber" v="5"/>
    <tag k="addr:postcode" v="1086"/>
    <tag k="addr:street" v="Teleki László tér"/>
    <tag k="amenity" v="pharmacy"/>
    <tag k="dispensing" v="yes"/>
    <tag k="import" v="osm_poi_matchmaker"/>
    <tag k="name" v="Kulcs Patika"/>
    <tag k="opening_hours" v="Mo-Fr 07:00-18:00;Sa 07:00-14:00"/>
    <tag k="payment:cash" v="yes"/>
    <tag k="payment:debit_cards" v="yes"/>
    <tag k="phone" v="+36 1 31 31 614"/>
    <tag k="source" v="website"/>
    <tag k="source:date" v="2018-07-18"/>
    <tag k="website" v="https://www.kulcspatika.hupatikak/gyogyhir-patika-p41"/>
    <tag k="wheelchair" v="limited"/>
  </node>
  <!-- OSM link: https://osm.org/way/340223513 -->
  <!-- Original coordinates: POINT (47.488956 19.079399) -->
  <!-- OSM <-> POI distance: 62.28294844 m-->
  <!-- Checker good: {not_in_water}; bad {}-->
  <!-- Original tags: 'addr:city':'Budapest'; 'addr:housenumber':'2'; 'addr:postcode':'1083'; 'addr:street':'Szigony utca'; 'amenity':'pharmacy'; 'building':'yes'; 'dispensing':'yes'; 'email':'szigonypatika.bt@chello.hu'; 'name':'Szigony Gyógyszertár'; 'opening_hours':'Mo-Fr 08:00-20:00; Sa 08:00-12:00'; 'phone':'+3613135870'; 'website':'http://www.szigonygyogyszertar.hu'; 'wheelchair':'yes';  -->
  <way action="modify" changeset="1" id="340223513" timestamp="2017-01-25T15:34:56Z" uid="4579407" user="KAMI" version="4">
    <nd ref="966061586"/>
    <nd ref="3474395771"/>
    <nd ref="3474395782"/>
    <nd ref="3474395773"/>
    <nd ref="3474395772"/>
    <nd ref="966061586"/>
    <tag k="addr:city" v="Budapest"/>
    <tag k="addr:country" v="HU"/>
    <tag k="addr:housenumber" v="2"/>
    <tag k="addr:postcode" v="1083"/>
    <tag k="addr:street" v="Szigony utca"/>
    <tag k="amenity" v="pharmacy"/>
    <tag k="building" v="yes"/>
    <tag k="dispensing" v="yes"/>
    <tag k="email" v="szigonypatika.bt@chello.hu"/>
    <tag k="import" v="osm_poi_matchmaker"/>
    <tag k="name" v="Kulcs Patika"/>
    <tag k="opening_hours" v="Mo-Fr 08:00-20:00; Sa 08:00-12:00"/>
    <tag k="payment:cash" v="yes"/>
    <tag k="payment:debit_cards" v="yes"/>
    <tag k="phone" v="+3613135870"/>
    <tag k="source" v="website"/>
    <tag k="source:date" v="2018-07-18"/>
    <tag k="website" v="https://www.kulcspatika.hupatikak/szigony-gyogyszertar-p111"/>
    <tag k="wheelchair" v="yes"/>
  </way>
  <!-- OSM link: https://osm.org/node/533628920 -->
  <!-- Original coordinates: POINT (47.51087740493 19.072305858135) -->
  <!-- OSM <-> POI distance: 5.53149862 m-->
  <!-- Checker good: {not_in_water}; bad {}-->
  <!-- Original tags: 'addr:city':'Budapest'; 'addr:housenumber':'99'; 'addr:postcode':'1062'; 'addr:street':'Andrássy út'; 'amenity':'pharmacy'; 'dispensing':'yes'; 'email':'corvinus@invitel.hu'; 'fax':'+36 1 4610403'; 'name':'Andrássy Gyógyszertár'; 'opening_hours':'Mo-Fr 08:30-19:00;Sa 08:30-12:00'; 'phone':'+36 1 342 8382'; 'source':'http://paperwalking-uploads.s3.amazonaws.com/scans/78mvb9xn/!/!/!.jpg'; 'website':'http://www.andrassybudapest.novodata.hu/';  -->
  <node action="modify" changeset="1" id="533628920" lat="47.5108781949104" lon="19.0723794973451" timestamp="2015-04-25T18:48:08Z" uid="4579407" user="KAMI" version="5">
    <tag k="addr:city" v="Budapest"/>
    <tag k="addr:country" v="HU"/>
    <tag k="addr:housenumber" v="99"/>
    <tag k="addr:postcode" v="1062"/>
    <tag k="addr:street" v="Andrássy út"/>
    <tag k="amenity" v="pharmacy"/>
    <tag k="dispensing" v="yes"/>
    <tag k="email" v="corvinus@invitel.hu"/>
    <tag k="fax" v="+36 1 4610403"/>
    <tag k="import" v="osm_poi_matchmaker"/>
    <tag k="name" v="Kulcs Patika"/>
    <tag k="opening_hours" v="Mo-Fr 08:30-19:00;Sa 08:30-12:00"/>
    <tag k="payment:cash" v="yes"/>
    <tag k="payment:debit_cards" v="yes"/>
    <tag k="phone" v="+36 1 342 8382"/>
    <tag k="source" v="website"/>
    <tag k="source:date" v="2018-07-18"/>
    <tag k="website" v="https://www.kulcspatika.hupatikak/andrassy-gyogyszertar-p158"/>
  </node>
  <!-- OSM link: https://osm.org/node/733880890 -->
  <!-- Original coordinates: POINT (47.477583 19.053554) -->
  <!-- OSM <-> POI distance: 10.47670591 m-->
  <!-- Checker good: {not_in_water}; bad {}-->
  <!-- Original tags: 'addr:city':'Budapest'; 'addr:housenumber':'47'; 'addr:postcode':'1111'; 'addr:street':'Budafoki út'; 'amenity':'pharmacy'; 'name':'Lágymányos Patika'; 'opening_hours':'Mo-Fr 08:30-18:30; Sa 08:00-12:00'; 'wheelchair':'limited';  -->
  <node action="modify" changeset="1" id="733880890" lat="47.4776738949118" lon="19.0535172973477" timestamp="2014-06-28T06:24:25Z" uid="4579407" user="KAMI" version="6">
    <tag k="addr:city" v="Budapest"/>
    <tag k="addr:country" v="HU"/>
    <tag k="addr:housenumber" v="47"/>
    <tag k="addr:postcode" v="1111"/>
    <tag k="addr:street" v="Budafoki út"/>
    <tag k="amenity" v="pharmacy"/>
    <tag k="dispensing" v="yes"/>
    <tag k="import" v="osm_poi_matchmaker"/>
    <tag k="name" v="Kulcs Patika"/>
    <tag k="opening_hours" v="Mo-Fr 08:30-18:30; Sa 08:00-12:00"/>
    <tag k="payment:cash" v="yes"/>
    <tag k="payment:debit_cards" v="yes"/>
    <tag k="source" v="website"/>
    <tag k="source:date" v="2018-07-18"/>
    <tag k="website" v="https://www.kulcspatika.hupatikak/lagymanyos-patika-es-webaruhaz-p67"/>
    <tag k="wheelchair" v="limited"/>
  </node>
  <!-- OSM link: https://osm.org/node/839145029 -->
  <!-- Original coordinates: POINT (47.518683617268 19.051989531877) -->
  <!-- OSM <-> POI distance: 6.46344803 m-->
  <!-- Checker good: {not_in_water}; bad {}-->
  <!-- Original tags: 'amenity':'pharmacy'; 'wheelchair':'no';  -->
  <node action="modify" changeset="1" id="839145029" lat="47.5186349949101" lon="19.0520366973479" timestamp="2016-01-13T10:46:52Z" uid="4579407" user="KAMI" version="4">
    <tag k="addr:city" v="Budapest"/>
    <tag k="addr:country" v="HU"/>
    <tag k="addr:housenumber" v="26"/>
    <tag k="addr:postcode" v="1137"/>
    <tag k="addr:street" v="Szent István park"/>
    <tag k="amenity" v="pharmacy"/>
    <tag k="dispensing" v="yes"/>
    <tag k="import" v="osm_poi_matchmaker"/>
    <tag k="name" v="Kulcs Patika"/>
    <tag k="payment:cash" v="yes"/>
    <tag k="payment:debit_cards" v="yes"/>
    <tag k="source" v="website"/>
    <tag k="source:date" v="2018-07-18"/>
    <tag k="website" v="https://www.kulcspatika.hupatikak/szent-istvan-park-gyogyszertar-p181"/>
    <tag k="wheelchair" v="no"/>
  </node>
  <!-- OSM link: https://osm.org/node/2935124805 -->
  <!-- Original coordinates: POINT (47.49233223887 19.071502536535) -->
  <!-- OSM <-> POI distance: 5.2275987 m-->
  <!-- Checker good: {not_in_water}; bad {}-->
  <!-- Original tags: 'addr:city':'Budapest'; 'addr:housenumber':'1'; 'addr:postcode':'1084'; 'addr:street':'Rákóczi tér'; 'amenity':'pharmacy'; 'name':'Rákóczi Gyógyszertár'; 'opening_hours':'Mo-Fr 08:00-19:00; Sa 09:00-13:00'; 'wheelchair':'no';  -->
  <node action="modify" changeset="1" id="2935124805" lat="47.4923074949112" lon="19.0715616973452" timestamp="2017-09-19T06:40:23Z" uid="4579407" user="KAMI" version="7">
    <tag k="addr:city" v="Budapest"/>
    <tag k="addr:country" v="HU"/>
    <tag k="addr:housenumber" v="34"/>
    <tag k="addr:postcode" v="1085"/>
    <tag k="addr:street" v="József körút"/>
    <tag k="amenity" v="pharmacy"/>
    <tag k="dispensing" v="yes"/>
    <tag k="import" v="osm_poi_matchmaker"/>
    <tag k="name" v="Kulcs Patika"/>
    <tag k="opening_hours" v="Mo-Fr 08:00-19:00; Sa 09:00-13:00"/>
    <tag k="payment:cash" v="yes"/>
    <tag k="payment:debit_cards" v="yes"/>
    <tag k="source" v="website"/>
    <tag k="source:date" v="2018-07-18"/>
    <tag k="website" v="https://www.kulcspatika.hupatikak/rakoczi-gyogyszertar-p161"/>
    <tag k="wheelchair" v="no"/>
  </node>
  <!-- OSM link: https://osm.org/node/2660464796 -->
  <!-- Original coordinates: POINT (47.485265892586 19.06018935582) -->
  <!-- OSM <-> POI distance: 9.99913303 m-->
  <!-- Checker good: {not_in_water}; bad {}-->
  <!-- Original tags: 'addr:city':'Budapest'; 'addr:housenumber':'2/a'; 'addr:postcode':'1093'; 'addr:street':'Közraktár utca'; 'amenity':'pharmacy'; 'dispensing':'yes'; 'name':'Corvinus Gyógyszertár'; 'opening_hours':'Mo-Th 07:30-19:00; Fr 07:30-16:00; Sa 08:00-13:00'; 'website':'http://www.corvinuspatika.hu/'; 'wheelchair':'no';  -->
  <node action="modify" changeset="1" id="2660464796" lat="47.4851792949115" lon="19.0601534973468" timestamp="2016-05-03T13:30:11Z" uid="4579407" user="KAMI" version="3">
    <tag k="addr:city" v="Budapest"/>
    <tag k="addr:country" v="HU"/>
    <tag k="addr:housenumber" v="2/A"/>
    <tag k="addr:postcode" v="1093"/>
    <tag k="addr:street" v="Közraktár utca"/>
    <tag k="amenity" v="pharmacy"/>
    <tag k="dispensing" v="yes"/>
    <tag k="import" v="osm_poi_matchmaker"/>
    <tag k="name" v="Kulcs Patika"/>
    <tag k="opening_hours" v="Mo-Th 07:30-19:00; Fr 07:30-16:00; Sa 08:00-13:00"/>
    <tag k="payment:cash" v="yes"/>
    <tag k="payment:debit_cards" v="yes"/>
    <tag k="source" v="website"/>
    <tag k="source:date" v="2018-07-18"/>
    <tag k="website" v="https://www.kulcspatika.hupatikak/corvinus-gyogyszertar-p24"/>
    <tag k="wheelchair" v="no"/>
  </node>
  <!-- OSM link: https://osm.org/node/1704398302 -->
  <!-- Original coordinates: POINT (47.503248079257 19.065609461594) -->
  <!-- OSM <-> POI distance: 19.61324177 m-->
  <!-- Checker good: {not_in_water}; bad {}-->
  <!-- Original tags: 'addr:city':'Budapest'; 'addr:housenumber':'58'; 'addr:postcode':'1073'; 'addr:street':'Erzsébet körút'; 'amenity':'pharmacy'; 'fire_hydrant:type':'pillar'; 'name':'Royal Patika'; 'opening_hours':'24/7'; 'operator':'Kulcs Patika'; 'wheelchair':'no';  -->
  <node action="modify" changeset="1" id="1704398302" lat="47.5030781949107" lon="19.065679697346" timestamp="2017-07-19T07:28:37Z" uid="4579407" user="KAMI" version="9">
    <tag k="addr:city" v="Budapest"/>
    <tag k="addr:country" v="HU"/>
    <tag k="addr:housenumber" v="58"/>
    <tag k="addr:postcode" v="1073"/>
    <tag k="addr:street" v="Erzsébet körút"/>
    <tag k="amenity" v="pharmacy"/>
    <tag k="dispensing" v="yes"/>
    <tag k="fire_hydrant:type" v="pillar"/>
    <tag k="import" v="osm_poi_matchmaker"/>
    <tag k="name" v="Kulcs Patika"/>
    <tag k="opening_hours" v="24/7"/>
    <tag k="operator" v="Kulcs Patika"/>
    <tag k="payment:cash" v="yes"/>
    <tag k="payment:debit_cards" v="yes"/>
    <tag k="source" v="website"/>
    <tag k="source:date" v="2018-07-18"/>
    <tag k="website" v="https://www.kulcspatika.hupatikak/royal-gyogyszertar-p145"/>
    <tag k="wheelchair" v="no"/>
  </node>
  <!-- OSM link: https://osm.org/node/4560743813 -->
  <!-- Original coordinates: POINT (47.506758 19.022815) -->
  <!-- OSM <-> POI distance: 17.29690625 m-->
  <!-- Checker good: {not_in_water}; bad {}-->
  <!-- Original tags: 'addr:city':'Budapest'; 'addr:housenumber':'2-4'; 'addr:postcode':'1122'; 'addr:street':'Krisztina körút'; 'amenity':'pharmacy'; 'name':'Krisztina Patika'; 'name:en':'Krisztina Pharmacy'; 'name:hu':'Krisztina Patika'; 'opening_hours':'Mo-Fr 08:00-19:00; Sa 08:00-13:00'; 'website':'http://kulcspatika.hu/patikak/krisztina-patika-p66';  -->
  <node action="modify" changeset="1" id="4560743813" lat="47.5066218949106" lon="19.022926497352" timestamp="2017-01-02T13:33:30Z" uid="4579407" user="KAMI" version="2">
    <tag k="addr:city" v="Budapest"/>
    <tag k="addr:country" v="HU"/>
    <tag k="addr:housenumber" v="2-4"/>
    <tag k="addr:postcode" v="1122"/>
    <tag k="addr:street" v="Krisztina körút"/>
    <tag k="amenity" v="pharmacy"/>
    <tag k="dispensing" v="yes"/>
    <tag k="import" v="osm_poi_matchmaker"/>
    <tag k="name" v="Kulcs Patika"/>
    <tag k="name:en" v="Krisztina Pharmacy"/>
    <tag k="name:hu" v="Krisztina Patika"/>
    <tag k="opening_hours" v="Mo-Fr 08:00-19:00; Sa 08:00-13:00"/>
    <tag k="payment:cash" v="yes"/>
    <tag k="payment:debit_cards" v="yes"/>
    <tag k="source" v="website"/>
    <tag k="source:date" v="2018-07-18"/>
    <tag k="website" v="https://www.kulcspatika.hupatikak/krisztina-patika-p66"/>
  </node>
  <!-- OSM link: https://osm.org/node/3009401833 -->
  <!-- Original coordinates: POINT (47.497348673787 19.020600914955) -->
  <!-- OSM <-> POI distance: 1.35953505 m-->
  <!-- Checker good: {not_in_water}; bad {}-->
  <!-- Original tags: 'addr:city':'Budapest'; 'addr:housenumber':'3/a'; 'addr:postcode':'1126'; 'addr:street':'Böszörményi út'; 'amenity':'pharmacy'; 'dispensing':'yes'; 'name':'Szent Bernáth Gyógyszertár'; 'opening_hours':'Mo-Fr 08:00-18:00'; 'phone':'+36 1 355 5931'; 'wheelchair':'no';  -->
  <node action="modify" changeset="1" id="3009401833" lat="47.4973409949109" lon="19.0206149973523" timestamp="2015-10-29T12:41:13Z" uid="4579407" user="KAMI" version="3">
    <tag k="addr:city" v="Budapest"/>
    <tag k="addr:country" v="HU"/>
    <tag k="addr:housenumber" v="3/A"/>
    <tag k="addr:postcode" v="1126"/>
    <tag k="addr:street" v="Böszörményi utca"/>
    <tag k="amenity" v="pharmacy"/>
    <tag k="dispensing" v="yes"/>
    <tag k="import" v="osm_poi_matchmaker"/>
    <tag k="name" v="Kulcs Patika"/>
    <tag k="opening_hours" v="Mo-Fr 08:00-18:00"/>
    <tag k="payment:cash" v="yes"/>
    <tag k="payment:debit_cards" v="yes"/>
    <tag k="phone" v="+36 1 355 5931"/>
    <tag k="source" v="website"/>
    <tag k="source:date" v="2018-07-18"/>
    <tag k="website" v="https://www.kulcspatika.hupatikak/szent-bernat-gyogyszertar-p151"/>
    <tag k="wheelchair" v="no"/>
  </node>
  <!-- OSM link: https://osm.org/node/2390508849 -->
  <!-- Original coordinates: POINT (47.509338 19.033722) -->
  <!-- OSM <-> POI distance: 2.06445121 m-->
  <!-- Checker good: {not_in_water}; bad {}-->
  <!-- Original tags: 'addr:city':'Budapest'; 'addr:housenumber':'31'; 'addr:postcode':'1027'; 'addr:street':'Kapás utca'; 'amenity':'pharmacy'; 'name':'Korona Gyógyszertár'; 'phone':'+36 1 4870781';  -->
  <node action="modify" changeset="1" id="2390508849" lat="47.5093530949105" lon="19.0337059973505" timestamp="2013-07-20T12:50:27Z" uid="4579407" user="KAMI" version="1">
    <tag k="addr:city" v="Budapest"/>
    <tag k="addr:country" v="HU"/>
    <tag k="addr:housenumber" v="31"/>
    <tag k="addr:postcode" v="1027"/>
    <tag k="addr:street" v="Kapás utca"/>
    <tag k="amenity" v="pharmacy"/>
    <tag k="dispensing" v="yes"/>
    <tag k="import" v="osm_poi_matchmaker"/>
    <tag k="name" v="Kulcs Patika"/>
    <tag k="payment:cash" v="yes"/>
    <tag k="payment:debit_cards" v="yes"/>
    <tag k="phone" v="+36 1 4870781"/>
    <tag k="source" v="website"/>
    <tag k="source:date" v="2018-07-18"/>
    <tag k="website" v="https://www.kulcspatika.hupatikak/budai-korona-patika-p21"/>
  </node>
</osm>
